Index,Country,City,Hotel,Address,Popularity,Latitude,Longitude
1,CA,Montreal,Hotel Place d'Armes Old Montreal,"55 Rue Saint-Jacques, Montreal, Quebec, Canada",3385,45.50553,-73.55757
2,CA,Montreal,Sofitel Montreal Golden Mile,"1155 Sherbrooke West, Montreal, Quebec, Canada",2873,45.52198,-73.56561
3,CA,Montreal,InterContinental Montreal,"360 Rue St-Antoine Ouest, Montreal, Quebec, Canada",2693,45.5029,-73.56031
4,CA,Montreal,Le Centre Sheraton Montreal Hotel,"1201 Boulevard Rene-Levesque West, Montreal, Quebec, Canada",2909,45.51733,-73.55398
5,CA,Montreal,Le Westin Montreal,"270 Saint-Antoine Ouest, Montreal, Quebec, Canada",2223,45.50355,-73.55982
6,CA,Montreal,"Vogue Hotel Montreal Downtown, Curio Collection by Hilton","1425 Rue De La Montagne, Montreal, Quebec, Canada",2088,45.49836,-73.57586
7,CA,Montreal,Hotel Nelligan,"106, Rue Saint-Paul Ouest, Montreal, Quebec, Canada",3022,45.50419,-73.55437
8,CA,Montreal,Montreal Marriott Chateau Champlain,"1050 de la Gauchetiere West, Montreal, Quebec, Canada",2415,45.51569,-73.55335
9,CA,Montreal,Le Saint-Sulpice,"414 Saint-Sulpice, Montreal, Quebec, Canada",2869,45.50434,-73.55504
10,CA,Montreal,Auberge du Vieux-Port,"97 Rue de la Commune East, Montreal, Quebec, Canada",2157,45.50646,-73.55279
11,CA,Montreal,Hotel William Gray,"421 Rue St. Vincent, Montreal, Quebec, Canada",1085,45.5073,-73.5534
12,CA,Montreal,Hotel Gault,"449 Sainte-Helene, Montreal, Quebec, Canada",1684,45.50152,-73.5582
13,CA,Montreal,Novotel Montreal Centre,"1180 Rue de la Montagne, Montreal, Quebec, Canada",2215,45.49674,-73.57338
14,CA,Montreal,Hotel Faubourg Montreal,"155 Rene Levesque Boulevard East, Montreal, Quebec, Canada",2017,45.51024,-73.56051
15,CA,Montreal,Le St-Martin Hotel Particulier Montreal,"980 Boulevard de Maisonneuve Ouest, Montreal, Quebec, Canada",2029,45.50167,-73.57351
16,CA,Montreal,Delta Hotels by Marriott Montreal,"475 President-Kennedy Avenue, Montreal, Quebec, Canada",2037,45.50654,-73.57152
17,CA,Montreal,"The Ritz-Carlton, Montreal","1228 Sherbrooke St.West, Montreal, Quebec, Canada",1414,45.5229,-73.5654
18,CA,Montreal,LHotel,"262 St Jacques West, Montreal, Quebec, Canada",1679,45.5032,-73.55875
19,CA,Montreal,St Paul Hotel,"355 McGill Street, Montreal, Quebec, Canada",1982,45.50023,-73.55678
20,CA,Montreal,Montreal Airport Marriott In-Terminal Hotel,"800 Place Leigh Capreol, Dorval, Quebec, Canada",1273,45.45511,-73.75187
21,CA,Montreal,Le Square Phillips Hotel & Suites,"1193 Place Phillips, Montreal, Quebec, Canada",2711,45.5037,-73.5674
22,CA,Montreal,Le Petit Hotel,"168 rue St-Paul Ouest, Montreal, Quebec, Canada",1325,45.50307,-73.55497
23,CA,Montreal,Hotel Bonaparte,"447, rue Saint-Francois Xavier, Montreal, Quebec, Canada",1301,45.50329,-73.55608
24,CA,Montreal,Hotel Bonaventure Montreal,"900 De La Gauchetiere W, Montreal, Quebec, Canada",3082,45.4994,-73.56525
25,CA,Montreal,W Montreal,"901 Victoria Square, Montreal, Quebec, Canada",1611,45.50195,-73.56178
26,CA,Montreal,Embassy Suites by Hilton Montreal,"208 Saint Antoine Ouest, Montreal, Quebec, Canada",2859,45.50433,-73.55908
27,CA,Montreal,Hilton Garden Inn Montreal Centre-Ville,"380 Sherbrooke Street West, Montreal, Quebec, Canada",2489,45.51672,-73.56749
28,CA,Montreal,SpringHill Suites by Marriott Old Montreal,"445 Rue Saint-Jean-Baptiste, Montreal, Quebec, Canada",1393,45.50621,-73.55439
29,CA,Montreal,Hotel St-Denis,"1254 St-Denis, Montreal, Quebec, Canada",837,45.51328,-73.5598
30,CA,Montreal,Courtyard by Marriott Montreal Downtown,"380 Rene-Levesque Boulevard West, Montreal, Quebec, Canada",1187,45.51279,-73.55793
31,CA,Montreal,Sheraton Montreal Airport Hotel,"555 Boulevard McMillan, Dorval, Quebec, Canada",1143,45.45379,-73.74124
32,CA,Montreal,Fairfield by Marriott Montreal Airport,"700 Avenue Michel Jasmin, Dorval, Quebec, Canada",711,45.44974,-73.73986
33,CA,Montreal,Aloft Montreal Airport,"500 McMillan Ave, Dorval, Quebec, Canada",958,45.49593,-75.65047
34,CA,Montreal,Best Western Ville-Marie Montreal Hotel & Suites,"3407 Peel St, Montreal, Quebec, Canada",1689,45.50222,-73.57676
35,CA,Montreal,Hotel Le Germain Montreal,"2050, Rue Mansfield, Montreal, Quebec, Canada",860,45.5025,-73.57436
36,CA,Montreal,Hotel 10,"10 Sherbrooke Ouest, Montreal, Quebec, Canada",911,45.51213,-73.56933
37,CA,Montreal,Hotel Le Cantlie Suites,"1110 rue Sherbrooke Ouest, Montreal, Quebec, Canada",1159,45.50139,-73.57651
38,CA,Montreal,Comfort Suites Downtown,"1214 Crescent St, Montreal, Quebec, Canada",925,45.49645,-73.57487
39,CA,Montreal,Sandman Hotel Montreal-Longueuil,"999 rue de Serigny, Longueuil, Quebec, Canada",638,45.52515,-73.52317
40,CA,Montreal,Hotel Le Dauphin Montreal Centre-Ville,"1025 de Bleury Street, Montreal, Quebec, Canada",1081,45.50425,-73.56226
41,CA,Montreal,Hotel Zero 1,"1 Rene-Levesque Est, Montreal, Quebec, Canada",1457,45.50924,-73.56171
42,CA,Montreal,Le Nouvel Hotel,"1740 Bld Rene Levesque West, Montreal, Quebec, Canada",1197,45.52173,-73.54933
43,CA,Montreal,Bed & Breakfast du Village - BBV,"1279 Montcalm, Montreal, Quebec, Canada",738,45.51806,-73.55536
44,CA,Montreal,Hampton Inn Suites by Hilton Montreal-Dorval,"1900 Trans-Canada Highway, Dorval, Quebec, Canada",912,48.5852,-123.5301
45,CA,Montreal,Best Western Plus Montreal Downtown-Hotel Europa,"1240 Drummond St, Montreal, Quebec, Canada",1720,45.49811,-73.57386
46,CA,Montreal,Hotel Omni Mont-Royal,"1050 Sherbrooke Street West, Montreal, Quebec, Canada",2711,45.5213,-73.56551
47,CA,Montreal,Fairmont The Queen Elizabeth,"900 Blvd. Rene Levesque West, Montreal, Quebec, Canada",1513,45.5155,-73.55524
48,CA,Montreal,Hotel Chrome Montreal Centre-Ville,"215 Rene-Levesque Blvd. East, Montreal, Quebec, Canada",1031,45.51096,-73.56017
49,CA,Montreal,Hilton Montreal/Laval,"2225, Autoroute Des Laurentides, Laval, Quebec, Canada",724,45.57004,-73.74295
50,CA,Montreal,Travelodge by Wyndham Montreal Centre,"50 Boul Rene Levesque West, Montreal, Quebec, Canada",1714,45.50924,-73.56104
51,CA,Montreal,Hotel Le St-James,"355 St-Jacques, Montreal, Quebec, Canada",604,45.50268,-73.55958
52,CA,Montreal,Epik Hotel Montreal,"171 rue Saint-Paul Ouest, Montreal, Quebec, Canada",486,45.50311,-73.55523
53,CA,Montreal,Hotel Manoir Sherbrooke,"157 East Sherbrooke Street, Montreal, Quebec, Canada",573,45.51429,-73.56899
54,CA,Montreal,Alt Hotel Montreal,"120, Rue Peel, Montreal, Quebec, Canada",630,45.49337,-73.55802
55,CA,Montreal,"Holiday Inn Montreal Centreville Downtown, an IHG Hotel","999 Rue Saint-Urbain, Montreal, Quebec, Canada",655,45.50668,-73.55988
56,CA,Montreal,SENS Hotel,"1808 Sherbrooke St W, Montreal, Quebec, Canada",810,44.28804,-78.37869
57,CA,Montreal,L'Appartement Hotel,"455 Rue Sherbrooke Ouest, Montreal, Quebec, Canada",941,45.50701,-73.5725
58,CA,Montreal,Hotel Monville,"1041 de Bleury street, Montreal, Quebec, Canada",739,45.50432,-73.56263
59,CA,Montreal,Parc Suites Hotel,"3463 Avenue du Parc, Montreal, Quebec, Canada",585,45.50919,-73.57254
60,CA,Montreal,Hilton Garden Inn Montreal Airport,"7880 Cote-De-Liesse, Montreal, Quebec, Canada",1051,45.47781,-73.70179
61,CA,Montreal,Renaissance Montreal Downtown Hotel,"1250 Boulevard Robert-Bourassa, Montreal, Quebec, Canada",528,45.50278,-73.56933
62,CA,Montreal,Hotel de l'ITHQ,"3535, St-Denis Street, Montreal, Quebec, Canada",742,45.51776,-73.56876
63,CA,Montreal,Chateau de l'Argoat,"524 Rue Sherbrooke Est, Montreal, Quebec, Canada",580,45.51844,-73.56648
64,CA,Montreal,Hotel Les Suites Labelle,"1205 rue Labelle, Montreal, Quebec, Canada",1062,45.51454,-73.55799
65,CA,Montreal,Hotel Saint-Laurent Montreal,"191 Rene-Levesque Blvd East, Montreal, Quebec, Canada",601,45.51069,-73.56088
66,CA,Montreal,Hotel Dauphin Montreal - Longueuil,"1055 rue Saint-Laurent West, Longueuil, Quebec, Canada",347,45.52442,-73.5144
67,CA,Montreal,Best Western Laval-Montreal,"3655 Des Laurentides E, Laval, Quebec, Canada",505,45.58193,-73.75859
68,CA,Montreal,Hampton Inn & Suites by Hilton Laval,"1961 Boulevard Cure-Labelle, Laval, Quebec, Canada",753,45.55512,-73.76396
69,CA,Montreal,A la Carte Bed & Breakfast,"5477 10th Ave., Montreal, Quebec, Canada",452,55.2461,-127.56066
70,CA,Montreal,Le Mount Stephen,"1440 Drummond Street, Montreal, Quebec, Canada",439,45.4991,-73.57578
71,CA,Montreal,Hotel Espresso Montreal Centre-Ville/Downtown,"1005 Guy Street, Montreal, Quebec, Canada",891,45.49341,-73.57344
72,CA,Montreal,Chateau Versailles,"1659 Sherbrooke Street West, Montreal, Quebec, Canada",704,45.5272,-73.56422
73,CA,Montreal,Hotel De Paris,"901 Sherbrooke East, Montreal, Quebec, Canada",846,45.5201,-73.56629
74,CA,Montreal,DoubleTree by Hilton Pointe Claire Montreal Airport West,"6700 Transcanada Highway, Pointe Claire, Quebec, Canada",415,45.45665,-73.84025
75,CA,Montreal,Auberge de la Place Royale,"115 rue de la Commune West, Montreal, Quebec, Canada",407,45.50671,-73.55265
76,CA,Montreal,Residence Inn by Marriott Montreal Downtown,"2045 Rue Peel, Montreal, Quebec, Canada",702,45.50145,-73.57558
77,CA,Montreal,Holiday Inn & Suites Montreal Airport,"10888 Cote de Liesse, Montreal, Quebec, Canada",768,45.46151,-73.72345
78,CA,Montreal,Hotel Chez Swann,"1444 rue Drummond, Montreal, Quebec, Canada",554,45.49924,-73.57607
79,CA,Montreal,"Crowne Plaza Montreal Airport, an IHG Hotel","6600 Cote de Liesse, Montreal, Quebec, Canada",656,45.48447,-73.69276
80,CA,Montreal,Le Relais Lyonnais,"1595 rue St Denis, Montreal, Quebec, Canada",453,45.51482,-73.56245
81,CA,Montreal,Radisson Hotel Montreal Airport,"6500 Chemin De La Cote-De-Liesse, Montreal, Quebec, Canada",916,45.486,-73.6908
82,CA,Montreal,Hotel Birks Montreal,"1240 Phillips Square, Montreal, Quebec, Canada",406,45.50392,-73.56844
83,CA,Montreal,Quality Inn & Suites P.E. Trudeau Airport-Montreal,"1010 Herron Road, Dorval, Quebec, Canada",416,45.44738,-73.74795
84,CA,Montreal,DoubleTree by Hilton Montreal,"1255 Jeanne Mance Street, Montreal, Quebec, Canada",673,45.50729,-73.56496
85,CA,Montreal,Auberge Les Bons Matins,"1401 Argyle, Montreal, Quebec, Canada",722,45.49458,-73.57177
86,CA,Montreal,Hotel l'Abri du Voyageur,"9 rue Ste-Catherine Ouest, Montreal, Quebec, Canada",641,45.50974,-73.56415
87,CA,Montreal,Hotel Ruby Foo's,"7655 Decarie Blvd, Montreal, Quebec, Canada",623,45.49651,-73.65539
88,CA,Montreal,Hotel Universel Montreal,"5000 Sherbrooke Est, Montreal, Quebec, Canada",676,45.56558,-73.55317
89,CA,Montreal,Le Terra Nostra,"277 Beatty Streett, Montreal, Quebec, Canada",240,45.45078,-73.56885
90,CA,Montreal,Hotel 2170 Lincoln Downtown Montreal,"2170 Lincoln Avenue, Montreal, Quebec, Canada",678,45.49174,-73.58511
91,CA,Montreal,Hotel Brossard,"7365 Marie-Victorin Blvd, Brossard, Quebec, Canada",587,45.46245,-73.49164
92,CA,Montreal,Best Western Plus Hotel Montreal,"161 Rue Sainte-Catherine E, Montreal, Quebec, Canada",564,45.51154,-73.56267
93,CA,Montreal,Chateau Vaudreuil Hotel & Suites,"21700 Route Transcanadienne, Vaudreuil-Dorion, Quebec, Canada",580,45.41704,-74.01021
94,CA,Montreal,Lofts du Vieux-Port,"97 de la Commune Est, Montreal, Quebec, Canada",221,45.50646,-73.55279
95,CA,Montreal,Angelica Blue Bed & Breakfast,"1213 Sainte Elizabeth, Montreal, Quebec, Canada",200,45.51173,-73.56047
96,CA,Montreal,B&B Le Cartier,"1219 Rue Cartier, Montreal, Quebec, Canada",190,45.52269,-73.55014
97,CA,Montreal,Gingerbread Manor Bed & Breakfast,"3445 Avenue Laval, Montreal, Quebec, Canada",369,45.51574,-73.56916
98,CA,Montreal,Le Roberval,"505 Rene Levesque East, Montreal, Quebec, Canada",649,45.514,-73.55762
99,CA,Montreal,DoubleTree by Hilton Montreal Airport,"705 Avenue Michel-Jasmin, Dorval, Quebec, Canada",272,45.44982,-73.7403
100,CA,Montreal,M Montreal,"1245 rue St-Andre, Montreal, Quebec, Canada",503,45.51598,-73.55698
101,CA,Montreal,Days Inn by Wyndham Montreal Airport Conference Centre,"4545 Boul. Cote-Vertu Ouest, Montreal, Quebec, Canada",901,45.48783,-73.71768
102,CA,Montreal,Novotel Montreal Aeroport,"2599 Boulevard Alfred-Nobel, Montreal, Quebec, Canada",683,45.48796,-73.76224
103,CA,Montreal,La Loggia Art & Breakfast,"1637 Amherst, Montreal, Quebec, Canada",355,45.5211,-73.56363
104,CA,Montreal,Courtyard by Marriott Montreal Airport,"7000 Place Robert-Joncas, Montreal, Quebec, Canada",408,45.4931,-73.70043
105,CA,Montreal,Comfort Inn Montreal Aeroport,"700 St. Jean Boul, Pointe Claire, Quebec, Canada",99,45.46128,-73.82362
106,CA,Montreal,Repos & Manna B & B,"2140 rue Quesnel, Montreal, Quebec, Canada",207,45.48765,-73.57453
107,CA,Montreal,Maison Des Jardins,"1365 Logan Street, Montreal, Quebec, Canada",169,45.52153,-73.5577
108,CA,Montreal,Four Seasons Hotel Montreal,"1440, Rue De La Montagne, Montreal, Quebec, Canada",225,45.49835,-73.57667
109,CA,Montreal,Best Western Hotel Brossard,"7746 Taschereau Blvd, Brossard, Quebec, Canada",451,45.45403,-73.46692
110,CA,Montreal,Auberge Le Pomerol,"819 Blvd de Maisonneuve East, Montreal, Quebec, Canada",639,45.51648,-73.56029
111,CA,Montreal,Le St-Martin Hotel & Suites,"1400 Maurice Gauvin St, Laval, Quebec, Canada",504,45.56563,-73.73498
112,CA,Montreal,Auberge de La Fontaine,"1301 Rachel Street East, Montreal, Quebec, Canada",461,45.52765,-73.57262
113,CA,Montreal,Auberge du Lac Morency,"42, rue de la Chaumine, Saint Hippolyte, Quebec, Canada",497,45.92524,-74.0394
114,CA,Montreal,Manoir Saint-Sauveur,"246 chemin du Lac Millette, Saint Sauveur des Monts, Quebec, Canada",1137,45.89029,-74.15334
115,CA,Montreal,Travelodge Hotel by Wyndham Montreal Airport,"7300 Chemin Cote-de-Liesse, Montreal, Quebec, Canada",528,45.47965,-73.69932
116,CA,Montreal,Embassy Suites by Hilton Montreal Airport,"6300 Transcanada Highway, Pointe Claire, Quebec, Canada",217,45.45665,-73.84025
117,CA,Montreal,Auberge Bonsecours,"353, St-Paul St. East, Montreal, Quebec, Canada",104,45.50939,-73.55181
118,CA,Montreal,Hotel Champ-de-Mars,"756 Berri, Montreal, Quebec, Canada",331,45.51168,-73.5529
119,CA,Montreal,Courtyard by Marriott Kingston Highway 401 / Division Street,"103 Dalton Ave, Kingston, Ontario, Canada",693,44.26644,-76.50391
120,CA,Montreal,Sheraton Laval Hotel,"2440 Autoroute Des Laurentides, Laval, Quebec, Canada",452,45.57196,-73.74884
121,CA,Montreal,"Holiday Inn Express & Suites 1000 Islands - Gananoque, an IHG Hotel","777 King St E, Gananoque, Ontario, Canada",606,44.33748,-76.14678
122,CA,Montreal,La Maison Pierre du Calvet,"405 Rue Bonsecours, Montreal, Quebec, Canada",161,45.51008,-73.55173
123,CA,Montreal,Boulanger Bassin,"4293 Rue de Brebeuf, Montreal, Quebec, Canada",105,45.52793,-73.57473
124,CA,Montreal,"Holiday Inn Laval - Montreal, an IHG Hotel","2900 Boul Le Carrefour, Laval, Quebec, Canada",264,45.56918,-73.74635
125,CA,Montreal,AC Hotel Montreal Downtown,"250 Rene-Levesque Boulevard West, Montreal, Quebec, Canada",321,45.51139,-73.55922
126,CA,Montreal,La Tour Belvedere,"2175 Boulevard Maisonneuve Ouest, Montreal, Quebec, Canada",564,45.49139,-73.58459
127,CA,Montreal,Le Gite Dezery,"3545 Rue Dezery, Montreal, Quebec, Canada",141,45.54477,-73.55939
128,CA,Montreal,Sir Montcalm,"1453-1455 rue Montcalm, Montreal, Quebec, Canada",100,45.51887,-73.5571
129,CA,Montreal,Maison Saint-Vincent,"443 Rue Saint-Vincent, Montreal, Quebec, Canada",88,45.50748,-73.55391
130,CA,Montreal,Hotel Kutuma,"3708 St. Denis Street, Montreal, Quebec, Canada",397,45.51842,-73.57132
131,CA,Montreal,Ramada Plaza by Wyndham Montreal,"6445 Boulevard Decarie, Montreal, Quebec, Canada",485,45.49103,-73.64476
132,CA,Montreal,Alt Hotel Quartier DIX30,"6500, Boulevard De Rome, Brossard, Quebec, Canada",446,45.44063,-73.43958
133,CA,Montreal,D&D's B&B,"703 Av Laporte, Montreal, Quebec, Canada",87,45.47964,-73.58433
134,CA,Montreal,Accueil Chez Francois B&B,"4031 Papineau, Montreal, Quebec, Canada",386,45.52988,-73.56762
135,CA,Montreal,Days Inn by Wyndham Montreal East,"5905 Metropolitan Blvd. East, Montreal, Quebec, Canada",382,45.58815,-73.58474
136,CA,Montreal,Sonder at Penny Lane,"408 Saint Jacques Street, Montreal, Quebec, Canada",109,45.50158,-73.55962
137,CA,Montreal,Hotel Mortagne,"1228 Rue Nobel, Boucherville, Quebec, Canada",399,45.56881,-73.44268
138,CA,Montreal,La Conciergerie,"1019 Saint-Hubert St., Montreal, Quebec, Canada",142,45.51368,-73.55459
139,CA,Montreal,Samesun Montreal Central,"1586 rue St Hubert, Montreal, Quebec, Canada",390,45.51635,-73.56133
140,CA,Montreal,Sonder Maisonneuve,"1470 Rue Mackay, Montreal, Quebec, Canada",150,45.49648,-73.57849
141,CA,Montreal,University Bed & Breakfast Apartments,"623 Prince Arthur Street West, Montreal, Quebec, Canada",199,45.50804,-73.57829
142,CA,Montreal,Auberge des Gallant Restaurant and SPA,"1171, ch. St-Henri, Sainte-Marthe, Quebec, Canada",310,45.43198,-74.32802
143,CA,Montreal,Home2 Suites by Hilton Montreal Dorval,"1855 Rte Transcanadienne, Dorval, Quebec, Canada",121,45.48564,-73.78255
144,CA,Montreal,"Holiday Inn & Suites Montreal Centre-Ville Ouest, an IHG Hotel","1390 Boulevard Rene-Levesque Ouest, Montreal, Quebec, Canada",341,45.4959,-73.57284
145,CA,Montreal,Gite Ocoin B&B,"1930 due Dufresne, Montreal, Quebec, Canada",151,45.531,-73.55342
146,CA,Montreal,A l'Adresse du Centre-Ville,"1673 Saint Christophe Street, Montreal, Quebec, Canada",223,45.51745,-73.56165
147,CA,Montreal,Residence Inn by Marriott Montreal Airport,"6500 Place Robert-Joncas, Montreal, Quebec, Canada",324,45.49326,-73.69973
148,CA,Montreal,Hotel Le Saint Andre,"1285 rue St-Andre, Montreal, Quebec, Canada",366,45.51631,-73.55737
149,CA,Montreal,Super 8 by Wyndham Lachenaie/Terrebonne,"1155 Yves Blais, Terrebonne, Quebec, Canada",481,45.72492,-73.50376
150,CA,Montreal,Hotel Quartier des Spectacles,"17 Sainte-Catherine Ouest, Montreal, Quebec, Canada",436,45.50968,-73.56428
151,CA,Montreal,Montreal South KOA,"130 montee Monette, Saint-Philippe, Quebec, Canada",57,45.35019,-73.47922
152,CA,Montreal,Hampton Inn by Hilton Montreal Downtown,"985 Boul. St-Laurent, Montreal, Quebec, Canada",29,45.50791,-73.55889
153,CA,Montreal,Auberge Saint-Paul,"347 Saint Paul Est, Montreal, Quebec, Canada",167,45.50928,-73.55215
154,CA,Montreal,Auberge Saintlo Montreal,"1030 Mackay, Montreal, Quebec, Canada",459,45.49389,-73.57297
155,CA,Montreal,Hotel Chateau-Bromont,"90 Stanstead St, Bromont, Quebec, Canada",1068,45.30433,-72.63837
156,CA,Montreal,Loft Hotel Montreal,"334 Terrasse St Denis, Montreal, Quebec, Canada",319,45.51602,-73.56667
157,CA,Montreal,Courtyard Montreal West Island/Baie D’Urfe,"20000 Trans Canada Highway, Baie-D'Urfe, Quebec, Canada",146,45.41473,-73.91628
158,CA,Montreal,Alternative Hostel of Old Montreal,"358 Rue Saint-Pierre, Montreal, Quebec, Canada",235,45.50107,-73.55614
159,CA,Montreal,Hotel Dorval - Beausejour Apartments,"440, Roy Avenue, Dorval, Quebec, Canada",254,45.44697,-73.74899
160,CA,Montreal,Microtel Inn & Suites Casselman,"17 Rue Industriel, Casselman, Ontario, Canada",390,45.60954,-75.40468
161,CA,Montreal,Hotel Ambrose,"3422 rue Stanley, Montreal, Quebec, Canada",347,45.50138,-73.57831
162,CA,Montreal,"Holiday Inn Express St. Jean sur Richelieu, an IHG Hotel","700 Rue Gadbois Street, Saint-Jean-sur-Richelieu, Quebec, Canada",281,45.33227,-73.28557
163,CA,Montreal,Uville Hotel Montreal,"204 Place d'Youville, Montreal, Quebec, Canada",59,45.50225,-73.5544
164,CA,Montreal,Quality Hotel Dorval Aeroport,"7700 Cote de Liesse, Montreal, Quebec, Canada",460,45.47835,-73.70109
165,CA,Montreal,Habitation du Vieux Montreal,"401 Saint Laurent, Montreal, Quebec, Canada",80,45.50573,-73.55388
166,CA,Montreal,leQube Apartments Saint Hubert,"3990 rue Saint Hubert, Montreal, Quebec, Canada",76,45.52224,-73.57413
167,CA,Montreal,"Humaniti Hotel Montreal, Autograph Collection","340 de la Gauchetiere O, Montreal, Quebec, Canada",59,45.50393,-73.56289
168,CA,Montreal,"Holiday Inn Express & Suites Saint - Hyacinthe, an IHG Hotel","1500 Rue Daniel Johnson Street East, Saint Hyacinthe, Quebec, Canada",287,45.64738,-72.95361
169,CA,Montreal,Baymont by Wyndham Montreal Airport,"3660 Rue Griffith, Montreal, Quebec, Canada",123,45.48549,-73.69696
170,CA,Montreal,Auberge Manoir Ville-Marie,"3130 Rue Ste-Catherine East, Montreal, Quebec, Canada",289,45.53809,-73.5416
171,CA,Montreal,Hotel de L'Elysee,"1633, rue Saint-Hubert, Montreal, Quebec, Canada",57,45.51695,-73.56183
172,CA,Montreal,Delta Hotels by Marriott Sherbrooke Conference Center,"2685 Rue King Ouest, Sherbrooke, Quebec, Canada",337,45.39966,-71.93922
173,CA,Montreal,Auberge Casa de Mateo,"438 St Francois Xavier, Montreal, Quebec, Canada",83,45.50319,-73.5563
174,CA,Montreal,Le Simone,"1571 rue Saint-Andre, Montreal, Quebec, Canada",183,45.51736,-73.55985
175,CA,Montreal,Quality Inn & Suites Brossard,"6680 Taschereau Boulevard, Brossard, Quebec, Canada",233,45.46935,-73.46904
176,CA,Montreal,Courtyard Montreal Brossard,"3300 Rue De L'Eclipse, Brossard, Quebec, Canada",21,45.76246,-73.71599
177,CA,Montreal,Sonder Le Victoria,"411 Rue des Recollets, Montreal, Quebec, Canada",78,45.50132,-73.55875
178,CA,Montreal,Homewood Suites By Hilton Montreal Midtown,"6939 Decarie, Montreal, Quebec, Canada",25,45.49301,-73.64927
179,CA,Montreal,Auberge St. Jacques,"6120 Rue Saint-Jacques, Montreal, Quebec, Canada",150,45.46433,-73.61514
180,CA,Montreal,Anne Ma Soeur Anne,"4119 Rue Saint Denis, Montreal, Quebec, Canada",152,45.52146,-73.5769
181,CA,Montreal,Royal Versailles Hotel,"7200 Sherbrooke St. East, Montreal, Quebec, Canada",268,45.58868,-73.5387
182,CA,Montreal,Montreal West KOA,"171 Route 338, Coteau-du-Lac, Quebec, Canada",33,45.28141,-74.19239
183,CA,Montreal,Hotel Y Montreal,"1355, Rene-Levesque Blvd. West, Montreal, Quebec, Canada",262,45.51899,-73.55246
184,CA,Montreal,Destination Stays Montreal Downtown,"1444 Saint-Mathieu, Montreal, Quebec, Canada",28,45.49424,-73.58035
185,CA,Montreal,"Holiday Inn Montreal-Longueuil, an IHG Hotel","900 St Charles Street East, Longueuil, Quebec, Canada",11,45.55131,-73.49805
186,CA,Montreal,Motel Montreal,"95 aut. du Souvenir,, L'Ile-Perrot, Quebec, Canada",14,45.39696,-73.96068
187,CA,Montreal,Alacoque Bed & Breakfast Revolution,"2091 St. Urban Street, Montreal, Quebec, Canada",74,45.51081,-73.56896
188,CA,Montreal,Auberge L'Apero,"1425 Mackay, Montreal, Quebec, Canada",120,45.49624,-73.57752
189,CA,Montreal,Maison Sainte-Therese,"110 Rue Sainte-Therese, Montreal, Quebec, Canada",21,45.507,-73.55354
190,CA,Montreal,Quality Hotel & Suites Montreal East,"8100 Avenue Neuville, Montreal, Quebec, Canada",236,45.5988,-73.57272
191,CA,Montreal,Gite du Survenant Montreal,"2645 Avenue Desjardins, Montreal, Quebec, Canada",124,45.55428,-73.54996
192,CA,Montreal,"Hotel Montreal Metropolitan, BW Premier Collection","3400 Boul Cremazie E, Montreal, Quebec, Canada",79,45.56448,-73.60414
193,CA,Montreal,Hotel Montreal Espace Confort,"2050 St-Denis, Montreal, Quebec, Canada",260,45.51609,-73.56612
194,CA,Montreal,Plateau Suites Montreal,"832 Gilford Street, Montreal, Quebec, Canada",21,45.52807,-73.5848
195,CA,Montreal,Homewood Suites by Hilton Montreal Downtown,"985 Boul. St-Laurent, Montreal, Quebec, Canada",32,45.50791,-73.55889
196,CA,Montreal,Hilton Garden Inn Montreal Midtown,"6939 Decarie, Montreal, Quebec, Canada",48,45.49301,-73.64927
197,CA,Montreal,Fairfield by Marriott Montreal Downtown,"1199 Rue Berri, Montreal, Quebec, Canada",133,45.51407,-73.55783
198,CA,Montreal,Casa Bianca,"4351 L'Esplanade Avenue, Montreal, Quebec, Canada",110,45.51755,-73.58566
199,CA,Montreal,Castel Durocher,"3488 Durocher, Montreal, Quebec, Canada",60,45.50793,-73.57471
200,CA,Montreal,Hotel Park Avenue,"4544 Avenue du Parc, Montreal, Quebec, Canada",82,45.51703,-73.59042
201,CA,Montreal,Sonder Le Guerin,"4501 Drolet Street, Montreal, Quebec, Canada",85,45.52368,-73.58371
202,CA,Montreal,Comfort Inn,"2055 Auto. des Laurentides, Laval, Quebec, Canada",110,45.58166,-73.70493
203,CA,Montreal,Hyatt Place Montreal – Downtown,"1415, Rue Saint-Hubert, Montreal, Quebec, Canada",79,45.51594,-73.55952
204,CA,Montreal,Le Manoir d'Auteuil,"49, rue d'Auteuil, Quebec City, Quebec, Canada",2156,46.8114,-71.21153
205,CA,Montreal,Fiddler Lake Resort,"1000, Road 329, Milles Isles, Quebec, Canada",634,45.80843,-74.24107
206,CA,Montreal,Apart Hotel Montreal,"2115 Rue Saint-Urbain, Montreal, Quebec, Canada",13,45.51083,-73.56907
207,CA,Montreal,Fox Motor Inn,"297 Dundas St W, Napanee, Lennox and Addington County, Ontario, Canada",348,44.24126,-76.96313
208,CA,Montreal,C C Cherrier,"522 Rue Cherrier, Montreal, Quebec, Canada",17,45.51935,-73.56865
209,CA,Montreal,All Suite VIP Loft Montreal,"1099 St Denis Street, Montreal, Quebec, Canada",59,45.51261,-73.55756
210,CA,Montreal,Auberge de Jeunesse Maeva Montreal,"3990, rue St-Hubert, Montreal, Quebec, Canada",35,45.52224,-73.57413
211,CA,Montreal,Auberge Du Plateau,"185 Rue Sherbrooke E, Montreal, Quebec, Canada",250,45.51453,-73.56885
212,CA,Montreal,Alexandrie Hostel,"1750 Amherst, Montreal, Quebec, Canada",236,45.5211,-73.56363
213,CA,Montreal,Hotel Arena Palace,"1553 St-Andre, Montreal, Quebec, Canada",182,45.5172,-73.55957
214,CA,Montreal,Hotel Terrasse Royale,"5225 chemin Cote-des-Neiges, Montreal, Quebec, Canada",199,45.49594,-73.62065
215,CA,Montreal,Auberge du Carre St-Louis,"3466 St-Denis Street, Montreal, Quebec, Canada",195,45.51725,-73.56875
216,CA,Montreal,The SoHo Hotel & Residences,"318 Wellington St W, Toronto, Ontario, Canada",1209,43.64481,-79.39223
217,CA,Montreal,McGill New Residence Hall,"3625 Avenue du Parc, Montreal, Quebec, Canada",122,45.51072,-73.57587
218,CA,Montreal,B & B Gite Couette et Chocolat Inc.,"1074, rue Saint Dominique, Montreal, Quebec, Canada",113,45.50876,-73.56021
219,CA,Montreal,Appartements Trylon,"3463 Sainte-Famille, Montreal, Quebec, Canada",152,45.51081,-73.57188
220,CA,Montreal,Residence La Citadelle,"410 Sherbrooke Street West, Montreal, Quebec, Canada",124,45.51696,-73.56716
221,CA,Montreal,Best Western Plus Montreal East,"12555 Rue Sherbrooke E, Montreal, Quebec, Canada",52,45.65008,-73.51227
222,CA,Montreal,Sucrerie de la Montagne,"300, rang Saint-Georges, Rigaud, Quebec, Canada",97,45.12066,-73.3266
223,CA,Montreal,Camping Alouette,"3449 de L'Industrie, St-Mathieu-de-Beloeil, Quebec, Canada",46,45.59281,-73.27176
224,CA,Montreal,Hotel Jazz,"1216, rue St-Hubert, Montreal, Quebec, Canada",54,45.51482,-73.55785
225,CA,Montreal,Le Pleasant Hotel & Cafe,"1 Rue Pleasant, Sutton, Quebec, Canada",577,45.10706,-72.61458
226,CA,Montreal,Super 8 by Wyndham Cornwall ON,"2694 Brookdale Ave, Cornwall, Ontario, Canada",283,45.04697,-74.77176
227,CA,Montreal,Manoir Hovey,"575 Rue Hovey, North Hatley, Quebec, Canada",1636,45.26396,-71.99528
228,CA,Montreal,Hotel Escad Quartier DIX30,"9156 Boulevard Leduc, Brossard, Quebec, Canada",86,45.44594,-73.4391
229,CA,Montreal,OTL Gouverneur Sherbrooke,"3131 King West Street, Sherbrooke, Quebec, Canada",356,45.41985,-71.82842
230,CA,Montreal,La Perrot Damoise,"25 rue de l'Eglise, Notre-Dame-de-l'Ile-Perrot, Quebec, Canada",49,45.34949,-73.9028
231,CA,Montreal,Kenauk Nature,"1000 chemin Kenauk, Montebello, Outaouais Region, Quebec, Canada",210,45.71224,-74.88764
232,CA,Montreal,Best Western Belleville,"387 N Front St, Belleville, Ontario, Canada",787,44.18915,-77.3966
233,CA,Montreal,Hotel Viger,"1001 Saint-Hubert St, Montreal, Quebec, Canada",215,45.51353,-73.5543
234,CA,Montreal,Town Inn Suites,"620 Church St, Toronto, Ontario, Canada",1066,43.66907,-79.38272
235,CA,Montreal,OM Montreal BnB,"850 Sherbrooke Street East, Montreal, Quebec, Canada",28,45.5194,-73.56598
236,CA,Montreal,Motel Du Fleuve,"5800 Boul. Marie Victorin, Brossard, Quebec, Canada",63,45.47263,-73.49836
237,CA,Montreal,Welcominns,"1195 Rue Ampere, Boucherville, Quebec, Canada",276,45.57412,-73.44328
238,CA,Montreal,"Holiday Inn Express & Suites Vaudreuil - Dorion, an IHG Hotel","33 Boul. de la Cite-Des-Jeunes East, Vaudreuil-Dorion, Quebec, Canada",164,45.41354,-74.02851
239,CA,Montreal,LikeAHotel,"54 Rue Prince Arthur E, Montreal, Quebec, Canada",111,45.51443,-73.57189
240,CA,Montreal,La Cache du Lac Champlain,"325 Ave de Venise Ouest, Venise-en-Quebec, Quebec, Canada",217,45.07942,-73.15126
241,CA,Montreal,Les Suites Saint Francois Xavier,"438 Rue Saint-Francois-Xavier, Montreal, Quebec, Canada",31,45.50319,-73.5563
242,CA,Montreal,Hotel Ste Catherine,"1674 Ste Catherine Est, Montreal, Quebec, Canada",65,45.52209,-73.55255
243,CA,Montreal,Motel Rideau,"8700 boulevard Marie-Victorin, Brossard, Quebec, Canada",24,45.44513,-73.49468
244,CA,Montreal,Auberge de la Montagne Coupee,"1000, Chemin de la Montagne Coupee, Saint-Jean-de-Matha, Quebec, Canada",181,46.20215,-73.50246
245,CA,Montreal,Comfort Inn South,"7863 Taschereau Boulevard, Brossard, Quebec, Canada",153,45.45211,-73.46563
246,CA,Montreal,Comfort Inn Boucherville,"96 boul. de Mortagne, Boucherville, Quebec, Canada",130,45.5749,-73.44522
247,CA,Montreal,Best Western Hotel St. Jerome,"420 Monseigneur-Dubois Blvd, Saint Jerome, Quebec, Canada",388,45.78049,-74.01704
248,CA,Montreal,Hotel du Manoir Saint Denis,"2006 Rue Saint-Denis, Montreal, Quebec, Canada",123,45.51579,-73.56549
249,CA,Montreal,Hotel Dorion,"1477 rue Dorion, Montreal, Quebec, Canada",52,45.52428,-73.55252
250,CA,Montreal,Hotel Elegant,"1683 Rue Saint-Hubert, Montreal, Quebec, Canada",230,45.51721,-73.56246
251,CA,Montreal,Hotel Visitel,"1617 St Hubert, Montreal, Quebec, Canada",170,45.5168,-73.56153
252,CA,Montreal,Comfort Inn & Suites Thousand Islands Harbour District,"22 Main St, Gananoque, Ontario, Canada",391,44.32584,-76.16418
253,CA,Montreal,Le Village Suisse,"1175 Rue de la Sapiniere, Val David, Quebec, Canada",375,46.03039,-74.19981
254,CA,Montreal,Hotel de Paris,"901 Rue Sherbrooke Est, Montreal, Quebec, Canada",43,45.5201,-73.56629
255,CA,Montreal,Hotel A2K,"1475 Rene Levesque West, Montreal, Quebec, Canada",58,45.51983,-73.55168
256,CA,Montreal,All Suite VIP Saint-Jacques,"10 Due Saint-Jacques, Montreal, Quebec, Canada",22,45.49923,-73.56243
257,CA,Montreal,Hotel Stay Mont Royal,"438 avenue du Mont Royal Est, Montreal, Quebec, Canada",60,45.52431,-73.58235
258,CA,Montreal,Le 1009,"1009 Rue Bleury, Montreal, Quebec, Canada",10,45.50411,-73.56193
259,CA,Montreal,Hostel Inn Tourist,"1854 St. Catherine Street West, Montreal, Quebec, Canada",13,44.94393,-79.37646
260,CA,Montreal,La Petite Bourgeoise,"611 Rue Manning, Montreal, Quebec, Canada",61,45.4496,-73.57325
261,CA,Montreal,Boxotel,"175 Rue Ontario Est, Montreal, Quebec, Canada",88,45.51338,-73.56633
262,CA,Montreal,Hotel Star Montreal,"910 Maisonneuve Blvd East, Montreal, Quebec, Canada",132,45.51707,-73.5593
263,CA,Montreal,Sonder Gare Saint Denis,"1063 Rue Saint-Denis, Montreal, Quebec, Canada",41,45.51242,-73.55715
264,CA,Montreal,Abadin Bed and Breakfast,"612 Bobois St, L'Orignal, Hawkesbury, Ontario, Canada",87,45.62558,-74.67859
265,CA,Montreal,Auberge La Chocolatiere,"312 River Road, North Hatley, Quebec, Canada",256,45.43234,-75.66979
266,CA,Montreal,Sonder Saint Paul,"209 Rue Saint-Paul Ouest, Montreal, Quebec, Canada",24,45.5026,-73.55552
267,CA,Montreal,Sonder at The Richmond,"400 Ave Richmond, Montreal, Quebec, Canada",53,45.48929,-73.56834
268,CA,Montreal,Chalets Lac a la Truite,"1961 ch. de la Montagne, Sainte Agathe des Monts, Quebec, Canada",404,46.03082,-74.24813
269,CA,Montreal,Le Fabreville Motel et Suites,"4301, boulevard Dagenais Ouest, Laval, Quebec, Canada",192,45.55927,-73.8398
270,CA,Montreal,Comfort Inn Aeroport Dorval,"340, Michel Jasmin, Dorval, Quebec, Canada",243,45.45515,-73.73248
271,CA,Montreal,Au Coq du Bonheur B&B,"79, rue Bellevue, Magog, Quebec, Canada",573,45.26334,-72.15403
272,CA,Montreal,Zum Hotel,"2450 Boul. Edouard Montpetit, Montreal, Quebec, Canada",94,45.50661,-73.61533
273,CA,Montreal,Imperia Hotel & Suites St-Eustache,"570, rue Dubois, Saint-Eustache, Quebec, Canada",180,45.58091,-73.88248
274,CA,Montreal,L'Escogriffe B&B,"1264 Wolfe St., Montreal, Quebec, Canada",22,45.51736,-73.55579
275,CA,Montreal,Saint-Andre-des-Arts,"1654 rue Saint-Andre, Montreal, Quebec, Canada",54,45.51756,-73.5611
276,CA,Montreal,Comfort Inn & Suites,"255-8 Rue de Martigny W, Saint Jerome, Quebec, Canada",118,45.77934,-74.01568
277,CA,Montreal,Auberge aux Nuits de Reve,"14 rue Larocque ouest, Sainte Agathe des Monts, Quebec, Canada",585,46.04619,-74.28979
278,CA,Montreal,Auberge du Lac Saint-Pierre,"10911 Notre-Dame West Street, Trois-Rivieres, Quebec, Canada",404,46.27898,-72.66796
279,CA,Montreal,Chalets Beaconsfield Motel,"505 Beaconsfield , Beaconsfield, Quebec, Canada",37,45.41948,-73.88406
280,CA,Montreal,Gite Urbain La Lanterne,"1016 Boulevard Saint-Joseph Est, Montreal, Quebec, Canada",81,45.52981,-73.5842
281,CA,Montreal,L'Imprevu Bed & Breakfast,"3932, rue St-Jacques, Montreal, Quebec, Canada",40,45.47897,-73.5844
282,CA,Montreal,Turquoise Bed and Breakfast,"1576, rue Alexandre-DeSeve, Montreal, Quebec, Canada",33,45.52192,-73.55567
283,CA,Montreal,Centre de sante Euro-spa,"455 Rang de l'Eglise Sud, St-Ignace-de-Stanbridge, Quebec, Canada",98,45.15608,-72.9689
284,CA,Montreal,Manoir Becancourt,"3255 Av. Nicolas Perrot, Becancour, Quebec, Canada",247,46.33891,-72.4355
285,CA,Montreal,Hotel Particulier Griffintown,"1200 Ottawa Street, Montreal, Quebec, Canada",47,45.49264,-73.56035
286,CA,Montreal,Parc Omega,"399, Route 323 North, Montebello, Outaouais Region, Quebec, Canada",167,45.68639,-74.94608
287,CA,Montreal,Budget Inn,"4510 County 2 Rd, Port Hope, Ontario, Canada",70,43.97431,-78.34477
288,CA,Montreal,Au Piano Blanc,"4440, rue Berri, Montreal, Quebec, Canada",39,45.52437,-73.58101
289,CA,Montreal,Econo Lodge Brossard,"8350 Boulevard Taschereau, Brossard, Quebec, Canada",111,45.44586,-73.47163
290,CA,Montreal,L'Auberge de l'Aeroport Inn,"580 Rue Michel Jasmin, Dorval, Quebec, Canada",118,45.45193,-73.73699
291,CA,Montreal,Les Suites de Laviolette Ascend Hotel Collection,"7201 rue Notre-Dame Ouest, Trois-Rivieres, Quebec, Canada",194,46.31352,-72.57371
292,CA,Montreal,Les appartements Loft Jacques-Cartier,"4046 Cartier, Montreal, Quebec, Canada",50,45.53051,-73.56773
293,CA,Montreal,Spa & Hotel Le Finlandais,"125 Boul. Labelle, Rosemere, Quebec, Canada",195,45.62021,-73.79788
294,CA,Montreal,Quartier Latin Hotel,"1763 St. Denis, Montreal, Quebec, Canada",246,45.51589,-73.56476
295,CA,Montreal,Hotel Villa,"57 Sainte-Catherine Est, Montreal, Quebec, Canada",162,45.51053,-73.56352
296,CA,Montreal,Auberge YWCA,"1355 Rene-Levesque Blvd. West, Montreal, Quebec, Canada",76,45.51899,-73.55246
297,CA,Montreal,Hotel Casa Bella,"264 Sherbrooke ouest, Montreal, Quebec, Canada",156,45.50895,-73.57067
298,CA,Montreal,Hotel & Suite Place des Arts,"270 Sherbrooke West, Montreal, Quebec, Canada",70,45.51552,-73.56801
299,CA,Montreal,La Maison du Patriote,"169, St-Paul Est, Montreal, Quebec, Canada",66,45.50723,-73.5528
300,CA,Montreal,Hotel Chrome,"215 Boulevard Rene Levesque E, Montreal, Quebec, Canada",67,45.51096,-73.56017
301,CA,Montreal,Cap Tremblant Mountain Resort,"400, du Mont-Plaisant, Mont Tremblant, Quebec, Canada",611,46.19024,-74.62512
302,CA,Montreal,Polar Bear's Club,"930, Boulevard des Laurentides, Piedmont, Quebec, Canada",184,45.91442,-74.14749
303,CA,Montreal,Beacon Hill Motel,"1668 Montreal Rd, Ottawa, Ontario, Canada",86,45.446,-75.6134
304,CA,Montreal,Hotel Plaza Valleyfield,"40, avenue du Centenaire, Salaberry-de-Valleyfield, Quebec, Canada",204,45.25894,-74.12867
305,CA,Montreal,Auberge Harris,"576 Rue Champlain, Saint-Jean-sur-Richelieu, Quebec, Canada",154,45.324,-73.26451
306,CA,Montreal,Days Inn by Wyndham Berthierville,"760 Rue Gadoury, Berthierville, Quebec, Canada",246,46.08927,-73.19321
307,CA,Montreal,Hotel L'Express,"2800 Marie Victorin Blvd, Longueuil, Quebec, Canada",66,45.58294,-73.46981
308,CA,Montreal,Residence Carrefour Sherbrooke,"475 Sherbrooke Street West, Montreal, Quebec, Canada",61,45.51787,-73.56709
309,CA,Montreal,Hotel Bon Accueil,"1601 rue St-Hubert, Montreal, Quebec, Canada",80,45.51673,-73.56136
310,CA,Montreal,Grey Nuns Residence,"1190 Guy Street, Montreal, Quebec, Canada",62,45.49405,-73.57617
311,CA,Montreal,Chalets Chanteclair,"2325, Rd 117, Val David, Quebec, Canada",116,46.05584,-74.20231
312,CA,Montreal,Auberge Jeunesse a LouLou,"3365 des Eglises, Levis, Chaudiere-Appalaches, Quebec, Canada",212,46.71358,-71.27131
313,CA,Montreal,Le Sieur De Joliette,"2617 Joliette, Montreal, Quebec, Canada",67,45.5476,-73.55345
314,CA,Montreal,Inn Between,"1805 Rue Ontario E, Montreal, Quebec, Canada",26,45.52615,-73.55948
315,CA,Montreal,Hotel La Residence Du Voyageur,"847 Rue Sherbrooke East, Montreal, Quebec, Canada",103,45.51976,-73.56651
316,CA,Montreal,Sunset Suites,"2445 Sunset Rd, Montreal, Quebec, Canada",43,46.76152,-71.28743
317,CA,Montreal,Le Chabrol Hotel & Suites,"6951 Saint-Jacques West, Montreal, Quebec, Canada",65,45.45739,-73.62953
318,CA,Montreal,Auberge Handfield Et Spa,"555 Richelieu, Saint Marc sur Richelieu, Quebec, Canada",437,45.67381,-73.19378
319,CA,Montreal,EconoHotel Montreal,"1649 Saint Hubert Street, Montreal, Quebec, Canada",8,45.51701,-73.56199
320,CA,Montreal,Les Etoiles Apartments By Corporate Stays,"888 Saint-Francois Xavier, Montreal, Quebec, Canada",23,45.50449,-73.55911
321,CA,Montreal,Jade Blue B&B,"1225 rue de Bullion, Montreal, Quebec, Canada",51,45.51076,-73.56162
322,CA,Montreal,Motel Le Marigot,"522 de Lotbiniere, Vaudreuil-Dorion, Quebec, Canada",57,45.36165,-74.00484
323,CA,Montreal,Universite de Montreal Residence,"2350 blvd. Edouard-Montpetit, Montreal, Quebec, Canada",18,45.507,-73.61361
324,CA,Montreal,Hotel Montfort Nicolet,"1141, Rue Saint-Jean-Baptiste, Nicolet, Quebec, Canada",309,46.23412,-72.63315
325,CA,Montreal,Hotel Le Dauphin Saint-Hyacinthe,"1250 Johnson West, Saint Hyacinthe, Quebec, Canada",133,45.64736,-72.95488
326,CA,Montreal,Quality Hotel Centre de Congres,"725 Boulevard Seminaire Nord, Saint-Jean-sur-Richelieu, Quebec, Canada",183,45.3249,-73.2675
327,CA,Montreal,Bienvenue B&B,"3950 Laval Av, Montreal, Quebec, Canada",40,45.51853,-73.57611
328,CA,Montreal,Mosaique Furnished Suites,"345 Rue de la Gauchetiere West, Montreal, Quebec, Canada",8,45.51223,-73.55699
329,CA,Montreal,Hotel Particulier on Drummond,"3429 Rue Drummond, Montreal, Quebec, Canada",128,45.50106,-73.57884
330,CA,Montreal,Loft4U by Corporate Stays,"456 Rue de la Gauchetiere O, Montreal, Quebec, Canada",30,45.50284,-73.56355
331,CA,Montreal,"Auberge Godefroy Hotel, Spa and Golf","17575 Blvd Becancour, Becancour, Quebec, Canada",373,46.30069,-72.54235
332,CA,Montreal,Hotel des Arts,"2060 rue St-Dominique, Montreal, Quebec, Canada",75,45.51224,-73.56781
333,CA,Montreal,Motel R-100,"4335 Chemin de Chambly, Longueuil, Quebec, Canada",27,45.52668,-73.4752
334,CA,Montreal,Refuge Du Poete,"320 rue Longueuil, Longueuil, Quebec, Canada",31,45.53681,-73.5107
335,CA,Montreal,Days Inn by Wyndham Blainville Conference Centre,"1136 Cure Labelle, Blainville, Quebec, Canada",244,45.67927,-73.88879
336,CA,Montreal,L'Hotel Particulier Griffintown,"1200 Rue Ottawa, Montreal, Quebec, Canada",7,45.49264,-73.56035
337,CA,Montreal,Ruta Bagage,"1345 Sainte-Rose, Montreal, Quebec, Canada",13,45.51937,-73.55383
338,CA,Montreal,Pensione Popolo,"4871 Saint Laurent, Montreal, Quebec, Canada",26,45.52219,-73.59054
339,CA,Montreal,Le Baluchon,"3550 Chemin des Trembles, St-Paulin, Quebec, Canada",802,46.45119,-73.00257
340,CA,Montreal,Residences Universitaires UQAM West,"2100 Saint-Urbain, Montreal, Quebec, Montreal, Quebec, Canada",83,45.51053,-73.56919
341,CA,Montreal,OrcaSound Hotel,"93 Montee Lavigne, Rigaud, Quebec, Canada",67,45.4647,-74.22491
342,CA,Montreal,Lee Farm Inn Bed & Breakfast,"20 Boul Notre Dame O, Stanstead, Quebec, Canada",75,45.0084,-72.0951
343,CA,Montreal,Quality Inn Centre-Ville,"1620 Rue Saint-Hubert, Montreal, Quebec, Canada",31,45.51656,-73.56188
344,CA,Montreal,Le 400 Sherbrooke Ouest By Corporate Stays,"400 Sherbrooke Ouest, Montreal, Quebec, Canada",20,45.50751,-73.57157
345,CA,Montreal,Cambridge Suites Mississauga,"7005 Century Ave, Mississauga, Ontario, Canada",197,43.60211,-79.75232
346,CA,Montreal,Auberge La Dolce Vita,"2428 Rue Commerciale Sud, Temiscouata-sur-le-Lac, Bas-Saint-Laurent, Quebec, Canada",132,47.61278,-68.79383
347,CA,Montreal,Hotel 7 Saisons,"1659 St. Hubert, Montreal, Quebec, Canada",53,45.5171,-73.5621
348,CA,Montreal,Le Chasseur B&B,"1567 St.-Andre Street, Montreal, Quebec, Canada",95,45.51729,-73.55977
349,CA,Montreal,Maison Brunet,"1035 rue Saint-hubert, Montreal, Quebec, Canada",60,45.51382,-73.5549
350,CA,Montreal,Comfort Inn Drummondville,"1055 rue Hains, Drummondville, Quebec, Canada",133,45.8976,-72.5249
351,CA,Montreal,Motel Canadien,"1821, Notre-Dame East St, Trois-Rivieres, Quebec, Canada",187,46.38532,-72.4795
352,CA,Montreal,Sheraton Saint-Hyacinthe Hotel,"1315 rue Daniel-Johnson O., Saint Hyacinthe, Quebec, Canada",91,45.63937,-72.96787
353,CA,Montreal,Imperia Hotel & Suites Terrebonne,"2935, Boulevard de la Piniere, Terrebonne, Quebec, Canada",200,45.72111,-73.6943
354,CA,Montreal,Lelux Hotel,"1600 Rue Saint-Hubert, Montreal, Quebec, Canada",45,45.51642,-73.56149
355,CA,Montreal,Le Chablis Hotel & Suites Cadillac,"5800 Sherbrooke East, Montreal, Quebec, Canada",64,45.57493,-73.54765
356,CA,Montreal,Fairmont Chateau Laurier,"1 Rideau Street, Ottawa, Ontario, Canada",4346,45.42535,-75.69483
357,CA,Montreal,Holland Hotel by Simplissimmo,"1121, Sainte Catherine West, Montreal, Quebec, Canada",11,45.51791,-73.55698
358,CA,Montreal,Hotel St-Thomas,"430 Sherbrooke East, Montreal, Quebec, Canada",12,45.51732,-73.56691
359,CA,Montreal,The Auberge Chomedey Inn,"590, Cure Labelle Boulevard, Laval, Quebec, Canada",35,45.537,-73.74098
360,CA,Montreal,L'Oasis de l'Ile,"25 chemin des Iles Yale, Saint-Eustache, Quebec, Canada",130,45.5781,-73.85223
361,CA,Montreal,A Montreal Oasis,"3000 De Breslay Road, Montreal, Quebec, Canada",6,45.4919,-73.58943
362,CA,Montreal,Hotel & Suites Le Dauphin Quebec,"400 Rue Marais, Quebec City, Quebec, Canada",1227,46.82826,-71.28238
363,CA,Montreal,Auberge Saint Antoine,"8 Rue Saint Antoine, Quebec City, Quebec, Canada",2860,46.81457,-71.20212
364,CA,Montreal,Le Germain Hotel Toronto Maple Leaf Square,"75 Bremner Blvd, Toronto, Ontario, Canada",1580,43.64284,-79.3815
365,CA,Montreal,Best Western Premier Hotel Aristocrate,"3100 Chemin St-Louis, Quebec City, Quebec, Canada",1330,46.7578,-71.29316
366,CA,Montreal,Hotel Quintessence,"3004 Chemin de la Chapelle, Mont Tremblant, Quebec, Canada",671,46.21295,-74.58911
367,CA,Montreal,Fairmont Vancouver Airport,"3111 Grant McConachie Way, Richmond, British Columbia, Canada",4487,49.19596,-123.17779
368,CA,Montreal,"Au 4700 Rivard, classification 212144","4700 Rivard, Montreal, Quebec, Canada",10,45.52564,-73.58527
369,CA,Montreal,1820s Style Boutique Lofts In Old Montreal by Nuage,"408 Rue Saint Jacques, Montreal, Quebec, Canada",7,45.50158,-73.55962
370,CA,Montreal,Hotel Felix,"1274 Ste-Catherine E, Montreal, Quebec, Canada",22,45.51907,-73.5554
371,CA,Montreal,Castel Saint Denis,"2099 rue Saint Denis, Montreal, Quebec, Canada",31,45.51681,-73.56671
372,CA,Montreal,De par Chez Nous,"858 du Rivage, Saint-Antoine-sur-Richelieu, Quebec, Canada",10,45.77445,-73.17706
373,CA,Montreal,Casa Santa Isabel,"2700 Reading Street, Montreal, Quebec, Canada",4,45.47558,-73.56668
374,CA,Montreal,Camping La Cle des Champs Complexe VR,"415 Montee St Claude, Saint-Philippe, Quebec, Canada",11,45.36264,-73.44344
375,CA,Montreal,Les Matins d'Antoine,"39 rue Queen, Sherbrooke, Quebec, Canada",30,45.36048,-71.85828
376,CA,Montreal,Hotel Trois Tilleuls,"290 rue Richelieu, Saint Marc sur Richelieu, Quebec, Canada",164,45.64811,-73.20603
377,CA,Montreal,Atelier Galerie Anne Drouin Peinture & Pension,"1345 Montee Sainte-Julie, Sainte-Julie, Quebec, Canada",16,45.61171,-73.36284
378,CA,Montreal,Les Apparts du Vieux Montreal,"405 Saint-Dizier Street, Montreal, Quebec, Canada",2,45.50539,-73.55439
379,CA,Montreal,Green Acres Inn,"2480 Princess St, Kingston, Ontario, Canada",403,44.25861,-76.56232
380,CA,Montreal,Gite & Appartements Du Marigot,"128 Boulevard Levesque Est, Laval, Quebec, Canada",23,45.56424,-73.67786
381,CA,Montreal,All Suites Majestique Downtown,"366-368 rue Sherbrook West, Montreal, Quebec, Canada",39,45.5166,-73.56731
382,CA,Montreal,Auberge Chez Jean,"4136 rue Henri Julien, Montreal, Quebec, Canada",64,45.52028,-73.57837
383,CA,Montreal,Hotel De La Couronne,"1029 St Denis, Montreal, Quebec, Canada",8,45.51197,-73.55617
384,CA,Montreal,Auberge Objectif Sante,"8665 Chemin de Chambly, Longueuil, Quebec, Canada",22,45.52668,-73.4752
385,CA,Montreal,Hotel Newstar,"5250 Rue Jarry E, Montreal, Quebec, Canada",75,45.58306,-73.59209
386,CA,Montreal,TownePlace Suites by Marriott Belleville,"400 Bell Blvd, Belleville, Ontario, Canada",268,44.18289,-77.42301
387,CA,Montreal,White Pine Lodge,"Parcel 13466, Temiskaming Shores, Northeastern Ontario, Ontario, Canada",14,,
388,CA,Montreal,Les Menus-Plaisirs,"244 boul. Sainte-Rose, Laval, Quebec, Canada",46,45.61239,-73.78865
389,CA,Montreal,Le St-Christophe,"1597 rue St-Christophe, Montreal, Quebec, Canada",19,45.51706,-73.56074
390,CA,Montreal,Island Shores Bed & Breakfast,"440 Main St., Rossport, Thunder Bay District, Ontario, Canada",69,48.40647,-89.24015
391,CA,Montreal,Empire Suites,"1606 Rue Saint-Hubert, Montreal, Quebec, Canada",38,45.51648,-73.56163
392,CA,Montreal,Gite La Cinquieme Saison,"4396, rue Boyer, Montreal, Quebec, Canada",10,45.52667,-73.57862
393,CA,Montreal,McGill Student Apartments,"3935 rue University, Montreal, Quebec, Canada",15,45.51064,-73.58365
394,CA,Montreal,Motel 6 Kingston,"1542 Robinson Court, Kingston, Ontario, Canada",475,44.28248,-76.56621
395,CA,Montreal,Motel Falcon,"6225 Boulevard Taschereau, Brossard, Quebec, Canada",39,45.47403,-73.46645
396,CA,Montreal,Hotel Rive Gauche,"1810 Rue Richelieu, Beloeil, Quebec, Canada",111,45.5918,-73.19225
397,CA,Montreal,Bridgewaters Inn,"2702 County Road 2, Johnstown, Ontario, Canada",31,44.74148,-75.47098
398,CA,Montreal,Motel La Siesta,"3179 boul. Taschereau, Longueuil, Quebec, Canada",23,45.49687,-73.48364
399,CA,Montreal,Aux Berges Fleuries,"1345 Montee Ste-Julie, Sainte-Julie, Quebec, Canada",2,45.61171,-73.36284
400,CA,Montreal,Best Western Plus Bathurst Hotel & Suites,"150 Main St, Bathurst, New Brunswick, Canada",435,47.62005,-65.6551
401,CA,Montreal,Chalet du Boise,"2200 Chemin des Sucreries, Varennes, Quebec, Canada",62,45.64401,-73.3716
402,CA,Montreal,1595 Dr Penfield by Ellegancia,"1595 Dr Penfield Ave, Montreal, Quebec, Canada",35,45.49659,-73.58683
403,CA,Montreal,Motel Le Transit,"30 Rue Brunet, Mont-Saint-Hilaire, Quebec, Canada",34,45.59196,-73.18133
404,CA,Montreal,Motel Le Marquis,"672 rue Sherbrooke Est, Montreal, Quebec, Canada",30,45.51877,-73.56654
405,CA,Montreal,Motel Mont-St-Hilaire et Cabines,"202, boul. Sir-Wilfrid-Laurier, Mont-Saint-Hilaire, Quebec, Canada",12,45.56243,-73.1955
406,CA,Montreal,Le bed & Cocktail - Par La Distillerie MTL,"2043 Mont-Royal E., Montreal, Quebec, Canada",3,45.53514,-73.57274
407,CA,Montreal,Auberge Le Lupin Air B&B,"127, Pinoteau Street, Mont Tremblant, Quebec, Canada",616,46.20669,-74.59988
408,CA,Montreal,Hotel Charlemagne,"115, Celine-Dion Blvd, Charlemagne, Quebec, Canada",63,45.72043,-73.49034
409,CA,Montreal,Aux Studios Montcalm,"1303 Montcalm street, Montreal, Quebec, Canada",24,45.5181,-73.5555
410,CA,Montreal,Marsh Bay Resort,"937740 Marsh Bay Road, Cobalt, Temiskaming Shores, Northeastern Ontario, Ontario, Canada",11,47.36413,-79.75938
411,CA,Montreal,Auberge Le St-George,"2190 rue Saint-Jean-Baptiste, Jonquiere, Saguenay, Saguenay–Lac-Saint-Jean Region, Quebec, Canada",33,48.41568,-71.25946
412,CA,Montreal,Auberge Parkers' Lodge,"1340 ch. du lac Paquin, Val David, Quebec, Canada",35,46.01952,-74.20814
413,CA,Montreal,The Noble Suites,"20 Broad St, Brockville, Ontario, Canada",214,44.58852,-75.68327
414,CA,Montreal,The Wilfrid Boutique Farmhouse,"1375 Royal Rd, Milford, Picton, Prince Edward County, Ontario, Canada",102,44.03473,-77.71593
415,CA,Montreal,Sir Isaac Brock B&B Luxury Suites,"89 Church St, Brockville, Ontario, Canada",312,44.58839,-75.68969
416,CA,Montreal,Residence Bharat Bhavan,"4225 Rue Notre Dame Ouest, Montreal, Quebec, Canada",5,45.47621,-73.58601
417,CA,Montreal,Hotel Le Saint-Paul,"229 rue Saint-Paul, Quebec City, Quebec, Canada",499,46.81683,-71.20915
418,CA,Montreal,Auberge Marquis de Montcalm,"797 General-De Montcalm St., Sherbrooke, Quebec, Canada",190,45.40237,-71.90035
419,CA,Montreal,Manoir Chamberland,"545 Rue Notre Dame, Montebello, Outaouais Region, Quebec, Canada",177,45.65066,-74.93944
420,CA,Montreal,Motel Des Erables,"44 Route 201, Coteau-du-Lac, Quebec, Canada",36,45.29941,-74.18028
421,CA,Montreal,LikeAHotel-Ste Catherine,"1223 Rue Mackay, Montreal, Quebec, Canada",14,45.49545,-73.57608
422,CA,Montreal,B&B on the Park,"1308 Sherbrooke St East, Montreal, Quebec, Canada",4,45.52391,-73.56482
423,CA,Montreal,Hotel Mini,"1475 Blvd Rene-Levesque East, Montreal, Quebec, Canada",2,45.51983,-73.55168
424,CA,Montreal,Motel Saint-Hilaire,"161 Blvd Sir-Wilfrid-Laurier, Mont-Saint-Hilaire, Quebec, Canada",7,45.56339,-73.19598
425,CA,Montreal,Econo Lodge,"1683 Rue Saint-Hubert, Montreal, Quebec, Canada",3,45.51721,-73.56246
426,CA,Montreal,Motel Seigneurie de Vaudreuil,"154 Hardwood, Vaudreuil-Dorion, Quebec, Canada",7,45.38282,-74.01125
427,CA,Montreal,B&B Le Bleu Balcon,"4420 St-Denis, Montreal, Quebec, Canada",47,45.5232,-73.58195
428,CA,Montreal,Camping Les Cedres,"658 Rte 219, Saint-Jean-sur-Richelieu, Quebec, Canada",18,45.29836,-73.33269
429,CA,Montreal,Estrimont Suites & Spa,"44, avenue de l'Auberge, Orford, Magog, Quebec, Canada",609,45.30599,-72.16412
430,CA,Montreal,Le St-Martin Bromont Hotel & Suites,"111 Boulevard Du Carrefour, Bromont, Quebec, Canada",323,45.3344,-72.65122
431,CA,Montreal,Pimbina Spa & Massage,"1239 Labelle street, Mont Tremblant, Quebec, Canada",258,46.13829,-74.58923
432,CA,Montreal,Plumes et Glisse,"17 Chemin des Pentes Nord, Lac-Superieur, Quebec, Canada",184,46.22212,-74.51091
433,CA,Montreal,Hotel Mont Gabriel,"1699 Chemin Mont Gabriel, Sainte-Adele, Quebec, Canada",414,45.92139,-74.1603
434,CA,Montreal,Manoir des Sables Hotel & Golf,"90, Avenue des Jardins, Orford, Magog, Quebec, Canada",453,45.31496,-72.16356
435,CA,Montreal,Comfort Inn Winnipeg South,"3109 Pembina Hwy, Winnipeg, Manitoba, Canada",367,49.77915,-97.15775
436,CA,Montreal,Auberge Louisbourg Hotel,"1649 Saint-Hubert, Montreal, Quebec, Canada",14,45.51701,-73.56199
437,CA,Montreal,Hotel Classic,"2020 Rue St. Denis, Montreal, Quebec, Canada",29,45.5159,-73.56571
438,CA,Montreal,Hotel Le Breton,"1609 Saint-Hubert St., Montreal, Quebec, Canada",12,45.51671,-73.56155
439,CA,Montreal,First Canada Inns,"1618 Vincent Massey Dr, Cornwall, Ontario, Canada",129,45.03042,-74.76218
440,CA,Montreal,Manoir D'Youville,"498 Boulevard d'Youville, Chateauguay, Quebec, Canada",33,45.3846,-73.77052
441,CA,Montreal,Gite du Parc Lafontaine Guest House,"1250 Sherbrooke est, Montreal, Quebec, Canada",31,45.52304,-73.56505
442,CA,Montreal,Motel Pierre,"2375 Boulevard Marcel-Laurin, Montreal, Quebec, Canada",35,45.52064,-73.70412
443,CA,Montreal,Maison Historique James Thompson,"47 rue Ste.Ursule, Quebec City, Quebec, Canada",240,46.8111,-71.20981
444,CA,Montreal,Le Gite De La Belle Rive,"387 Taillon, Montreal, Quebec, Canada",9,45.60499,-73.51121
445,CA,Montreal,Chez Roger Bontemps B&B,"1441 Wolfe St, Montreal, Quebec, Canada",10,45.51834,-73.55719
446,CA,Montreal,Happy Club & Motel,"33 - 17th St., Edmundston, New Brunswick, Canada",128,47.36951,-68.32273
447,CA,Montreal,Motel Colibri,"6960 rue St-Jacques Ouest, Montreal, Quebec, Canada",16,45.45627,-73.62939
448,CA,Montreal,Motel Saint-Jacques,"1980 Westmore Avenue, Montreal, Quebec, Canada",18,45.45353,-73.63511
449,CA,Montreal,Pied-A-Terre Mont-Royal,"4460 Avenue Christophe-Colomb, Montreal, Quebec, Canada",27,45.52762,-73.57878
450,CA,Montreal,Berri Suites,"Rue Berri, Montreal, Quebec, Canada",10,45.54731,-73.64353
451,CA,Montreal,"Holiday Inn Express & Suites Fredericton, an IHG Hotel","665 Prospect Street, Fredericton, New Brunswick, Canada",613,45.94929,-66.6848
452,CA,Montreal,"Holiday Inn Express & Suites Belleville, an IHG Hotel","291 North Front St, Belleville, Ontario, Canada",310,44.18431,-77.39254
453,CA,Montreal,A1 Studios Montreal,"1575 Lartigue Avenue, Montreal, Quebec, Canada",2,45.52055,-73.55704
454,CA,Montreal,Hotel Alt Quebec,"1200 Avenue De Germain-Des-Pres, Quebec City, Quebec, Canada",494,46.76892,-71.28762
455,CA,Montreal,Esterel Resort,"39, Boulevard Fridolin-Simard, Esterel, Sainte-Marguerite-du-Lac-Masson, Quebec, Canada",1230,46.02911,-74.038
456,CA,Montreal,1840 Guest House B&B,"223 Main Street West, Merrickville, Ontario, Canada",209,44.91614,-75.83972
457,CA,Montreal,Auberge Sur Mer,"363 Du Fleuve Rd, Notre-Dame-du-Portage, Bas-Saint-Laurent, Quebec, Canada",204,47.77955,-69.59893
458,CA,Montreal,"Jouvence, Centre de Villegiature","131, chemin Jouvence, Orford, Magog, Quebec, Canada",132,45.39492,-72.21696
459,CA,Montreal,Hotel Le Deville,"187 Rue Sainte-Catherine Est, Montreal, Quebec, Canada",19,45.51173,-73.56261
460,CA,Montreal,Microtel Inn & Suites by Wyndham Dorval,"1695 Rte Transcanadienne Nord, Dorval, Quebec, Canada",26,45.48649,-73.78082
461,CA,Montreal,The Abbey Inn,"21489 Butternut Lane, Lancaster, Ontario, Canada",13,45.27714,-74.48731
462,CA,Montreal,Hotel Cheribourg,"2603 Chemin du Parc, Orford, Magog, Quebec, Canada",365,45.31559,-72.17235
463,CA,Montreal,"Chez Hubert, B&B","66 St-Ursule, Quebec City, Quebec, Canada",273,46.31657,-73.01148
464,CA,Montreal,Hotel Sacacomie,"4000 Yvon-Plante Road, Saint-Alexis-des-Monts, Quebec, Canada",1705,46.52128,-73.18735
465,CA,Montreal,Comfort Inn Edmundston,"5 Bateman Ave., Edmundston, New Brunswick, Canada",496,47.37634,-68.31483
466,CA,Montreal,"Holiday Inn Express Quebec Sainte-Foy, an IHG Hotel","3145 Avenue Des Hotels, Quebec City, Quebec, Canada",817,46.75924,-71.29499
467,CA,Montreal,La Maison de Baviere B&B,"1470 Chemin de la Riviere, Val David, Quebec, Canada",196,46.03257,-74.21094
468,CA,Montreal,Au Chateau du Parc B & B,"1020 Sherbrooke East, Montreal, Quebec, Canada",7,45.52095,-73.56532
469,CA,Montreal,Le 2250 Guy,"2250, Guy, Montreal, Quebec, Canada",7,45.49617,-73.58071
470,CA,Montreal,Corporate Stays Apartments Mosaique,"345 de la Gauchetiere ouest, Montreal, Quebec, Canada",5,45.50414,-73.563
471,CA,Montreal,L'Auberge Lys et Chardon,"42 Rue de L'Eglise, Saint-Placide, Quebec, Canada",28,45.52689,-74.20748
472,CA,Montreal,Marketa's Bed and Breakfast,"239 Superior St, Victoria, Victoria Capital Regional District, Vancouver Island, British Columbia, Canada",492,48.42013,-123.37815
473,CA,Montreal,Quality Inn & Suites,"1575 Tupper St, Hawkesbury, Ontario, Canada",141,45.5911,-74.58909
474,CA,Montreal,Auberge Alpine Inn,"1440 Pierre-Peladeau, Sainte-Adele, Quebec, Canada",498,45.98408,-74.12082
475,CA,Montreal,Hotel Chateau Joliette,"450 rue St Thomas, Joliette, Quebec, Canada",183,46.02506,-73.43368
476,CA,Montreal,Elect Inn 5,"1123 Brookdale Ave, Cornwall, Ontario, Canada",67,45.02642,-74.75058
477,CA,Montreal,Auberge & Spa Beaux-Reves,"2310 Boul. De Sainte Adele, Sainte-Adele, Quebec, Canada",766,45.9633,-74.15288
478,CA,Montreal,Novotel Toronto North York,"3 Park Home Ave, Toronto, Ontario, Canada",1175,43.76871,-79.41434
479,CA,Montreal,Hotel Chateau Laurier Quebec,"1220, Place Georges V Ouest, Quebec City, Quebec, Canada",1925,46.80638,-71.2154
480,CA,Montreal,Spa Eastman,"895, chemin des Diligences, Eastman, Quebec, Canada",264,45.32134,-72.3266
481,CA,Montreal,Royal Victoria College Residence,"3425 University Street, Montreal, Quebec, Canada",12,45.50531,-73.57386
482,CA,Montreal,Auberge du Vieux Foyer,"3167, 1er Rang Doncaster, Val David, Quebec, Canada",308,46.04759,-74.19492
483,CA,Montreal,Le Hudson Inn,"100, Rte 201, Rigaud, Quebec, Canada",29,45.46153,-74.22809
484,CA,Montreal,B & B Maison Saint Louis,"311 Rue Du Square Saint Louis, Montreal, Quebec, Canada",3,45.51718,-73.57064
485,CA,Montreal,Complex Royal Labarre,"2019 Boulevard Taschereau, Longueuil, Quebec, Canada",31,45.50843,-73.49124
486,CA,Montreal,Chateau des Tourelles,"212 Street Saint Jean, Quebec City, Quebec, Canada",850,45.30848,-73.25213
487,CA,Montreal,Gite MaammBolduc,"4351 Avenue de Lorimier, Montreal, Quebec, Canada",12,45.53433,-73.57011
488,CA,Montreal,HOTEL O LAVAL,"1375 Boulevard des Laurentides, Laval, Quebec, Canada",27,45.57798,-73.70148
489,CA,Montreal,Au Doc Motel,"1424 rue Notre-Dame, Repentigny, Quebec, Canada",34,45.78348,-73.39985
490,CA,Montreal,Days Inn by Wyndham Montmagny,"218 Chemin Des Poirier, Montmagny, Chaudiere-Appalaches, Quebec, Canada",325,46.97164,-70.57627
491,CA,Montreal,La Chaumiere de l' Anse,"107, ch. de l'Anse, Mont Tremblant, Quebec, Canada",102,46.20239,-74.60789
492,CA,Montreal,Sunset-on-The-River Bed and Breakfast,"4475 Route 102, Kingsclear, New Brunswick, Canada",24,45.93074,-66.87671
493,CA,Montreal,Four Points by Sheraton Edmundston Hotel & Conference Center,"100 Rice St, Edmundston, New Brunswick, Canada",413,47.364,-68.33131
494,CA,Montreal,Quality Inn & Suites Amsterdam,"114 Millennium Dr, Quispamsis, New Brunswick, Canada",182,45.41066,-65.94755
495,CA,Montreal,Bel Air Tremblant Resort & Residences,"80 rue des Sept Sommets, La Conception-Station, Quebec, Canada",248,46.2025,-74.67429
496,CA,Montreal,Au NIDaigle,"1582 Principale St, Edmundston, New Brunswick, Canada",112,47.36185,-68.31071
497,CA,Montreal,Gite a L'Augustine,"775 Rue Richelieu, Quebec City, Quebec, Canada",146,45.68935,-73.19159
498,CA,Montreal,A la Maison Campbell B&B,"68, rue Bellevue, Magog, Quebec, Canada",138,45.26296,-72.15461
499,CA,Montreal,Travelodge Fredericton,"42 Chaperral Rd, Waasis, New Brunswick, Canada",254,45.85285,-66.56568
500,CA,Montreal,Hotel Oui GO!,"1413, Rue Notre-Dame Centre, Trois-Rivieres, Quebec, Canada",187,46.34206,-72.54021
501,CA,Montreal,Chic-Chocs Montagne Lodge,"Rue Notre-Dame, 10, Cap-Chat, Gaspesie Region, Quebec, Canada",65,49.09907,-66.67346
502,CA,Montreal,Auberge Hotel St-Andre,"211 St-Andre, Terrebonne, Quebec, Canada",59,45.69361,-73.63463
503,CA,Montreal,Camping Choisy,"209 Route 201, Rigaud, Quebec, Canada",12,45.47338,-74.24088
504,CA,Montreal,Sivananda Ashram Yoga Camp,"673 8th Avenue, Val Morin, Quebec, Canada",70,46.00588,-74.1864
505,CA,Montreal,Le Petit Clocher B&B,"216 ave de l' Eglise, Saint Sauveur des Monts, Quebec, Canada",144,45.90088,-74.168
506,CA,Montreal,Auberge Le Tricorne Inn,"50 Chemin Gosselin, North Hatley, Quebec, Canada",114,45.29905,-71.95118
507,CA,Montreal,Auberge Nuits St-Georges,"792 Rue Shefford, Bromont, Quebec, Canada",125,45.31811,-72.65774
508,CA,Montreal,Auberge Bishop,"1447 Rue Bishop, Montreal, Quebec, Canada",43,45.49727,-73.57748
509,CA,Montreal,Hotel & Suites Le Dauphin Drummondville,"600 Boulevard Saint-Joseph, Drummondville, Quebec, Canada",496,45.89315,-72.51367
510,CA,Montreal,"Holiday Inn Express & Suites Brockville, an IHG Hotel","7815 Kent Blvd, Brockville, Ontario, Canada",279,44.59673,-75.70671
511,CA,Montreal,Hotel Le President,"3535 King Street West, Sherbrooke, Quebec, Canada",1022,45.42538,-71.82631
512,CA,Montreal,Riotel Matane,"250 Avenue Du Phare Est, Matane, Gaspesie Region, Quebec, Canada",920,48.85327,-67.52539
513,CA,Montreal,Benner's Bed & Breakfast,"541 Besserer St, Ottawa, Ontario, Canada",123,45.43261,-75.67504
514,CA,Montreal,Le Vertendre,"122, Chemin Gilbert, Eastman, Quebec, Canada",97,45.32475,-72.2719
515,CA,Montreal,Auberge Aucoin,"87 De l'Eglise St, Edmundston, New Brunswick, Canada",102,47.36468,-68.32868
516,CA,Montreal,Auberge du Lac-a-l'Eau-Claire,"500 chemin du Lac-A-L'Eau-Claire, Saint-Alexis-des-Monts, Quebec, Canada",769,46.54316,-73.08784
517,CA,Montreal,Auberge du Mange Grenouille,"148, rue Sainte-Cecile, Le Bic, Rimouski, Bas-Saint-Laurent, Quebec, Canada",319,48.37264,-68.71169
518,CA,Montreal,Travelodge Hotel & Convention Center Quebec City,"3125 Hochelaga Boulevard, Quebec City, Quebec, Canada",316,46.76358,-71.30193
519,CA,Montreal,Hotel Victor,"1701 rue Saint Hubert, Montreal, Quebec, Canada",38,45.51734,-73.56264
520,CA,Montreal,Bed & Breakfast de Chez Nous,"3717 Sainte-Famille St, Montreal, Quebec, Canada",12,45.51278,-73.57638
521,CA,Montreal,The Cider House Bed & Breakfast,"74 Prince Edward Street, Brighton, Ontario, Canada",23,44.039,-77.73626
522,CA,Montreal,Mystic Meadow B&B,"6756 Pilon Point Rd, Summerstown, Ontario, Canada",15,45.07906,-74.533
523,CA,Montreal,Bed & Breakfast L'Heure Douce,"704 Rue Richelieu, Quebec City, Quebec, Canada",87,46.81151,-71.21937
524,CA,Montreal,B A GUEST Bed and Breakfast,"2033 St-Hubert, Montreal, Quebec, Canada",3,45.51837,-73.56488
525,CA,Montreal,Auberge Restaurant La Mara,"127 Chemin Gosford Sud, Ham-Sud, Quebec, Canada",64,45.73973,-71.59527
526,CA,Montreal,Auberge Sur le Lac Temiscouata,"117 rue de l'Anse, Temiscouata-sur-le-Lac, Bas-Saint-Laurent, Quebec, Canada",53,47.67642,-68.85132
527,CA,Montreal,Maison Hatley,"48 Rue de Hatley, Magog, Quebec, Canada",53,45.26362,-72.1542
528,CA,Montreal,Lentracte Homestay,"425 Marie-anne Est, Montreal, Quebec, Canada",22,45.52335,-73.58039
529,CA,Montreal,Haut Bois Dormant & Resto Epicurieux,"33 Main Street West, Notre Dame des Bois, Quebec, Canada",62,45.39453,-71.07306
530,CA,Montreal,Gite Le Clic,"3953 rue de Bullion, Montreal, Quebec, Canada",9,45.5178,-73.5768
531,CA,Montreal,Elk Lake Wilderness Resort,"590 Highway 65, Elk Lake, Northeastern Ontario, Ontario, Canada",8,47.73932,-80.34422
532,CA,Montreal,Le Houseboy Bed & Breakfast,"1656 Sainte-Catherine Est, Montreal, Quebec, Canada",4,45.52187,-73.55282
533,CA,Montreal,O Genet Bed & Breakfast,"2945 Concession 3, Plantagenet, Ontario, Canada",22,45.53368,-75.09138
534,CA,Montreal,Mowat Landing Cottages,"Mowat Landing Rd, Temiskaming Shores, Northeastern Ontario, Ontario, Canada",19,47.46233,-79.74012
535,CA,Montreal,Howard Johnson by Wyndham Cornwall,"1142 Brookdale Ave, Cornwall, Ontario, Canada",119,45.02671,-74.75191
536,CA,Montreal,Montreal Backpackers Globetrotter Hostel,"1304, Mont-Royal Ave. Est,, Montreal, Quebec, Canada",7,45.52975,-73.57714
537,CA,Montreal,Gite Gilbert,"1901 Avenue Clinton, Montreal, Quebec, Canada",16,45.51451,-73.62365
538,CA,Montreal,Au Diable Vert,"169 Staines, Sutton, Quebec, Canada",251,45.04184,-72.56511
539,CA,Montreal,Hotel L'Oiseliere - Montmagny,"105 chemin des Poirier, Montmagny, Chaudiere-Appalaches, Quebec, Canada",220,46.97587,-70.56978
540,CA,Montreal,Hilltop Motel,"2287 Princess St, Kingston, Ontario, Canada",99,44.2578,-76.5464
541,CA,Montreal,Sunset Inn on the Park,"641 Lakeshore Dr, North Bay, Northeastern Ontario, Ontario, Canada",191,46.26798,-79.44026
542,CA,Montreal,The Refuge,"2672 Chemin du Village, Mont Tremblant, Quebec, Canada",221,46.20782,-74.60344
543,CA,Montreal,Motel Loupi,"50 rue de l'Ancrage, Riviere du Loup, Bas-Saint-Laurent, Quebec, Canada",247,47.85512,-69.5529
544,CA,Montreal,La Roma Motel,"32 Ch Iroquois, Edmundston, New Brunswick, Canada",121,47.36305,-68.32734
545,CA,Montreal,Olux Hotel Motel & Suites,"1354 Des Laurentides, Laval, Quebec, Canada",91,45.57799,-73.7015
546,CA,Montreal,Turtle Island Bed and Breakfast,"415 Stone St S, Gananoque, Ontario, Canada",155,44.32697,-76.1588
547,CA,Montreal,Hotel Le Germain Quebec,"126 Rue Saint-Pierre, Quebec City, Quebec, Canada",1424,45.47705,-74.30421
548,CA,Montreal,Auberge West Brome,"128 Route 139, West Brome, Lac-Brome, Quebec, Canada",443,45.17847,-72.6627
549,CA,Montreal,Motel Bel-Eau,"600 Notre-Dame, Montebello, Outaouais Region, Quebec, Canada",119,45.6502,-74.93708
550,CA,Montreal,Comfort Inn & Suites,"1394 Route Des Rivieres, Levis, Chaudiere-Appalaches, Quebec, Canada",210,46.71856,-71.29737
551,CA,Montreal,Hilton Toronto / Markham Suites Conference Centre & Spa,"8500 Warden Avenue, Markham, Ontario, Canada",1304,43.85439,-79.33511
552,CA,Montreal,Excelsior Hotel Spa Sainte-Adele,"3655 Boulevard de Sainte-Adele, Sainte-Adele, Quebec, Canada",221,45.97408,-74.17234
553,CA,Montreal,The Loft at Nine Gables,"19 Maitland St, Picton, Prince Edward County, Ontario, Canada",124,44.04204,-77.73692
554,CA,Montreal,Hotel-Motel Coconut,"7531 Notre-Dame Ouest, Trois-Rivieres, Quebec, Canada",93,46.30973,-72.58173
555,CA,Montreal,Le Gite,"3619 rue De Bullion, Montreal, Quebec, Canada",23,45.51556,-73.57165
556,CA,Montreal,Motel Rouleau,"513 St-Philippe, Alfred, Ontario, Canada",20,45.55637,-74.88611
557,CA,Montreal,Century Motel,"1209 Brookdale Ave, Cornwall, Ontario, Canada",85,45.02757,-74.75164
558,CA,Montreal,Ofuro Spa,"777, Chemin St-Adolphe, Morin Heights, Quebec, Canada",37,45.9271,-74.27427
559,CA,Montreal,Motel Belle Riviere,"93 Chemin des Patriotes Est, Saint-Jean-sur-Richelieu, Quebec, Canada",61,45.32543,-73.25451
560,CA,Montreal,Travelodge by Wyndham Rigaud,"50 Rue Saint-Jean-Baptiste Ouest, Rigaud, Quebec, Canada",43,45.48541,-74.30978
561,CA,Montreal,Hotel & Motel La Marquise,"1700 Wellington South, Sherbrooke, Quebec, Canada",76,45.38146,-71.8716
562,CA,Montreal,Grand Motel Toronto,"4626 Kingston Rd, Toronto, Ontario, Canada",49,43.67805,-79.30148
563,CA,Montreal,B&B Au Manoir de la rue Merry,"92 Merry Sud, Magog, Quebec, Canada",424,45.26349,-72.15609
564,CA,Montreal,Hotel Universel,"311, boul. Hotel-de-Ville, Riviere du Loup, Bas-Saint-Laurent, Quebec, Canada",580,47.81981,-69.55908
565,CA,Montreal,Evo Montreal,"777 Boulevard Robert-bourassa, Montreal, Quebec, Canada",6,45.49997,-73.56242
566,CA,Montreal,B&B l'Abat-Jour,"2064 rue Defondville, Quebec City, Quebec, Canada",48,46.84035,-71.22178
567,CA,Montreal,The O'Brien House Bed and Breakfast,"39 Glenaire Mews, Kingston, Ontario, Canada",16,44.25669,-76.52387
568,CA,Montreal,Motel la Bell Villa,"10e Ave, Senneterre, Quebec, Canada",18,48.39454,-77.24233
569,CA,Montreal,B&B La Claire Fontaine,"1652 rue La Fontaine, Montreal, Quebec, Canada",2,45.52394,-73.55725
570,CA,Montreal,La Belle Planete Downtown Quebec Hostel,"386 Rue du Pont, Quebec City, Quebec, Canada",70,46.81559,-71.22106
571,CA,Montreal,Twilight Resort,"Highway 17 North, Batchawana Bay, Northeastern Ontario, Ontario, Canada",2,47.19999,-84.65141
572,CA,Montreal,Motel Marie-Dan,"311 Rue des Bouleaux, Sainte-Eulalie, Quebec, Canada",32,46.09895,-72.22965
573,CA,Montreal,Pierce Boutique Apartments,"1650 boulevard de Maisonneuve Ouest, Montreal, Quebec, Canada",11,45.49492,-73.57979
574,CA,Montreal,Econo Lodge,"1981 Boulevard Cure Labelle, Laval, Quebec, Canada",34,45.5561,-73.76371
575,CA,Montreal,Econo Hostel,"2156 Montgomery St, Montreal, Quebec, Canada",2,45.5366,-73.55313
576,CA,Montreal,Hostelo,"901 Sherbrooke Street E, Montreal, Quebec, Canada",10,45.5201,-73.56629
577,CA,Montreal,Auberge reBOOT Hostel,"4460 Ave. Christophe Colomb, Montreal, Quebec, Canada",28,45.52762,-73.57878
578,CA,Montreal,Village des Neiges,"130 ch. Tour-de-l'Isle, Montreal, Quebec, Canada",14,45.51284,-73.5345
579,CA,Montreal,Motel Royal,"1515 Boulevard Wilfrid-Hamel, Quebec City, Quebec, Canada",17,46.80611,-71.27558
580,CA,Montreal,Motel Champlain,"7600 Boul. Marie-Victorin, Brossard, Quebec, Canada",13,45.46044,-73.4939
581,CA,Montreal,Chesley's Inn,"40 First St W, Cornwall, Ontario, Canada",112,45.01609,-74.72967
582,CA,Montreal,Auberge L'Estampilles,"24 Ch du Cap-aux-Corbeaux Nord, Baie-St-Paul, Charlevoix, Quebec, Canada",243,47.43868,-70.46424
583,CA,Montreal,1858 Upscale Lofts In Old Montreal By Nuage,"227 Rue Saint-Paul Ouest, Montreal, Quebec, Canada",1,45.50245,-73.55568
584,CA,Montreal,Gite Un Air D'ete,"8988 Boulevard Sainte-Anne, Chateau Richer, Quebec, Canada",117,47.00504,-70.96276
585,CA,Montreal,Studiotel Bromont,"229 Boulevard de Bromont, Bromont, Quebec, Canada",127,46.8746,-71.21418
586,CA,Montreal,Chateau Vieux-Montreal,"452 / 452A Notre-Dame East, Montreal, Quebec, Canada",2,,
587,CA,Montreal,La Bergerie B&B,"373, chemin Morgan, Sutton, Quebec, Canada",82,45.07872,-72.59979
588,CA,Montreal,Days Inn by Wyndham Ste. Helene-de-Bagot,"410 rue Couture, Sainte-Helene-de-Bagot, Quebec, Canada",151,45.73202,-72.74062
589,CA,Montreal,Residence Maria Goretti- Pour Femmes,"3333 Chemin de la Cote-Sainte-Catherine, Montreal, Quebec, Canada",6,45.50057,-73.62604
590,CA,Montreal,Grand Times Hotel Sherbrooke,"1 rue Belvedere Sud, Sherbrooke, Quebec, Canada",433,45.39802,-71.89694
591,CA,Montreal,Seaway Manor Bed and Breakfast,"465 Stone St S, Gananoque, Ontario, Canada",126,44.32671,-76.1583
592,CA,Montreal,Ye Olde Walkerville Bed & Breakfast,"1104 Monmouth Rd, Windsor, Ontario, Canada",84,42.31717,-83.00521
593,CA,Montreal,Auberge Saint-Pierre,"79, rue Saint Pierre, Quebec City, Quebec, Canada",1843,45.37814,-73.56498
594,CA,Montreal,La Maison du Jardin,"3744 St-Andre, Montreal, Quebec, Canada",6,45.52113,-73.56933
595,CA,Montreal,Accommodations International Bed & Breakfast Guest House,"2002 rue de Champlain, Montreal, Quebec, Canada",1,45.52457,-73.5593
596,CA,Montreal,Aux Couleurs du Monde,"3454 rue Oxford, Montreal, Quebec, Canada",4,45.47146,-73.6157
597,CA,Montreal,Le Botaniste,"6560, 28E Avenue, Montreal, Quebec, Canada",1,48.33946,-70.99057
598,CA,Montreal,Auberge Du Lac Malcom,"123 route du Lac-Malcolm,, Sayabec, Gaspesie Region, Quebec, Canada",30,48.59255,-67.76007
599,CA,Montreal,Les Chalets du Lac Grenier,"100 rue des Mille-Feuilles, Chertsey, Quebec, Canada",54,46.15025,-73.91503
600,CA,Montreal,The Colonel's Inn,"408 East Street, Prescott, Ontario, Canada",80,44.71314,-75.51262
601,CA,Montreal,Hostellerie du Suroit,"255 rue Principale, Beauharnois, Quebec, Canada",12,45.31796,-73.93347
602,CA,Montreal,Stiles Motel,"827 Main St, Woodstock, New Brunswick, Canada",86,46.16344,-67.57549
603,CA,Montreal,Le Fruit Defendu Restaurant Auberge,"1342 Rang Double, Rougemont, Quebec, Canada",41,45.42605,-73.04122
604,CA,Montreal,BB Saffron,"Chemin du Plateau 40, Mont Tremblant, Quebec, Canada",6,46.12274,-74.53626
605,CA,Montreal,Casa Loma Court,"25 John St., Wasaga Beach, Ontario, Canada",4,44.54149,-80.00352
606,CA,Montreal,Netherdale Bed and Breakfast,"577 Greenlane Rd, Hawkesbury, Ontario, Canada",5,45.56842,-74.60477
607,CA,Montreal,Les Jalousies Pervenche,"42 Saint-Michel, Oka, Quebec, Canada",2,45.46053,-74.0901
608,CA,Montreal,Brigadoon B&B,"29 Main, Hudson, Quebec, Canada",4,45.44,-74.07937
609,CA,Montreal,Maison Elzear Ouellet,"5, Rue Laurier Est, Victoriaville, Quebec, Canada",21,46.03857,-71.91485
610,CA,Montreal,Mohawk Motel Canada,"335 Sauble Street, Massey, Northeastern Ontario, Ontario, Canada",82,46.21283,-82.07344
611,CA,Montreal,Destination Stays Griffintown Montreal,"5082 Notre Dame Ouest, Montreal, Quebec, Canada",5,45.46981,-73.5916
612,CA,Montreal,Best Western Plus Mont-Laurier,"1231, boulevard Dr Albiny-Paquette, Mont Laurier, Outaouais Region, Quebec, Canada",198,46.55205,-75.47659
613,CA,Montreal,Le Gaspesiana,"route de la Mer, Sainte-Flavie, Gaspesie Region, Quebec, Canada",340,48.61648,-68.21979
614,CA,Montreal,Le Noranda Hotel & Spa,"41, 6e Rue, Rouyn-Noranda, Quebec, Canada",108,48.24486,-79.02566
615,CA,Montreal,Auberge Knowlton,"286 Chemin Knowlton, Knowlton, Lac-Brome, Quebec, Canada",65,45.20148,-72.64733
616,CA,Montreal,Hotel des Coutellier,"253 rue St-Paul, Quebec City, Quebec, Canada",1942,46.81694,-71.21005
617,CA,Montreal,Comfort Inn Sherbrooke,"4295 Boulevard Bourque, Sherbrooke, Quebec, Canada",110,45.38237,-71.96967
618,CA,Montreal,Hotel Le Clos Saint-Louis,"69 rue St-Louis, Quebec City, Quebec, Canada",817,45.55505,-73.89149
619,CA,Montreal,Dolphin Motel,"1190 Pacific Rim Highway, Tofino, Clayoquot Sound, Alberni-Clayoquot Regional District, Vancouver Island, British Columbia, Canada",69,,
620,CA,Montreal,Hotel Lac Carling Golf & Spa,"2255 Route 327 Nord, Grenville-sur-la-Rouge, Quebec, Canada",110,45.72568,-74.70828
621,CA,Montreal,Maple Crest Inn,"1454 Princess St, Kingston, Ontario, Canada",224,44.25057,-76.53306
622,CA,Montreal,John XXIII Pavilion,"3800, chemin Queen Mary, Montreal, Quebec, Canada",7,45.49198,-73.618
623,CA,Montreal,Motel Le Paysan,"12400 Rue Sherbrooke Est, Montreal, Quebec, Canada",10,45.64795,-73.51145
624,CA,Montreal,Hygie Boutique Hotel,"401 Notre-Dame East, Montreal, Quebec, Canada",8,45.51041,-73.55252
625,CA,Montreal,Sarkar Suites,"212 Rue Sainte-Catherine Est, Montreal, Quebec, Canada",2,45.51187,-73.56186
626,CA,Montreal,The Durocher Apartments,"3455 Rue Durocher, Montreal, Quebec, Canada",1,45.50773,-73.57323
627,CA,Montreal,The Waddell,"1 Walton St, Port Hope, Ontario, Canada",124,43.95068,-78.29196
628,CA,Montreal,Vacances Canada M.D,"5155, avenue de Gaspe, Montreal, Quebec, Canada",4,45.52541,-73.59219
629,CA,Montreal,Jardin de Samos,"5159 Drolet, Montreal, Quebec, Canada",1,45.52681,-73.59084
630,CA,Montreal,La Nouvelle Maison JY,"2395 St-Jacques, Montreal, Quebec, Canada",11,45.48559,-73.57695
631,CA,Montreal,Auberge Sainte Denis,"5494 Saint Denis, Montreal, Quebec, Canada",1,45.52906,-73.59472
632,CA,Montreal,Hotel Rasco,"281 Rue Saint-Paul Est, Montreal, Quebec, Canada",2,45.50835,-73.55232
633,CA,Montreal,Les Apartments Stanley Court,"1431 Rue Stanley, Montreal, Quebec, Canada",8,45.49986,-73.5741
634,CA,Montreal,Auberge Willow Inn,"208 Rue Main, Hudson, Quebec, Canada",8,45.44822,-74.10803
635,CA,Montreal,Motel au P'tit Sapin,"16033 Boul. Cure-Labelle, Mirabel, Quebec, Canada",5,45.7344,-73.96598
636,CA,Montreal,Prince of Wales,"6 Picton St, Niagara-on-the-Lake, Ontario, Canada",2655,43.25438,-79.07061
637,CA,Montreal,Motel Derfal,"1435 rue Notre-Dame, Repentigny, Quebec, Canada",20,45.78423,-73.40058
638,CA,Montreal,Auberge Laetus Le Joyeux,"4333, chemin du lac Brennan, Rawdon, Quebec, Canada",16,46.02658,-73.80812
639,CA,Montreal,Auberge Du Petit Train du Nord,"3065 Rue Rolland, Sainte-Adele, Quebec, Canada",6,45.94,-74.11995
640,CA,Montreal,Motel Joliette,"2070 Rue de la Visitation, Joliette, Quebec, Canada",13,46.06991,-73.49497
641,CA,Montreal,Auberge Motel Le St-Georges,"130, rue Francois-Duclos, Trois-Rivieres, Quebec, Canada",15,46.36849,-72.5068
642,CA,Montreal,Hotel Motel Bon Accueil,"208 rue Principale, Riviere-Madeleine, Gaspesie Region, Quebec, Canada",24,48.26105,-70.46607
643,CA,Montreal,Auberge l'Ile de France,"2188, Chemin Du Tour Du Lac, Nominingue, Quebec, Canada",155,46.39609,-75.02729
644,CA,Montreal,Hotel Paulin,"143 St-Pierre Blvd W, Caraquet, New Brunswick, Canada",105,47.79154,-64.95415
645,CA,Montreal,Une Fleur au Bord de l Eau,"90 Drummond, Granby, Quebec, Canada",49,45.39751,-72.71478
646,CA,Montreal,Motel 149,"149 Route 117, Mont Tremblant, Quebec, Canada",48,46.11492,-74.54941
647,CA,Montreal,Camping St-Basile,"14411 Route 144, Edmundston, New Brunswick, Canada",25,47.36577,-68.33292
648,CA,Montreal,Auberge la Courtepointe,"8, rue Racine, Petite-Riviere-Saint-Francois, Charlevoix, Quebec, Canada",55,47.30941,-70.56557
649,CA,Montreal,Entre Cimes et Racines,"80 Chemin Simard, East Bolton, Quebec, Canada",70,45.25793,-72.3244
650,CA,Montreal,Hotel & Suites Les Laurentides,"190 Chemin De La Gare, Saint Sauveur des Monts, Quebec, Canada",195,45.88936,-74.15002
651,CA,Montreal,Quality Inn,"3825 Blvd Wilfrid-Hamel, Quebec City, Quebec, Canada",287,46.80603,-71.31494
652,CA,Montreal,Saintlo Ottawa Jail Hostel,"75 Nicholas St, Ottawa, Ontario, Canada",632,45.4251,-75.68845
653,CA,Montreal,Le Village Windigo,"548, Chemin du Windigo, Ferme-Neuve, Quebec, Canada",264,46.74518,-75.66273
654,CA,Montreal,Lune et Croissant,"1300 Main, Ayer's Cliff, Quebec, Canada",15,45.16355,-72.03786
655,CA,Montreal,Gite Grand Moment,"19 rue Caldwell, Temiscouata-sur-le-Lac, Bas-Saint-Laurent, Quebec, Canada",25,47.68099,-68.88493
656,CA,Montreal,Blanche Dubois at Elysian Fields,"198 John St, Napanee, Lennox and Addington County, Ontario, Canada",12,44.25073,-76.95243
657,CA,Montreal,Auberge de l’ile aux Perroquets,"878, chemin du Roi, Longue-Pointe-de-Mingan, Quebec, Canada",13,50.26954,-64.14283
658,CA,Montreal,En Passant B&B,"425 Anthony Street, Cornwall, Ontario, Canada",10,45.03151,-74.69761
659,CA,Montreal,Asseline de Ronval,"354, rue Richelieu, Quebec City, Quebec, Canada",30,46.80951,-71.22389
660,CA,Montreal,La Tourelle du Cap,"1515, boulevard Malcolm-Fraser, La Malbaie, Charlevoix, Quebec, Canada",32,47.68153,-70.06031
661,CA,Montreal,Le Manoir du Rocher de Grand-Mere,"85, 6e Avenue, Grand-Mere, Shawinigan, Quebec, Canada",57,46.61872,-72.68525
662,CA,Montreal,La Maison Drew Bed and Breakfast,"206 rue Des Pins, Magog, Quebec, Canada",30,45.26906,-72.15173
663,CA,Montreal,Gite Vita Bella B&B,"280 Chemin de Bellefeuille, Saint-Adolphe-d'Howard, Quebec, Canada",27,45.9522,-74.36875
664,CA,Montreal,Brighton Inn,"40 Young St, Brighton, Ontario, Canada",142,44.04414,-77.73829
665,CA,Montreal,Campus1 MTL,"420 Sherbrooke Street West, Montreal, Quebec, Canada",10,45.51732,-73.56721
666,CA,Montreal,The Parc Lofts,"3456 Avenue Du Parc, Montreal, Quebec, Canada",1,45.50885,-73.57273
667,CA,Montreal,Best Western Fireside Inn,"1217 Princess St, Kingston, Ontario, Canada",1521,44.24673,-76.52276
668,CA,Montreal,Hotel & Spa Le Germain Charlevoix,"50 Rue De La Ferme, Baie-St-Paul, Charlevoix, Quebec, Canada",863,47.43469,-70.50335
669,CA,Montreal,Auberge Motel Le Pigeonnier,"701, Principale Ouest, Farnham, Quebec, Canada",24,45.28723,-72.99135
670,CA,Montreal,Auberge Internationale Rivire-du-Loup,"46 Rue Hotel de Ville, Riviere du Loup, Bas-Saint-Laurent, Quebec, Canada",56,47.83737,-69.53554
671,CA,Montreal,Motel Chantolac,"156 Rue Morin, Sainte-Adele, Quebec, Canada",43,45.94908,-74.13928
672,CA,Montreal,Motel Les Pignons Verts,"120 Avenue Lepine, Buckingham, Gatineau, Outaouais Region, Quebec, Canada",33,45.57466,-75.41068
673,CA,Montreal,Hotel Le Mirage,"365 Boulevard Sir Wilfrid-Laurier, Saint-Basile-le-Grand, Quebec, Canada",36,45.52306,-73.30887
674,CA,Montreal,Condominiums O'berge Du Village,"261 Rue Merry Sud, Magog, Quebec, Canada",24,45.26097,-72.15932
675,CA,Montreal,Travelodge by Wyndham Victoriaville,"1000, Boulevard Jutras Est, Victoriaville, Quebec, Canada",50,46.063,-71.93026
676,CA,Montreal,Best Western Plus Edmundston Hotel,"280 Boul Hebert, Edmundston, New Brunswick, Canada",1361,47.37818,-68.31284
677,CA,Montreal,Lord's Seaside Cottages,"258 Lord's Seaside Lane, Cape Traverse, Prince Edward Island, Canada",18,46.22306,-63.64403
678,CA,Montreal,Fairview Inn,"2020 Vincent Massey Dr, Cornwall, Ontario, Canada",16,45.03105,-74.77704
679,CA,Montreal,Stephanie's Hotel,"1686 Highway 34, Hawkesbury, Ontario, Canada",24,45.59413,-74.62238
680,CA,Montreal,Residence Lalemant College Brebeuf,"5625 Avenue Decelles, Montreal, Quebec, Canada",9,45.50052,-73.62496
681,CA,Montreal,Rideau Rendezvous,"4200 Mangan Blvd, Kingston, Ontario, Canada",21,44.4186,-76.30858
682,CA,Montreal,Nightingale House,"1 Maxwell Ave., Ingleside, Ontario, Canada",7,44.99655,-74.98619
683,CA,Montreal,Montreal Backpackers Hippie Hostel,"4106 Saint Dominique, Montreal, Quebec, Canada",1,45.51775,-73.58002
684,CA,Montreal,Delta Hotels by Marriott Quebec,"690 Boul Rene Levesque Est, Quebec City, Quebec, Canada",1600,46.80932,-71.21679
685,CA,Montreal,Auberge Le Voyageur,"900 rue Coupal, Mont Tremblant, Quebec, Canada",257,46.13082,-74.59036
686,CA,Montreal,Fairfield Inn & Suites Ottawa Airport,"135 Thad Johnson Private, Ottawa, Ontario, Canada",140,45.32628,-75.65342
687,CA,Montreal,Best Western Hotel Universel Drummondville,"915 Rue Hains, Drummondville, Quebec, Canada",688,45.90026,-72.52272
688,CA,Montreal,Hotel Acadia,"43, rue Sainte-Ursule, Quebec City, Quebec, Canada",1160,46.81126,-71.21001
689,CA,Montreal,Auberge Du Lac Taureau,"1200, Chemin de la Baie-du-Milieu, Saint Michel des Saints, Quebec, Canada",1013,46.7629,-73.89567
690,CA,Montreal,Montreal Guest House,"1258 Amherst, Montreal, Quebec, Canada",2,45.5211,-73.56363
691,CA,Montreal,Terrace Green Bed & Breakfast,"11952 County Road 43, Winchester, Ontario, Canada",69,45.08389,-75.37896
692,CA,Montreal,Hampton Inn by Hilton Napanee,"40 McPherson Drive, Napanee, Lennox and Addington County, Ontario, Canada",515,44.26114,-76.9712
693,CA,Montreal,Super 8 by Wyndham Trois-Rivieres,"3185 Blvd. Saint-Jean, Trois-Rivieres, Quebec, Canada",763,46.33004,-72.60335
694,CA,Montreal,"Natur'Eau, Spa et Chalets","22, Chemin Natur'Eau, Mandeville, Quebec, Canada",28,46.44068,-73.38044
695,CA,Montreal,Toronto Marriott City Centre Hotel,"One Blue Jays Way, Toronto, Ontario, Canada",2512,43.64355,-79.39129
696,CA,Montreal,Daigle's Motel & Restaurant,"68 Du Pont St, Saint Leonard, New Brunswick, Canada",67,47.16175,-67.92738
697,CA,Montreal,Super 8 by Wyndham St-Jerome,"3 John F. Kennedy, Saint Jerome, Quebec, Canada",389,45.76182,-74.02215
698,CA,Montreal,Days Inn by Wyndham Edmundston,"10 Mathieu St, Edmundston, New Brunswick, Canada",1746,47.35029,-68.21054
699,CA,Montreal,Days Inn by Wyndham Brockville,"160 Stewart Blvd, Brockville, Ontario, Canada",572,44.59838,-75.70011
700,CA,Montreal,Travelodge Brockville,"7789 Kent Blvd, Brockville, Ontario, Canada",510,44.59762,-75.70549
701,CA,Montreal,Auberge des Falaises,"250 Chemin des Falaises, La Malbaie, Charlevoix, Quebec, Canada",402,47.63621,-70.15237
702,CA,Montreal,Auberge lac du Pin rouge,"81 Chemin Lac du Pin Rouge, Saint Hippolyte, Quebec, Canada",11,45.95931,-74.04088
703,CA,Montreal,Domaine Ste-Agathe Resort,"650 du Domaine Street,, Sainte Agathe des Monts, Quebec, Canada",290,46.04421,-74.2552
704,CA,Montreal,A Moment in Time Bed & Breakfast,"5982 Culp St, Niagara Falls, Ontario, Canada",79,43.08596,-79.09321
705,CA,Montreal,Les Lofts 1048,"1048 rue Saint-Jean, Quebec City, Quebec, Canada",139,46.81331,-71.21205
706,CA,Montreal,Harlem Stonegate B&B,"2341 Harlem Rd., Elgin, Rideau Lakes, Ontario, Canada",53,44.66789,-76.14037
707,CA,Montreal,Yellow Door Bed And Breakfast,"308 Helen St., Crystal Beach, Fort Erie, Ontario, Canada",101,42.86724,-79.05402
708,CA,Montreal,Hotel Nomad - l'esprit de curiosite,"15 Avenue Sainte-Genevieve, Quebec City, Quebec, Canada",873,46.81031,-71.20596
709,CA,Montreal,Camping Canne de Bois,"306 Route 219, Hemmingford, Quebec, Canada",16,45.03281,-73.59826
710,CA,Montreal,Quality Inn & Suites Levis,"5800 Rue Des Arpents, Levis, Chaudiere-Appalaches, Quebec, Canada",703,46.78598,-71.15668
711,CA,Montreal,La Cache A Maxime,"265, rue Drouin, Scott, Sainte-Marie, Chaudiere-Appalaches, Quebec, Canada",675,46.45746,-71.04281
712,CA,Montreal,DoubleTree by Hilton Quebec Resort,"7900 Rue Du Marigot, Quebec City, Quebec, Canada",123,46.88328,-71.30638
713,CA,Montreal,Stonehaven Le Manoir,"40 Chemin Du Lac Des Sables, Sainte Agathe des Monts, Quebec, Canada",148,46.03359,-74.29861
714,CA,Montreal,Salmon River Motel,"6421 Old Hwy 2, Shannonville, Ontario, Canada",8,44.20717,-77.20915
715,CA,Montreal,Place 19-67,"200 Old Highway 17, Plantagenet, Ontario, Canada",2,45.54082,-74.99051
716,CA,Montreal,Auberge Hotel Spa Watel,"250 Rue Saint Venant, Sainte Agathe des Monts, Quebec, Canada",439,46.03182,-74.28622
717,CA,Montreal,Auberge La Grande Maison,"160 St-Jean Baptiste, Baie-St-Paul, Charlevoix, Quebec, Canada",277,47.44551,-70.51063
718,CA,Montreal,Holiday Country Manor,"5208 Battersea Rd, Battersea, South Frontenac, Ontario, Canada",31,44.43007,-76.38451
719,CA,Montreal,La Seigneurie du Triton,"1893 Chemin Du Triton, Lac-Edouard, Quebec, Canada",398,47.66867,-72.31888
720,CA,Montreal,Hotel Le Manoir Belle Plage,"474, Perron Boulevard, Carleton-sur-Mer, Gaspesie Region, Quebec, Canada",534,48.10863,-66.13432
721,CA,Montreal,Gite Ici et Maintenant,"121, rue Abbott, Magog, Quebec, Canada",72,45.26814,-72.15436
722,CA,Montreal,Gite des Rapides,"7767 Rue Edouard, Montreal, Quebec, Canada",3,45.42759,-73.59585
723,CA,Montreal,Drake Motor Inn,"43 Wharf ST, Wellington, Prince Edward County, Ontario, Canada",38,44.0411,-77.73648
724,CA,Montreal,Gite De La Madelon,"20 rue Baillarge, Vercheres, Quebec, Canada",2,45.77479,-73.35572
725,CA,Montreal,Royal Inn + Suites,"3 Royal Street, Happy Valley-Goose Bay, Labrador, Newfoundland and Labrador, Canada",89,53.29945,-60.32262
726,CA,Montreal,Voyageur's Lodge & Cookhouse,"Highway 17 North, Batchawana Bay, Northeastern Ontario, Ontario, Canada",106,47.19999,-84.65141
727,CA,Montreal,Hotel Quartier - Ascend Hotel Collection,"2955 Boulevard Laurier, Quebec City, Quebec, Canada",167,46.76533,-71.29093
728,CA,Montreal,Comfort Inn Baie-Comeau,"745 Boulevard Lafleche, Baie Comeau, Quebec, Canada",147,49.19828,-68.25729
729,CA,Montreal,Gite l'Etoile du Havre,"405 Youghall Dr, Bathurst, New Brunswick, Canada",125,47.65178,-65.66182
730,CA,Montreal,White Rock Motel,"169 Main St N, Alexandria, Ontario, Canada",79,45.31459,-74.63937
731,CA,Montreal,Timber House Resort,"116 Cedardale Road, Brighton, Ontario, Canada",89,44.00783,-77.7398
732,CA,Montreal,Village historique de Val-Jalbert - Hebergement et Camping,"95, rue Saint-Georges, Chambord, Saguenay–Lac-Saint-Jean Region, Quebec, Canada",304,48.44903,-71.66627
733,CA,Montreal,Chalets du Bout du Monde,"1141 Route Haldimand, Gaspe, Gaspesie Region, Quebec, Canada",262,48.78429,-64.41458
734,CA,Montreal,Le Georgesville,"300, 118e Rue, Saint Georges, Chaudiere-Appalaches, Quebec, Canada",134,46.12779,-70.6935
735,CA,Montreal,Motel Ours Bleu,"19, chemin de la Presqu'ile, Lac-Saguay, Quebec, Canada",187,46.50142,-75.14126
736,CA,Montreal,Auberge des Cevennes,"294 St-Jean-Baptiste, L'Anse-Saint-Jean, Saguenay–Lac-Saint-Jean Region, Quebec, Canada",157,48.23524,-70.19908
737,CA,Montreal,Couette et Cafe 253,"253, rue de la Reine, Quebec City, Quebec, Canada",165,46.81451,-71.22853
738,CA,Montreal,Auberge du Lac Champlain,"257 Avenue Venise Ouest, Venise-en-Quebec, Quebec, Canada",101,45.08226,-73.14957
739,CA,Montreal,A Cherry Place Bed and Breakfast,"899 Brodie Ave, Kingston, Ontario, Canada",74,44.22089,-76.58323
740,CA,Montreal,Auberge Bruine Oceane,"125, rue Druillettes, Matane, Gaspesie Region, Quebec, Canada",181,48.85094,-67.5339
741,CA,Montreal,Chez Marie-Claire,"62 rue Ste-Ursule, Quebec City, Quebec, Canada",183,46.81086,-71.20978
742,CA,Montreal,Le Canard Huppe,"St. Lawrence Road, Saint-Laurent-de-l'Ile-d'Orleans, Ile d'Orleans, Quebec, Canada",178,46.85916,-71.05384
743,CA,Montreal,Motel le Marquis,"989A, Notre-Dame, rte 138 Est, Trois-Rivieres, Quebec, Canada",144,46.37709,-72.49146
744,CA,Montreal,B&B Tekdiv,"24 Selton School Rd, Lansdowne, Ontario, Canada",42,44.3734,-75.9869
745,CA,Montreal,Super 8 by Wyndham Sainte Agathe Des Monts,"500 Rue Leonard, Sainte Agathe des Monts, Quebec, Canada",553,46.04271,-74.27027
746,CA,Montreal,Le Septentrion B&B,"901 Ch. St-Adolphe, Morin Heights, Quebec, Canada",38,45.92546,-74.27924
747,CA,Montreal,Aux Douceurs Du Passant,"527 Notre-Dame, Montebello, Outaouais Region, Quebec, Canada",62,45.65034,-74.94097
748,CA,Montreal,A la Maison d'Amitie,"197 Baseline Road, Mavillette, Municipality of Clare, Southwest Nova Scotia, Nova Scotia, Canada",29,44.09851,-66.21259
749,CA,Montreal,Paddington Place Bed & Breakfast,"413 Paddington Cres, Oshawa, Ontario, Canada",42,43.92693,-78.85753
750,CA,Montreal,Absolute 1000 Islands Suites,"22 Church St, Gananoque, Ontario, Canada",60,44.32526,-76.1668
751,CA,Montreal,Relais Magpie Relay Resort,"24 Rue des Pins, Dubreuilville, Northeastern Ontario, Ontario, Canada",100,48.35786,-84.53796
752,CA,Montreal,Comfort Inn,"605 Bloor St W, Oshawa, Ontario, Canada",142,43.87432,-78.87813
753,CA,Montreal,Cheticamp Motel,"14764 Cabot Trail, Cheticamp, Cape Breton Island, Nova Scotia, Canada",40,46.61134,-61.01601
754,CA,Montreal,Motel Boulevard Cartier,"80, boul. Cartier, Riviere du Loup, Bas-Saint-Laurent, Quebec, Canada",53,47.8509,-69.54177
755,CA,Montreal,Auberge La Grange de l'Ile,"517 Chemin du Carrefour, Saint-Pierre-de-l'lle-d'Orleans, Ile d'Orleans, Quebec, Canada",54,46.90081,-71.06957
756,CA,Montreal,Days Inn by Wyndham Trois-Rivieres,"3155 Boulevard Saint Jean, Trois-Rivieres, Quebec, Canada",237,46.32969,-72.60288
757,CA,Montreal,"InterContinental Toronto Centre, an IHG Hotel","225 Front Street West, Toronto, Ontario, Canada",3334,43.64453,-79.38522
758,CA,Montreal,Residence Inn Toronto Downtown/Entertainment District,"255 Wellington St W, Toronto, Ontario, Canada",1967,43.6448,-79.39057
759,CA,Montreal,Downtown Mcgill & Guy,"3730 A Chemin de la Cote-des-Neiges, Montreal, Quebec, Canada",1,45.49611,-73.58779
760,CA,Montreal,Gite au Rythme du temps,"30 rue Guy, Saint-Come, Quebec, Canada",1,46.25487,-73.72852
761,CA,Montreal,La Maison Sur Sherbrooke,"Rue Sherbrooke Est 2920, Montreal, Quebec, Canada",1,45.54044,-73.5585
762,CA,Montreal,MTLVacationrentals-The MTLVR Kisses,"4494 Rue Garnier, Montreal, Quebec, Canada",1,45.53059,-73.57625
763,CA,Montreal,Quality Inn & Suites,"1 Boul. Arthabaska est., Victoriaville, Quebec, Canada",168,46.07477,-71.93331
764,CA,Montreal,Manoir Alpine,"1455 Chemin Pierre Peladeau, Sainte-Adele, Quebec, Canada",9,45.98396,-74.11938
765,CA,Montreal,Motel Normandie,"1111 boulevard St-Laurent Ouest, Louiseville, Quebec, Canada",22,46.25005,-72.96512
766,CA,Montreal,Cardinal/Ottawa South KOA,"609 Pittston Road, Cardinal, Ontario, Canada",118,44.86008,-75.44188
767,CA,Montreal,Merland Park Cottages,"12488 Loyalist Parkway, Picton, Prince Edward County, Ontario, Canada",86,44.02244,-77.12307
768,CA,Montreal,Chateau Madelinot,"323 Qc-199, Fatima, Ile du Cap aux Meules, Iles de la Madeleine, Quebec, Canada",102,47.36911,-61.8791
769,CA,Montreal,124 on Queen Hotel and Spa,"124 Queen Street, Niagara-on-the-Lake, Ontario, Canada",735,43.25665,-79.0747
770,CA,Montreal,"The Ritz-Carlton, Toronto","181 Wellington St W, Toronto, Ontario, Canada",2050,43.64549,-79.38702
771,CA,Montreal,Fairmont Le Chateau Frontenac,"1 Rue des Carrieres, Quebec City, Quebec, Canada",7422,46.81187,-71.2053
772,CA,Montreal,The Westin Ottawa,"11 Colonel By Drive, Ottawa, Ontario, Canada",2589,45.42481,-75.69229
773,CA,Montreal,Residences Universitaires UQAM East,"303 Boulevard Rene-Levesque Est, Montreal, Quebec, Canada",26,45.51171,-73.55948
774,CA,Montreal,Fairmont Waterfront,"900 Canada Place Way, Vancouver, British Columbia, Canada",4393,49.28744,-123.11323
775,CA,Montreal,Lord Nelson Motel,"1664 Highway 15, Kingston, Ontario, Canada",257,44.28555,-76.43417
776,CA,Montreal,L'Auberge des Battures,"6295 Boul. de la Grande Baie Sud, La Baie, Saguenay, Saguenay–Lac-Saint-Jean Region, Quebec, Canada",237,48.33678,-70.79505
777,CA,Montreal,Auberge Cap Martin,"93, Route 132 Ouest, La Pocatiere, Bas-Saint-Laurent, Quebec, Canada",62,47.47738,-69.96355
778,CA,Montreal,1000 Islands / Kingston KOA,"2039 Corduke's Rd, Kingston, Ontario, Canada",61,44.3004,-76.57542
779,CA,Montreal,Auberge Chateau Lamontagne,"170, 1ere Avenue Est, Sainte Anne des Monts, Gaspesie Region, Quebec, Canada",98,49.13254,-66.47371
780,CA,Montreal,Hotel Motel Manoir de Perce,"212 Route 132 ouest, Perce, Gaspesie Region, Quebec, Canada",146,48.51911,-64.21693
781,CA,Montreal,Chateau Logue Hotel,"12 rue Comeau, Maniwaki, Outaouais Region, Quebec, Canada",74,46.38246,-75.96677
782,CA,Montreal,Comfort Inn & Suites,"31 Community Road, Napanee, Lennox and Addington County, Ontario, Canada",31,44.26885,-76.96346
783,CA,Montreal,Motel de l'Outlet,"82 rue de Hatley, Magog, Quebec, Canada",89,45.26339,-72.15319
784,CA,Montreal,Grand Times Hotel Drummondville,"530 Rue St Amant, Drummondville, Quebec, Canada",141,45.89599,-72.5144
785,CA,Montreal,Auberge Montebello,"676 Notre-Dame, Montebello, Outaouais Region, Quebec, Canada",114,45.64937,-74.93336
786,CA,Montreal,Ottawa Municipal Campground,"411 Corkstown Rd, Ottawa, Ontario, Canada",32,45.33363,-75.87943
787,CA,Montreal,Travelodge by Wyndham Trois-Rivieres,"3600 Boul. Gene H Kruger, Trois-Rivieres, Quebec, Canada",327,46.32912,-72.55784
788,CA,Montreal,Quality Hotel & Suites,"4206 King Street West, Sherbrooke, Quebec, Canada",78,42.96652,-80.06379
789,CA,Montreal,Comfort Inn Trois Rivieres,"6255 rue Corbeil, Trois-Rivieres, Quebec, Canada",105,46.32836,-72.59455
790,CA,Montreal,Auberge Lakeview,"50 rue Victoria, Knowlton, Lac-Brome, Quebec, Canada",71,45.22062,-72.51279
791,CA,Montreal,River Rock Inn,"2808 Chamberland St, Rockland, Ontario, Canada",77,45.54196,-75.30482
792,CA,Montreal,Domaine Belle Plage,"192 rue sainte-Anne, Baie-St-Paul, Charlevoix, Quebec, Canada",146,47.43231,-70.49313
793,CA,Montreal,Travelodge Baie Comeau,"285 Boulevard La Salle, Baie Comeau, Quebec, Canada",173,49.21435,-68.1874
794,CA,Montreal,Cafe Krieghoff,"1091 Cartier Ave, Quebec City, Quebec, Canada",91,46.80352,-71.2255
795,CA,Montreal,Motel Tremblant,"Highway 117, Km 111, Mont Tremblant, Quebec, Canada",71,48.15152,-79.50835
796,CA,Montreal,Complexe Le 60,"600 chemin Des Frenes, Piedmont, Quebec, Canada",121,45.8904,-74.14202
797,CA,Montreal,Travelodge Baie Comeau,"285 Boulevard La Salle, Baie Comeau, Quebec, Canada",173,49.21435,-68.1874
798,CA,Montreal,Motel Le Jolibourg,"60 rue Principale, Saint Sauveur des Monts, Quebec, Canada",129,45.8845,-74.16169
799,CA,Montreal,"Hotel Le Victorin, Ascend Hotel Collection","19 Boulevard Arthabaska East, Victoriaville, Quebec, Canada",173,46.07729,-71.93208
800,CA,Montreal,Deep River Motel,"33695 Highway 17 West, Deep River, Ontario, Canada",59,46.10993,-77.52302
801,CA,Montreal,Hotel Bourbon,"1578 Ste-Catherine Est, Montreal, Quebec, Canada",5,45.52144,-73.55318
802,CA,Montreal,Montreals Discovery Center,"2131 Rue Saint-Christophe, Montreal, Quebec, Canada",1,45.51935,-73.56587
803,CA,Montreal,Bookit Montreal - Rue Saint Hubert,"2024 Rue Saint Hubert, Montreal, Quebec, Canada",1,45.51798,-73.5649
804,CA,Montreal,Gite B&B Montreal,"6567 Boulevard Pie-IX, Montreal, Quebec, Canada",4,45.56313,-73.58063
805,CA,Montreal,Studio St-Denis,"3947 St Denis, Montreal, Quebec, Canada",2,45.52046,-73.57469
806,CA,Montreal,Auberge The King Edward Bed and Breakfast,"525 King Edward Ave, Ottawa, Ontario, Canada",658,45.42584,-75.68282
807,CA,Montreal,"The Westin Harbour Castle, Toronto","1 Harbour Square, Toronto, Ontario, Canada",5462,43.6409,-79.37587
808,CA,Montreal,Hilton Toronto,"145 Richmond Street West, Toronto, Ontario, Canada",3987,43.64987,-79.38537
809,CA,Montreal,Fairmont Tremblant,"3045 Chemin de la Chapelle, Mont Tremblant, Quebec, Canada",2311,46.21501,-74.58532
810,CA,Montreal,Travel Inn & Suites,"915 George Street, Hearst, Northeastern Ontario, Ontario, Canada",64,49.68884,-83.66562
