Index,Country,City,Hotel,Address,Popularity
1,US,Chicago,Hyatt Regency Chicago,"151 East Wacker Drive, Chicago, Illinois",10744
2,US,Chicago,Hyatt Regency O'Hare Chicago,"9300 Bryn Mawr Ave, Rosemont, Illinois",5018
3,US,Chicago,Virgin Hotels Chicago,"203 N Wabash Ave, Chicago, Illinois",2881
4,US,Chicago,"LondonHouse Chicago, Curio Collection by Hilton","85 E Wacker Drive, Chicago, Illinois",3322
5,US,Chicago,Trump International Hotel & Tower Chicago,"401 N. Wabash Avenue, Chicago, Illinois",4354
6,US,Chicago,Loews Chicago O'Hare Hotel,"5300 N River Rd, Rosemont, Illinois",2502
7,US,Chicago,Swissotel Chicago,"323 East Upper Wacker Drive, Chicago, Illinois",6112
8,US,Chicago,Chicago Athletic Association Hotel,"12 S Michigan Ave, Chicago, Illinois",3072
9,US,Chicago,"InterContinental Chicago Magnificent Mile, an IHG Hotel","505 North Michigan Ave, Chicago, Illinois",6704
10,US,Chicago,Waldorf Astoria Chicago,"11 E. Walton St, Chicago, Illinois",3284
11,US,Chicago,Hyatt Lodge Oak Brook Chicago,"2815 Jorie Blvd, Oak Brook, DuPage County, Illinois",1561
12,US,Chicago,"The Langham, Chicago","330 N. Wabash Avenue, Chicago, Illinois",3514
13,US,Chicago,Hilton Chicago,"720 South Michigan Avenue, Chicago, Illinois",6686
14,US,Chicago,Thompson Chicago,"21 East Bellevue Place, Chicago, Illinois",3264
15,US,Chicago,Sofitel Chicago Magnificent Mile,"20 East Chestnut St - Downtown, Chicago, Illinois",5270
16,US,Chicago,Four Seasons Hotel Chicago,"120 E. Delaware Place, Chicago, Illinois",3967
17,US,Chicago,Fairmont Chicago Millennium Park,"200 N Columbus Dr, Chicago, Illinois",3977
18,US,Chicago,The Godfrey Hotel Chicago,"127 West Huron at LaSalle, Chicago, Illinois",3371
19,US,Chicago,"Hotel Chicago Downtown, Autograph Collection","333 N Dearborn St, Chicago, Illinois",1785
20,US,Chicago,Hyatt Centric Chicago Magnificent Mile,"633 North Saint Clair Street, Chicago, Illinois",3390
21,US,Chicago,Loews Chicago Hotel,"455 N Park Dr, Chicago, Illinois",3494
22,US,Chicago,Kimpton Hotel Monaco Chicago,"225 N Wabash Ave, Chicago, Illinois",2760
23,US,Chicago,Hampton Inn Majestic Chicago Theatre District,"22 W. Monroe, Chicago, Illinois",2733
24,US,Chicago,"Ambassador Chicago, JDV by Hyatt","1301 N State Pkwy, Chicago, Illinois",1324
25,US,Chicago,Omni Chicago Hotel,"676 N Michigan Ave, Chicago, Illinois",4256
26,US,Chicago,Silversmith Hotel Chicago Downtown,"10 S Wabash Ave, Chicago, Illinois",2557
27,US,Chicago,W Chicago - City Center,"172 West Adams Street, Chicago, Illinois",2924
28,US,Chicago,Viceroy Chicago,"1118 N State Street, Chicago, Illinois",1430
29,US,Chicago,"Staypineapple, An Iconic Hotel, The Loop Chicago","1 W Washington St, Chicago, Illinois",3013
30,US,Chicago,Best Western Chicago Downtown-River North,"125 W Ohio St, Chicago, Illinois",3195
31,US,Chicago,The Westin Michigan Avenue Chicago,"909 North Michigan Avenue, Chicago, Illinois",3069
32,US,Chicago,Hilton Garden Inn Chicago Downtown/Magnificent Mile,"10 E. Grand Avenue, Chicago, Illinois",3067
33,US,Chicago,Embassy Suites by Hilton Chicago Downtown River North,"600 North State Street, Chicago, Illinois",3274
34,US,Chicago,Embassy Suites by Hilton Chicago Downtown Magnificent Mile,"511 North Columbus Drive, Chicago, Illinois",4246
35,US,Chicago,The Peninsula Chicago,"108 E Superior St, Chicago, Illinois",2063
36,US,Chicago,Sheraton Grand Chicago,"301 East North Water Street, Chicago, Illinois",5794
37,US,Chicago,Renaissance Chicago Downtown Hotel,"1 W Wacker Dr, Chicago, Illinois",2133
38,US,Chicago,"Radisson Blu Aqua Hotel, Chicago","221 North Columbus Drive, Chicago, Illinois",6085
39,US,Chicago,The Royal Sonesta Chicago River North,"505 N. State Street, Chicago, Illinois",3185
40,US,Chicago,"Club Quarters Hotel Central Loop, Chicago","111 W Adams St, Chicago, Illinois",2903
41,US,Chicago,theWit Chicago - a DoubleTree by Hilton Hotel,"201 N. State Street, Chicago, Illinois",3453
42,US,Chicago,Homewood Suites by Hilton Chicago-Downtown,"40 East Grand Avenue, Chicago, Illinois",3446
43,US,Chicago,Chicago Marriott Downtown Magnificent Mile,"540 N Michigan Ave, Chicago, Illinois",3345
44,US,Chicago,Park Hyatt Chicago,"800 N Michigan Ave, Chicago, Illinois",2301
45,US,Chicago,Chicago South Loop Hotel,"11 West 26th Street, Chicago, Illinois",2297
46,US,Chicago,Chicago Getaway Hostel,"616 W Arlington Pl, Chicago, Illinois",1956
47,US,Chicago,Hampton Inn & Suites Chicago-Downtown,"33 West Illinois, Chicago, Illinois",3260
48,US,Chicago,SpringHill Suites Chicago O'Hare,"8101 W Higgins Rd, Rosemont, Illinois",1289
49,US,Chicago,Hotel Versey Days Inn by Wyndham Chicago,"644 W Diversey Pkwy, Chicago, Illinois",3198
50,US,Chicago,Hilton Chicago/Magnificent Mile Suites,"198 E. Delaware Place, Chicago, Illinois",2789
51,US,Chicago,Hampton Inn Chicago-Midway Airport,"6540 S. Cicero Ave., Bedford Park, Illinois",955
52,US,Chicago,W Chicago - Lakeshore,"644 N Lake Shore Dr, Chicago, Illinois",2285
53,US,Chicago,Fairfield Inn & Suites by Marriott Chicago Downtown/Magnificent Mile,"216 E Ontario St, Chicago, Illinois",2075
54,US,Chicago,Aloft Chicago O'Hare,"9700 Balmoral Ave, Rosemont, Illinois",1114
55,US,Chicago,The Westin Chicago Lombard,"70 Yorktown Shopping Ctr, Lombard, DuPage County, Illinois",1016
56,US,Chicago,The Westin Chicago River North,"320 North Dearborn Street, Chicago, Illinois",2282
57,US,Chicago,Warwick Allerton - Chicago,"701 N Michigan Avenue, Chicago, Illinois",2780
58,US,Chicago,Hilton Chicago/Oak Brook Hills Resort & Conference Center,"3500 Midwest Road, Oak Brook, DuPage County, Illinois",1708
59,US,Chicago,Hilton Chicago/Oak Lawn,"9333 South Cicero Avenue, Oak Lawn, Illinois",1074
60,US,Chicago,Gale Chicago,"201 E Delaware Pl, Chicago, Illinois",2461
61,US,Chicago,Travelodge by Wyndham Downtown Chicago,"65 E Harrison St, Chicago, Illinois",2627
62,US,Chicago,SpringHill Suites Chicago Downtown/River North,"410 North Dearborn Street, Chicago, Illinois",1601
63,US,Chicago,Hyatt Place Chicago / River North,"66 W Illinois St, Chicago, Illinois",2606
64,US,Chicago,Sheraton Suites Chicago O'Hare,"6501 Mannheim Road, Rosemont, Illinois",1124
65,US,Chicago,Hampton Inn & Suites Chicago-North Shore/Skokie,"5201 Old Orchard Road, Skokie, Illinois",1437
66,US,Chicago,La Quinta Inn & Suites by Wyndham Chicago Downtown,"One South Franklin, Chicago, Illinois",1832
67,US,Chicago,Renaissance Chicago North Shore Hotel,"933 Skokie Blvd, Northbrook, Illinois",685
68,US,Chicago,Hilton Garden Inn Chicago/Midway Airport,"6530 S Cicero Ave, Bedford Park, Illinois",653
69,US,Chicago,Hyatt Place Chicago / Downtown - The Loop,"28 N Franklin St, Chicago, Illinois",1842
70,US,Chicago,Millennium Knickerbocker Hotel Chicago,"163 East Walton Place, Chicago, Illinois",1652
71,US,Chicago,DoubleTree by Hilton Hotel Chicago O'Hare Airport - Rosemont,"5460 N River Rd, Rosemont, Illinois",1826
72,US,Chicago,Inn of Chicago Magnificent Mile,"162 E.Ohio St., Chicago, Illinois",2375
73,US,Chicago,JW Marriott Chicago,"151 W Adams St, Chicago, Illinois",1851
74,US,Chicago,DoubleTree by Hilton Hotel Chicago - North Shore Conference Center,"9599 Skokie Blvd, Skokie, Illinois",1486
75,US,Chicago,Residence Inn Chicago Downtown/River North,"410 North Dearborn Street, Chicago, Illinois",1916
76,US,Chicago,Hampton Inn Chicago-O'Hare International Airport,"3939 N. Mannheim Rd., Schiller Park, Illinois",1383
77,US,Chicago,Courtyard by Marriott Chicago Downtown/Magnificent Mile,"165 East Ontario Street, Chicago, Illinois",2035
78,US,Chicago,Chicago Marriott Suites O'Hare,"6155 N River Rd, Rosemont, Illinois",642
79,US,Chicago,Hilton Garden Inn Chicago OHare Airport,"2930 South River Road, Des Plaines, Illinois",1663
80,US,Chicago,Hotel Blake,"500 S Dearborn St, Chicago, Illinois",2428
81,US,Chicago,Embassy Suites by Hilton Chicago North Shore Deerfield,"1445 Lake Cook Rd, Deerfield, Lake County, Illinois",1464
82,US,Chicago,"The Gwen, a Luxury Collection Hotel, Michigan Avenue Chicago","521 North Rush Street, Chicago, Illinois",1359
83,US,Chicago,DoubleTree by Hilton Hotel Chicago - Oak Brook,"1909 Spring Road, Oak Brook, DuPage County, Illinois",1392
84,US,Chicago,Hilton Garden Inn Chicago / Oakbrook Terrace,"1000 Drury Lane, Oakbrook Terrace, DuPage County, Illinois",946
85,US,Chicago,Hyatt House Chicago/Schaumburg,"1251 American Ln, Schaumburg, Illinois",892
86,US,Chicago,Hyatt Place Chicago/O'Hare Airport,"6810 Mannheim Rd, Rosemont, Illinois",1036
87,US,Chicago,Hilton Garden Inn Chicago North Shore/Evanston,"1818 Maple Avenue, Evanston, Illinois",909
88,US,Chicago,Hyatt Place Chicago / Lombard / Oak Brook,"2340 South Fountain Square Drive, Lombard, DuPage County, Illinois",970
89,US,Chicago,Hampton Inn & Suites Rosemont Chicago O'Hare,"9480 W. Higgins Road, Rosemont, Illinois",936
90,US,Chicago,The Drake,"140 East Walton Place, Chicago, Illinois",4989
91,US,Chicago,Red Roof Inn Chicago - O'Hare Airport / Arlington Hts,"22 W Algonquin Rd, Arlington Heights, Illinois",593
92,US,Chicago,DoubleTree by Hilton Hotel Chicago - Alsip,"5000 West 127th Street, Alsip, Illinois",1119
93,US,Chicago,Embassy Suites by Hilton Chicago Schaumburg Woodfield,"1939 N Meacham Rd, Schaumburg, Illinois",1238
94,US,Chicago,DoubleTree by Hilton Hotel Chicago Wood Dale - Elk Grove,"1200 N. Mittel Blvd, Wood Dale, DuPage County, Illinois",821
95,US,Chicago,Hilton Chicago/Northbrook,"2855 Milwaukee Ave, Northbrook, Illinois",860
96,US,Chicago,DoubleTree Suites by Hilton Hotel & Conference Center Chicago-Downers Grove,"2111 Butterfield Rd., Downers Grove, DuPage County, Illinois",1019
97,US,Chicago,Fairfield Inn & Suites Chicago Downtown/River North,"60 W Illinois St, Chicago, Illinois",1386
98,US,Chicago,Hyatt House Chicago / West Loop - Fulton Market,"105 N May St, Chicago, Illinois",650
99,US,Chicago,Embassy Suites by Hilton Chicago O'Hare Rosemont,"5500 N River Rd, Rosemont, Illinois",590
100,US,Chicago,Pendry Chicago,"230 N Michigan Ave, Chicago, Illinois",451
101,US,Chicago,Hampton Inn & Suites Chicago Deer Park,"21660 W Lake Cook Rd, Deer Park, Lake County, Illinois",495
102,US,Chicago,Super 8 by Wyndham Chicago O'Hare Airport,"2951 Touhy Ave, Elk Grove Village, Illinois",1094
103,US,Chicago,Hyatt House Chicago / Oak Brook,"210 W 22nd St, Oak Brook, DuPage County, Illinois",558
104,US,Chicago,Hampton Inn and Suites Chicago/Lincolnshire,"1400 Milwaukee Ave, Lincolnshire, Lake County, Illinois",934
105,US,Chicago,Hyatt House Chicago/Evanston,"1515 Chicago Ave, Evanston, Illinois",680
106,US,Chicago,Homewood Suites by Hilton Chicago - Schaumburg,"815 American Ln, Schaumburg, Illinois",914
107,US,Chicago,Wyndham Garden Schaumburg Chicago Northwest,"1725 E Algonquin Rd, Schaumburg, Illinois",513
108,US,Chicago,Red Roof PLUS+ Chicago - Hoffman Estates,"2500 Hassell Rd, Hoffman Estates, Illinois",471
109,US,Chicago,"Country Inn & Suites by Radisson, Chicago O'Hare South, IL","777 E Grand Ave, Bensenville, DuPage County, Illinois",922
110,US,Chicago,Hampton Inn Chicago/Gurnee,"5550 Grand Ave., Gurnee, Lake County, Illinois",757
111,US,Chicago,The Westin Chicago Northwest,"400 Park Blvd, Itasca, DuPage County, Illinois",674
112,US,Chicago,Hampton Inn Chicago Naperville,"1087 East Diehl Rd., Naperville, DuPage County, Illinois",750
113,US,Chicago,Hotel Chicago West Loop,"1622 W Jackson Blvd, Chicago, Illinois",1305
114,US,Chicago,Hyatt Place Chicago/Naperville/Warrenville,"27576 Maecliff Drive, Warrenville, DuPage County, Illinois",657
115,US,Chicago,Embassy Suites by Hilton Chicago Naperville,"1823 Abriter Ct, Naperville, DuPage County, Illinois",768
116,US,Chicago,Chicago Marriott Schaumburg,"50 N Martingale Road, Schaumburg, Illinois",647
117,US,Chicago,Hampton Inn & Suites Chicago-Libertyville,"2061 Shell Drive, Libertyville, Lake County, Illinois",606
118,US,Chicago,Courtyard Chicago Schaumburg/Woodfield Mall,"1311 American Ln, Schaumburg, Illinois",519
119,US,Chicago,Hampton Inn Chicago Downtown/N Loop/Michigan Ave,"68 E Wacker Pl, Chicago, Illinois",1257
120,US,Chicago,Ohio House Motel,"600 North LaSalle Street, Chicago, Illinois",779
121,US,Chicago,La Quinta Inn by Wyndham Chicago O'Hare Airport,"1900 Oakton St, Elk Grove Village, Illinois",674
122,US,Chicago,Sophy-Hyde Park,"1411 E 53rd St, Chicago, Illinois",1037
123,US,Chicago,River Hotel Chicago,"75 East Wacker Drive, Chicago, Illinois",1599
124,US,Chicago,Hampton Inn Chicago Downtown / Magnificent Mile,"160 E. Huron St., Chicago, Illinois",1616
125,US,Chicago,The Westin Chicago North Shore,"601 N Milwaukee Ave, Wheeling, Illinois",548
126,US,Chicago,Sonesta ES Suites Chicago - Schaumburg,"901 East Woodfield Office Court, Schaumburg, Illinois",449
127,US,Chicago,Best Western Plus Chicago Hillside,"4400 Frontage Rd, Hillside, Illinois",540
128,US,Chicago,La Quinta Inn by Wyndham Chicago Willowbrook,"855 79th St, Willowbrook, DuPage County, Illinois",478
129,US,Chicago,DoubleTree by Hilton Hotel Chicago - Arlington Heights,"75 W. Algonquin Road, Arlington Heights, Illinois",789
130,US,Chicago,Super 8 by Wyndham Chicago Northlake O'Hare South,"2080 N Mannheim Rd, Northlake, Illinois",726
131,US,Chicago,Chicago Marriott Naperville,"1801 N Naper Blvd, Naperville, DuPage County, Illinois",511
132,US,Chicago,Hampton Inn Chicago-Carol Stream,"205 W. North Avenue, Carol Stream, DuPage County, Illinois",597
133,US,Chicago,Hilton Garden Inn Chicago/Tinley Park,"18335 Lagrange Rd, Tinley Park, Illinois",710
134,US,Chicago,Hampton Inn Chicago/Tinley Park,"18501 North Creek Drive, Tinley Park, Illinois",454
135,US,Chicago,The Allegro Royal Sonesta Hotel Chicago Loop,"171 W. Randolph Street, Chicago, Illinois",1375
136,US,Chicago,SureStay Plus Hotel By Best Western Chicago Lombard,"222 E 22nd St, Lombard, DuPage County, Illinois",457
137,US,Chicago,Hilton Chicago / Oak Brook Suites,"10 Drury Lane, Oakbrook Terrace, DuPage County, Illinois",1332
138,US,Chicago,Majestic Hotel Chicago,"528 W Brompton Ave, Chicago, Illinois",1296
139,US,Chicago,Hyatt Regency McCormick Place,"2233 S Martin Luther King Dr., Chicago, Illinois",6557
140,US,Chicago,The Talbott Hotel,"20 E Delaware Place, Chicago, Illinois",4436
141,US,Chicago,Palmer House a Hilton Hotel,"17 East Monroe Street, Chicago, Illinois",11299
142,US,Chicago,The Robey,"2018 W North Ave, Chicago, Illinois",1452
143,US,Chicago,Chicago Marriott Suites Downers Grove,"1500 Opus Pl, Downers Grove, DuPage County, Illinois",415
144,US,Chicago,Homewood Suites by Hilton Chicago-Lincolnshire,"10 Westminster Way, Lincolnshire, Lake County, Illinois",1042
145,US,Chicago,Renaissance Chicago O'Hare Suites Hotel,"8500 W Bryn Mawr Ave, Chicago, Illinois",1282
146,US,Chicago,Courtyard by Marriott Chicago O'Hare,"2950 S. River Road, Des Plaines, Illinois",425
147,US,Chicago,"The Blackstone, Autograph Collection","636 S Michigan Ave, Chicago, Illinois",2846
148,US,Chicago,"Holiday Inn Chicago-Elk Grove, an IHG Hotel","1000 Busse Road, Elk Grove Village, Illinois",481
149,US,Chicago,Crowne Plaza Chicago O'Hare Hotel & Conference Center,"5440 N River Rd, Rosemont, Illinois",1456
150,US,Chicago,"Crowne Plaza Chicago West Loop, an IHG Hotel","25 South Halsted Street, Chicago, Illinois",1372
151,US,Chicago,"The Ritz-Carlton, Chicago","160 E Pearson St, Chicago, Illinois",879
152,US,Chicago,Regal Inn Chicago- O'hare Airport Franklin Park,"2448 Mannheim Rd, Franklin Park, Illinois",561
153,US,Chicago,"Hotel EMC2, Autograph Collection","228 East Ontario Street, Chicago, Illinois",659
154,US,Chicago,Hyatt Place Chicago-South/University Medical Center,"5225 S Harper Ave, Chicago, Illinois",1196
155,US,Chicago,DoubleTree by Hilton Hotel Chicago - Schaumburg,"800 National Parkway, Schaumburg, Illinois",908
156,US,Chicago,Sonesta Chicago O'Hare Airport Rosemont,"10233 West Higgins Road, Rosemont, Illinois",414
157,US,Chicago,Wyndham Chicago O'Hare,"1450 E Touhy Ave, Des Plaines, Illinois",402
158,US,Chicago,Hyatt Place Chicago Itasca,"1150 N Arlington Heights Rd, Itasca, DuPage County, Illinois",790
159,US,Chicago,Red Roof PLUS+ Chicago Naperville,"1698 W Diehl Rd, Naperville, DuPage County, Illinois",337
160,US,Chicago,Red Roof Inn Chicago Joliet,"1750 McDonough St, Joliet, Illinois",361
161,US,Chicago,Hilton Garden Inn Chicago Downtown Riverwalk,"66 E Wacker Pl, Chicago, Illinois",1056
162,US,Chicago,Hotel Julian,"168 N Michigan Ave, Chicago, Illinois",631
163,US,Chicago,Chicago Marriott Suites Deerfield,"2 Parkway N, Deerfield, Lake County, Illinois",342
164,US,Chicago,Hampton Inn & Suites Chicago/Mt. Prospect,"1 Randhurst Village Dr, Mount Prospect, Illinois",795
165,US,Chicago,Courtyard by Marriott Chicago Downtown/River North,"30 E Hubbard St, Chicago, Illinois",1128
166,US,Chicago,Four Points by Sheraton Chicago O'Hare Airport,"10249 West Irving Park Road, Schiller Park, Illinois",1009
167,US,Chicago,"Club Quarters Hotel, Wacker at Michigan","75 East Upper Wacker Drive, Chicago, Illinois",2501
168,US,Chicago,Super 8 by Wyndham Bridgeview/Chicago Area,"7887 W 79th St, Bridgeview, Illinois",491
169,US,Chicago,"The Rose Hotel Chicago O’Hare, Tapestry Collection by Hilton","5200 Pearl Street, Rosemont, Illinois",338
170,US,Chicago,Aloft Chicago Downtown River North,"515 N Clark St, Chicago, Illinois",885
171,US,Chicago,Best Western Chicago Southland,"4375 Frontage Rd, Oak Forest, Illinois",347
172,US,Chicago,Hyatt Centric The Loop Chicago,"100 W Monroe St, Chicago, Illinois",1170
173,US,Chicago,Hilton Chicago O'Hare Airport,"10000 W O'Hare Ave, Chicago, Illinois",4485
174,US,Chicago,Hyatt Place Chicago/Schaumburg,"1851 McConnor Pkwy, Schaumburg, Illinois",291
175,US,Chicago,Baymont by Wyndham Chicago/Alsip,"12801 S Cicero Ave, Alsip, Illinois",386
176,US,Chicago,Comfort Suites Chicago O'Hare Airport,"4200 River Rd, Schiller Park, Illinois",304
177,US,Chicago,ACME Hotel Company,"15 East Ohio Street, Chicago, Illinois",4842
178,US,Chicago,Hyatt Place Chicago/Midway Airport,"6550 S Cicero Ave, Chicago, Illinois",1043
179,US,Chicago,The Congress Plaza Hotel & Convention Center,"520 South Michigan Avenue, Chicago, Illinois",3485
180,US,Chicago,Residence Inn by Marriott Chicago O'Hare,"7101 Chestnut Street, Rosemont, Illinois",445
181,US,Chicago,Sonesta Simply Suites Chicago O'Hare Airport,"4021 N. Mannheim Rd., Schiller Park, Illinois",424
182,US,Chicago,"Holiday Inn Express Chicago - Magnificent Mile, an IHG Hotel","640 N Wabash Ave, Chicago, Illinois",1245
183,US,Chicago,Holiday Inn Chicago Oakbrook,"17 W. 350 22nd Street, Oakbrook Terrace, DuPage County, Illinois",402
184,US,Chicago,Chicago Marriott Oak Brook,"1401 W 22nd St, Oak Brook, DuPage County, Illinois",402
185,US,Chicago,SpringHill Suites Chicago Elmhurst / Oakbrook Area,"410 W Lake St, Elmhurst, DuPage County, Illinois",373
186,US,Chicago,Quality Inn Schaumburg - Chicago,"600 N Martingale Rd, Schaumburg, Illinois",384
187,US,Chicago,"Crowne Plaza Chicago-Northbrook, an IHG Hotel","2875 North Milwaukee Avenue, Northbrook, Illinois",344
188,US,Chicago,Eurostars Magnificent Mile,"660 N State St, Chicago, Illinois",5235
189,US,Chicago,Sonesta ES Suites Chicago - Lombard,"2001 South Highland Avenue, Lombard, DuPage County, Illinois",309
190,US,Chicago,Baymont by Wyndham Chicago/Calumet City,"510 E End Ave, Calumet City, Illinois",360
191,US,Chicago,SpringHill Suites Chicago Schaumburg/Woodfield Mall,"1550 McConnor Parkway, Schaumburg, Illinois",373
192,US,Chicago,Hampton Inn & Suites Chicago/St. Charles,"2875 Foxfield Road, Saint Charles, Illinois",592
193,US,Chicago,Hilton Rosemont/Chicago O'Hare,"5550 N. River Road, Rosemont, Illinois",1544
194,US,Chicago,Sonesta ES Suites Chicago Waukegan Gurnee,"1440 S White Oak Dr, Waukegan, Lake County, Illinois",269
195,US,Chicago,Home2 Suites by Hilton Chicago Schaumburg,"1300 East American Lane, Schaumburg, Illinois",292
196,US,Chicago,Super 8 by Wyndham Chicago/Rosemont/O'Hare/SE,"3160 River Rd, River Grove, Illinois",304
197,US,Chicago,Best Western Plus Hawthorne Terrace Hotel,"3434 N Broadway St, Chicago, Illinois",1423
198,US,Chicago,Courtyard by Marriott Chicago Glenview/Northbrook,"1801 Milwaukee Avenue, Glenview, Illinois",495
199,US,Chicago,Fairfield Inn & Suites Chicago Naperville,"1820 Abriter Ct, Naperville, DuPage County, Illinois",246
200,US,Chicago,Residence Inn Chicago Schaumburg/Woodfield Mall,"1610 McConnor Pkwy, Schaumburg, Illinois",226
201,US,Chicago,Hampton Inn & Suites Chicago-Burr Ridge,"100 Harvester Drive, Burr Ridge, Illinois",268
202,US,Chicago,Chicago Marriott Southwest at Burr Ridge,"1200 Burr Ridge Pkwy, Burr Ridge, Illinois",297
203,US,Chicago,The Hoxton Chicago,"200 N Green St, Chicago, Illinois",631
204,US,Chicago,"Holiday Inn Chicago - Schaumburg, an IHG Hotel","1998 N. Roselle Road, Schaumburg, Illinois",453
205,US,Chicago,Courtyard by Marriott Chicago Waukegan/Gurnee,"3800 Northpoint Blvd, Waukegan, Lake County, Illinois",435
206,US,Chicago,Homewood Suites by Hilton Chicago Downtown/Magnificent Mile,"152 E Huron St, Chicago, Illinois",1035
207,US,Chicago,Residence Inn by Marriott Chicago Downtown/Loop,"11 S La Salle St, Chicago, Illinois",654
208,US,Chicago,Red Roof PLUS+ Chicago - Northbrook / Deerfield,"340 S Waukegan Rd, Deerfield, Lake County, Illinois",250
209,US,Chicago,Courtyard Chicago Arlington Heights/South,"100 West Algonquin Road, Arlington Heights, Illinois",247
210,US,Chicago,Embassy Suites by Hilton Chicago Lombard Oak Brook,"707 E Butterfield Rd, Lombard, DuPage County, Illinois",709
211,US,Chicago,"Holiday Inn & Suites Chicago North Shore (Skokie), an IHG Hotel","5300 West Touhy Ave, Skokie, Illinois",637
212,US,Chicago,Kinzie Hotel,"20 W Kinzie St, Chicago, Illinois",3045
213,US,Chicago,La Quinta Inn & Suites by Wyndham Chicago Gurnee,"5688 Northridge Dr, Gurnee, Lake County, Illinois",626
214,US,Chicago,Le Meridien Chicago - Oakbrook Center,"2100 Spring Rd, Oak Brook, DuPage County, Illinois",371
215,US,Chicago,Sheraton Suites Chicago Elk Grove,"121 Northwest Point Boulevard, Elk Grove Village, Illinois",285
216,US,Chicago,SpringHill Suites Chicago Naperville/Warrenville,"4305 Weaver Parkway, Warrenville, DuPage County, Illinois",298
217,US,Chicago,Best Western Chicago - Downers Grove,"3010 Finley Rd, Downers Grove, DuPage County, Illinois",240
218,US,Chicago,Residence Inn by Marriott Chicago Midway Airport,"6638 S Cicero Ave, Bedford Park, Illinois",309
219,US,Chicago,Chicago Marriott Northwest,"4800 Hoffman Blvd, Hoffman Estates, Illinois",348
220,US,Chicago,Residence Inn Chicago Wilmette/Skokie,"3205 Old Glenview Rd, Wilmette, Illinois",345
221,US,Chicago,"Holiday Inn Express Chicago-Downers Grove, an IHG Hotel","3031 Finley Rd, Downers Grove, DuPage County, Illinois",289
222,US,Chicago,Kimpton Gray Hotel,"122 W. Monroe Street, Chicago, Illinois",849
223,US,Chicago,"Hotel Lincoln, JdV by Hyatt","1816 North Clark Street, Chicago, Illinois",2671
224,US,Chicago,SpringHill Suites Chicago Southwest at Burr Ridge/Hinsdale,"90 North Frontage Road, Burr Ridge, Illinois",352
225,US,Chicago,"Staybridge Suites Chicago -- Glenview, an IHG hotel","2600 Lehigh Avenue, Glenview, Illinois",246
226,US,Chicago,Hotel Felix,"111 W Huron St, Chicago, Illinois",1855
227,US,Chicago,AC Hotel by Marriott Chicago Downtown,"630 N Rush St, Chicago, Illinois",948
228,US,Chicago,Hampton Inn Chicago Downtown West Loop,"116 N Jefferson St, Chicago, Illinois",872
229,US,Chicago,Sonesta ES Suites Chicago Downtown Magnificent Mile - Medical,"201 East Walton Place, Chicago, Illinois",908
230,US,Chicago,Courtyard by Marriott Chicago Oakbrook Terrace,"6 Trans Am Plaza Drive, Oakbrook Terrace, DuPage County, Illinois",279
231,US,Chicago,The Whitehall Hotel,"105 E Delaware Pl, Chicago, Illinois",2357
232,US,Chicago,"EVEN Hotel Chicago-Tinley Park-Conv Ctr, an IHG Hotel","18501 Convention Center Drive, Tinley Park, Illinois",227
233,US,Chicago,SpringHill Suites by Marriott Chicago Lincolnshire,"300 Marriott Dr, Lincolnshire, Lake County, Illinois",211
234,US,Chicago,"Holiday Inn Chicago North-Evanston, an IHG Hotel","1501 Sherman Ave, Evanston, Illinois",212
235,US,Chicago,Red Roof PLUS+ Chicago - Willowbrook,"7535 Kingery Hwy, Willowbrook, DuPage County, Illinois",239
236,US,Chicago,Residence Inn by Marriott Chicago Oak Brook,"790 Jorie Blvd, Oak Brook, DuPage County, Illinois",204
237,US,Chicago,Holiday Inn Chicago Matteson Conf Ctr,"500 Holiday Plaza Dr, Matteson, Illinois",195
238,US,Chicago,Courtyard Chicago Wood Dale/Itasca,"900 N Wood Dale Rd, Wood Dale, DuPage County, Illinois",203
239,US,Chicago,Courtyard Chicago Elmhurst/Oakbrook Area,"370 N IL Route 83, Elmhurst, DuPage County, Illinois",328
240,US,Chicago,Best Western Plus Oakbrook Inn,"669 Pasquinelli Dr, Westmont, DuPage County, Illinois",622
241,US,Chicago,Renaissance Chicago Glenview Suites Hotel,"1400 Milwaukee Avenue, Glenview, Illinois",214
242,US,Chicago,Hampton Inn & Suites Chicago Southland-Matteson,"20920 Matteson Ave, Matteson, Illinois",541
243,US,Chicago,Hampton Inn Chicago North-Loyola Station,"1209 W Albion Ave, Chicago, Illinois",690
244,US,Chicago,Hampton Inn & Suites Chicago Aurora,"2423 Bushwood Dr, Aurora, Illinois",900
245,US,Chicago,Freehand Chicago,"19 E Ohio St, Chicago, Illinois",941
246,US,Chicago,Marriott Chicago O’Hare,"8535 West Higgins Road, Chicago, Illinois",770
247,US,Chicago,"Holiday Inn Express & Suites Chicago West-O'Hare Arpt Area, an IHG Hotel","200 S Mannheim Rd, Hillside, Illinois",281
248,US,Chicago,Sheraton Chicago Northbrook Hotel,"1110 Willow Rd, Northbrook, Illinois",304
249,US,Chicago,Super 8 by Wyndham Joliet I-55 N/Chicago,"3401 Mall Loop Dr, Joliet, Illinois",292
250,US,Chicago,Residence Inn by Marriott Chicago Bloomingdale,"295 Knollwood Dr, Bloomingdale, DuPage County, Illinois",178
251,US,Chicago,"Holiday Inn & Suites Chicago Northwest - Elgin, an IHG Hotel","495 Airport Road, Elgin, Illinois",247
252,US,Chicago,Central Loop Hotel,"111 W Adams St, Chicago, Illinois",893
253,US,Chicago,Hyatt Place Chicago / Hoffman Estates,"2750 Greenspoint Parkway, Hoffman Estates, Illinois",660
254,US,Chicago,"Holiday Inn & Suites Chicago-Downtown, an IHG Hotel","506 West Harrison Street, Chicago, Illinois",855
255,US,Chicago,Fairfield Inn & Suites by Marriott Chicago Schaumburg,"700 National Parkway, Schaumburg, Illinois",194
256,US,Chicago,"Hotel Indigo Chicago-Vernon Hills, an IHG Hotel","450 North Milwaukee Avenue, Vernon Hills, Lake County, Illinois",238
257,US,Chicago,Sonesta Simply Suites Chicago Waukegan,"1151 S Waukegan Rd, Waukegan, Lake County, Illinois",123
258,US,Chicago,"Holiday Inn Chicago O'Hare Area, an IHG Hotel","5615 N. Cumberland Avenue, Chicago, Illinois",791
259,US,Chicago,Carlton Inn Midway,"4944 S Archer Ave, Chicago, Illinois",908
260,US,Chicago,Ivy Hotel,"233 E Ontario St, Chicago, Illinois",1116
261,US,Chicago,TownePlace Suites Chicago Naperville,"1843 West Diehl Road, Naperville, DuPage County, Illinois",84
262,US,Chicago,Courtyard by Marriott Chicago Bloomingdale,"275 Knollwood Drive, Bloomingdale, DuPage County, Illinois",115
263,US,Chicago,Extended Stay America - Chicago - Naperville - East,"1827 Centre Point Cir, Naperville, DuPage County, Illinois",157
264,US,Chicago,TownePlace Suites by Marriott Chicago Lombard,"455 E 22nd St, Lombard, DuPage County, Illinois",151
265,US,Chicago,"Holiday Inn Express & Suites Chicago West-Roselle, an IHG Hotel","1490 W. Lake Street, Roselle, DuPage County, Illinois",132
266,US,Chicago,Residence Inn Chicago Naperville/Warrenville,"28500 Bella Vista Parkway, Warrenville, DuPage County, Illinois",175
267,US,Chicago,"Staybridge Suites Chicago-Oakbrook Terrace, an IHG Hotel","200 Royce Blvd., Oakbrook Terrace, DuPage County, Illinois",192
268,US,Chicago,Hampton Inn Chicago Elgin / I-90,"405 Airport Rd., Elgin, Illinois",536
269,US,Chicago,Super 8 by Wyndham Morton Grove/Chicago,"9110 Waukegan Rd, Morton Grove, Illinois",302
270,US,Chicago,Courtyard by Marriott Chicago Naperville,"1155 E Diehl Rd, Naperville, DuPage County, Illinois",195
271,US,Chicago,SpringHill Suites Chicago Waukegan/Gurnee,"4101 Fountain Square Pl, Waukegan, Lake County, Illinois",469
272,US,Chicago,Sonesta Simply Suites Chicago Libertyville,"1100 N. US Route 45, Libertyville, Lake County, Illinois",134
273,US,Chicago,Holiday Inn Express & Suites Chicago - Deerfield / Lincolnshire,"2600 Lake Cook Road, Riverwoods, Lake County, Illinois",217
274,US,Chicago,Ramada Plaza by Wyndham Chicago North Shore,"1090 S Milwaukee Ave, Wheeling, Illinois",200
275,US,Chicago,Best Western Grant Park Hotel,"1100 S Michigan Ave, Chicago, Illinois",1757
276,US,Chicago,Holiday Inn Club Vacations Fox River Resort at Sheridan,"2558 N. 3653 Road, Sheridan, Illinois",533
277,US,Chicago,SpringHill Suites by Marriott Chicago Bolingbrook,"125 Remington Blvd, Bolingbrook, DuPage County, Illinois",163
278,US,Chicago,"Staybridge Suites Chicago - Lincolnshire, an IHG Hotel","100 Barclay Boulevard, Lincolnshire, Lake County, Illinois",198
279,US,Chicago,Best Western At O'Hare,"10300 W Higgins Rd, Rosemont, Illinois",692
280,US,Chicago,Extended Stay America - Chicago - Lansing,"2520 173rd St, Lansing, Illinois",193
281,US,Chicago,Extended Stay America Chicago - Westmont - Oak Brook,"855 Pasquinelli Dr, Westmont, DuPage County, Illinois",177
282,US,Chicago,Best Western Plus Chicagoland - Countryside,"6251 Joliet Rd, Countryside, Illinois",438
283,US,Chicago,"Holiday Inn Express & Suites Chicago West - St Charles, an IHG Hotel","155 38th Avenue, Saint Charles, Illinois",187
284,US,Chicago,Hostelling International Chicago,"24 E Congress Pkwy, Chicago, Illinois",899
285,US,Chicago,Eaglewood Resort & Spa,"1401 Nordic Rd, Itasca, DuPage County, Illinois",734
286,US,Chicago,Extended Stay America - Chicago - Itasca,"1181 N Rohlwing Rd, Itasca, DuPage County, Illinois",101
287,US,Chicago,Best Western O'Hare/Elk Grove Hotel,"100 Busse Rd, Elk Grove Village, Illinois",453
288,US,Chicago,Courtyard Chicago St. Charles,"700 Courtyard Drive, Saint Charles, Illinois",169
289,US,Chicago,Courtyard by Marriott Chicago Lincolnshire,"505 Milwaukee Avenue, Lincolnshire, Lake County, Illinois",153
290,US,Chicago,Hampton Inn & Suites Chicago/Waukegan,"438 Lakehurst Rd, Waukegan, Lake County, Illinois",156
291,US,Chicago,"Country Inn & Suites by Radisson, Elk Grove Village/Itasca","1160 W Devon Ave, Elk Grove Village, Illinois",491
292,US,Chicago,Extended Stay America - Chicago - Lombard - Oakbrook,"2701 Technology Dr, Lombard, DuPage County, Illinois",153
293,US,Chicago,Residence Inn Chicago Lake Forest/Mettawa,"26325 N Riverwoods Blvd, Mettawa, Lake County, Illinois",269
294,US,Chicago,Wyndham Garden Elk Grove Village/O'Hare,"2550 Landmeier Rd, Elk Grove Village, Illinois",465
295,US,Chicago,Hampton Inn & Suites Addison,"1685 West Lake Street, Addison, DuPage County, Illinois",541
296,US,Chicago,The Carleton of Oak Park,"1110 Pleasant St, Oak Park, Illinois",468
297,US,Chicago,Hyatt Regency Deerfield,"1750 Lake Cook Rd, Deerfield, Lake County, Illinois",1001
298,US,Chicago,Fairfield Inn & Suites by Marriott Chicago Lombard,"645 W North Ave, Lombard, DuPage County, Illinois",188
299,US,Chicago,Residence Inn By Marriott Chicago Deerfield,"530 Lake Cook Rd, Deerfield, Lake County, Illinois",158
300,US,Chicago,HomeTowne Studios by Red Roof Chicago - Waukegan,"1177 S Northpoint Blvd, Waukegan, Lake County, Illinois",84
301,US,Chicago,Best Western Des Plaines Inn,"1231 Lee St, Des Plaines, Illinois",438
302,US,Chicago,Hyatt Rosemont,"6350 N River Rd, Rosemont, Illinois",840
303,US,Chicago,Lincolnshire Marriott Resort,"10 Marriott Dr, Lincolnshire, Lake County, Illinois",559
304,US,Chicago,Extended Stay America - Chicago - Woodfield Mall,"1200 American Ln, Schaumburg, Illinois",98
305,US,Chicago,"Holiday Inn & Suites Chicago-Carol Stream (Wheaton), an IHG Hotel","150 S Gary Ave, Carol Stream, DuPage County, Illinois",186
306,US,Chicago,"Motel 6 Elk Grove Village, IL - O'Hare","2881 Touhy Ave, Elk Grove Village, Illinois",494
307,US,Chicago,Sonesta Select Chicago Elgin,"2175 Marriott Drive, West Dundee, Illinois",125
308,US,Chicago,The Chicago Hotel Collection River North,"312 W Chestnut St, Chicago, Illinois",464
309,US,Chicago,Motel 6 Chicago - Elk Grove,"1601 Oakton St, Elk Grove Village, Illinois",111
310,US,Chicago,Sonesta Simply Suites Chicago Naperville,"27 W. 300 Warrenville Rd., Warrenville, DuPage County, Illinois",96
311,US,Chicago,Extended Stay America - Chicago O’Hare - Allstate Arena,"1207 E Touhy Ave, Des Plaines, Illinois",154
312,US,Chicago,ESTIA Hotel & Suites Glenview,"4514 W Lake Ave, Glenview, Illinois",430
313,US,Chicago,Chicago Club Inn Suites,"630 Pasquinelli Dr, Westmont, DuPage County, Illinois",102
314,US,Chicago,Fairfield Inn & Suites Chicago Tinley Park,"18511 N Creek Dr, Tinley Park, Illinois",122
315,US,Chicago,Extended Stay America - Chicago - Schaumburg - I-90,"2000 N Roselle Rd, Schaumburg, Illinois",91
316,US,Chicago,Extended Stay America - Chicago - Elmhurst - O'Hare,"550 W Grand Ave, Elmhurst, DuPage County, Illinois",128
317,US,Chicago,Motel 6 Chicago O'Hare - Schiller Park,"9408 Lawrence Ave, Schiller Park, Illinois",145
318,US,Chicago,Extended Stay America - Chicago - Naperville - West,"1575 Bond St, Naperville, DuPage County, Illinois",112
319,US,Chicago,Wingate by Wyndham Arlington Heights,"2112 S Arlington Heights Rd, Arlington Heights, Illinois",539
320,US,Chicago,Motel 6 Chicago North- Glenview,"1535 Milwaukee Ave, Glenview, Illinois",68
321,US,Chicago,"Holiday Inn Chicago SW-Countryside Confctr, an IHG Hotel","6201 Joliet Rd, Countryside, Illinois",97
322,US,Chicago,"Holiday Inn Express & Suites Chicago-Libertyville, an IHG Hotel","77 West Buckley Road, Libertyville, Lake County, Illinois",146
323,US,Chicago,TownePlace Suites Chicago Schaumburg,"700 National Pkwy, Schaumburg, Illinois",111
324,US,Chicago,Best Western Plus Hyde Park Chicago Hotel,"4900 S Lakeshore Dr, Chicago, Illinois",532
325,US,Chicago,Courtyard by Marriott Chicago Deerfield,"800 Lake Cook Rd, Deerfield, Lake County, Illinois",95
326,US,Chicago,"Holiday Inn Chicago NW Crystal Lake Conv Ctr, an IHG Hotel","800 South Illinois Route 31, Crystal Lake, Illinois",362
327,US,Chicago,Chicago Marriott Midway,"6520 S Cicero Ave, Chicago, Illinois",483
328,US,Chicago,Hampton Inn & Suites Bridgeview Chicago,"7010 S Harlem Ave, Bridgeview, Illinois",117
329,US,Chicago,Travelodge by Wyndham Matteson,"950 Lake Superior Dr, Matteson, Illinois",525
330,US,Chicago,Fairfield Inn & Suites Chicago Naperville/Aurora,"1847 W Diehl Rd, Naperville, DuPage County, Illinois",105
331,US,Chicago,Hilton Garden Inn Schaumburg,"1191 Woodfield Road, Schaumburg, Illinois",1473
332,US,Chicago,Extended Stay America Chicago - Hillside,"4575 Frontage Rd, Hillside, Illinois",110
333,US,Chicago,Le Meridien Essex Chicago,"800 South Michigan Avenue, Chicago, Illinois",417
334,US,Chicago,Extended Stay America - Chicago - Midway,"7524 S State Rd, Bedford Park, Illinois",144
335,US,Chicago,Extended Stay America - Chicago - Skokie,"5211 Old Orchard Rd, Skokie, Illinois",154
336,US,Chicago,Days Inn & Suites by Wyndham Arlington Heights,"1415 W Dundee Rd, Arlington Heights, Illinois",454
337,US,Chicago,Super 8 by Wyndham Chicago IL,"7300 N Sheridan Rd, Chicago, Illinois",472
338,US,Chicago,Extended Stay America Chicago - Schaumburg - Convention Center,"51 E State Pkwy, Schaumburg, Illinois",78
339,US,Chicago,Hyatt Regency Lisle near Naperville,"1400 Corporetum Dr, Lisle, DuPage County, Illinois",1416
340,US,Chicago,Hotel Arista,"2139 City Gate Ln, Naperville, DuPage County, Illinois",590
341,US,Chicago,Courtyard by Marriott Chicago Midway Airport,"6610 South Cicero Avenue, Chicago, Illinois",244
342,US,Chicago,Best Western Naperville Inn,"1617 Naperville Wheaton Rd, Naperville, DuPage County, Illinois",705
343,US,Chicago,"Holiday Inn Express & Suites Chicago North-Waukegan-Gurnee, an IHG Hotel","611 Lakehurst Rd, Waukegan, Lake County, Illinois",179
344,US,Chicago,"Crowne Plaza Chicago SW - Burr Ridge, An IHG Hotel","300 South Frontage Road, Burr Ridge, Illinois",66
345,US,Chicago,Villa D'Citta,"2230 N Halsted St, Chicago, Illinois",443
346,US,Chicago,"Country Inn & Suites by Radisson, Schaumburg, IL","1401 N Roselle Rd, Schaumburg, Illinois",927
347,US,Chicago,Ramada by Wyndham Waukegan/Great Lakes,"200 N Green Bay Rd, Waukegan, Lake County, Illinois",1401
348,US,Chicago,Extended Stay America - Chicago - Buffalo Grove - Deerfield,"1525 Busch Pkwy, Buffalo Grove, Lake County, Illinois",95
349,US,Chicago,Goldmoor Inn,"9001 W Sand Hill Rd, Galena, Illinois",1003
350,US,Chicago,DoubleTree by Hilton Lisle Naperville,"3003 Corporate West Drive, Lisle, DuPage County, Illinois",993
351,US,Chicago,Goldberry Woods Bed & Breakfast Cottages,"9902 Community Hall Rd, Union Pier, Berrien County, Michigan",445
352,US,Chicago,Red Roof Inn Chicago - Lansing,"2450 173rd St, Lansing, Illinois",503
353,US,Chicago,Hyatt House Chicago/Naperville/Warrenville,"27554 Maecliff Drive, Warrenville, DuPage County, Illinois",660
354,US,Chicago,"Holiday Inn Express & Suites Chicago North Shore - Niles, an IHG Hotel","7247 North Waukegan Road, Niles, Illinois",92
355,US,Chicago,The Herrington Inn & Spa,"15 S River Ln, Geneva, Illinois",501
356,US,Chicago,Extended Stay America - Chicago - Downers Grove,"3150 Finley Rd, Downers Grove, DuPage County, Illinois",112
357,US,Chicago,Hampton Inn & Suites Bolingbrook,"165 Remington Blvd., Bolingbrook, DuPage County, Illinois",517
358,US,Chicago,Days Inn & Suites by Wyndham Schaumburg,"1730 E Higgins Rd, Schaumburg, Illinois",671
359,US,Chicago,Fairfield Inn & Suites Chicago Midway Airport,"6630 S Cicero Ave, Chicago, Illinois",218
360,US,Chicago,The Inn At Union Pier,"9708 Berrien St, Union Pier, Berrien County, Michigan",293
361,US,Chicago,Best Western Plus O'Hare International South Hotel,"3001 N Mannheim Rd, Franklin Park, Illinois",434
362,US,Chicago,Deer Path Inn,"255 E Illinois Rd, Lake Forest, Lake County, Illinois",226
363,US,Chicago,Extended Stay America - Chicago - Gurnee,"5724 Northridge Dr, Gurnee, Lake County, Illinois",146
364,US,Chicago,Days Inn & Suites by Wyndham Harvey / Chicago Southland,"16900 Halsted St, Harvey, Illinois",345
365,US,Chicago,Red Roof Inn Morton Grove,"9424 Waukegan Rd, Morton Grove, Illinois",294
366,US,Chicago,The Guesthouse Hotel,"4872 N Clark St, Chicago, Illinois",430
367,US,Chicago,Wingate by Wyndham Gurnee,"6090 Gurnee Mills Cir E, Gurnee, Lake County, Illinois",283
368,US,Chicago,Comfort Suites Oakbrook Terrace,"17W445 Roosevelt Rd, Oakbrook Terrace, DuPage County, Illinois",324
369,US,Chicago,Hampton Inn & Suites Chicago Schaumburg,"891 Plaza Drive, Schaumburg, Illinois",466
370,US,Chicago,Harvey House Bed and Breakfast,"107 S Scoville Ave, Oak Park, Illinois",285
371,US,Chicago,Extended Stay America - Chicago - Lisle,"445 Warrenville Rd, Lisle, DuPage County, Illinois",120
372,US,Chicago,Extended Stay America - Chicago - Vernon Hills - Lake Forest,"215 N Milwaukee Ave, Vernon Hills, Lake County, Illinois",72
373,US,Chicago,La Quinta Inn & Suites by Wyndham Chicago Tinley Park,"7255 183rd St, Tinley Park, Illinois",574
374,US,Chicago,Motel 6 Chicago North Central - Arlington Heights,"441 W Algonquin Rd, Arlington Heights, Illinois",68
375,US,Chicago,Motel 6 Chicago West - Villa Park,"10 W Roosevelt Rd, Villa Park, DuPage County, Illinois",58
376,US,Chicago,Chicago Northwest KOA,"8404 S Union Rd, Union, Illinois",101
377,US,Chicago,Courtyard by Marriott Chicago Highland Park/Northbrook,"1505 Lake Cook Rd, Highland Park, Lake County, Illinois",149
378,US,Chicago,"Holiday Inn Express & Suites Aurora - Naperville, an IHG Hotel","111 North Broadway Avenue, Aurora, Illinois",309
379,US,Chicago,"Motel 6 Chicago, IL - Joliet - I-55","3551 Mall Loop Dr, Joliet, Illinois",83
380,US,Chicago,Extended Stay America Chicago - Burr Ridge,"15 West 122nd South Frontage Road, Burr Ridge, Illinois",101
381,US,Chicago,DoubleTree by Hilton Chicago Midway Airport,"6624 S. Cicero Ave., Chicago, Illinois",352
382,US,Chicago,"Country Inn & Suites by Radisson, Hoffman Estates, IL","2280 Barrington Rd, Hoffman Estates, Illinois",529
383,US,Chicago,Jellystone Park™ of Chicago,"8574 Millbrook Road, Millbrook, Illinois",59
384,US,Chicago,"Clarion Inn Elmhurst - Oak Brook Near I-88, I-290, I-294","933 S Riverside Dr, Elmhurst, DuPage County, Illinois",275
385,US,Chicago,Radisson Hotel Schaumburg,"1550 N Roselle Rd, Schaumburg, Illinois",350
386,US,Chicago,Extended Stay America - Chicago - Rolling Meadows,"2400 Golf Rd, Rolling Meadows, Illinois",77
387,US,Chicago,"Holiday Inn Express Chicago NW - Arlington Heights, an IHG Hotel","2111 S Arlington Heights Rd, Arlington Heights, Illinois",100
388,US,Chicago,Marriott Marquis Chicago,"2121 South Prairie Avenue, Chicago, Illinois",423
389,US,Chicago,Extended Stay America - Chicago - Lombard - Yorktown Center,"260 E 22nd St, Lombard, DuPage County, Illinois",97
390,US,Chicago,Extended Stay America - Chicago - Vernon Hills - Lincolnshire,"675 Woodlands Pkwy, Vernon Hills, Lake County, Illinois",113
391,US,Chicago,Extended Stay America - Chicago - Romeoville - Bollingbrook,"1225 Lakeview Dr, Romeoville, Illinois",62
392,US,Chicago,Quality Inn & Suites St Charles - West Chicago,"1600 E Main St, Saint Charles, Illinois",144
393,US,Chicago,Cambria Hotel Chicago Loop - Theatre District,"32 W Randolph St, Chicago, Illinois",364
394,US,Chicago,"Hotel Zachary, Chicago, a Tribute Portfolio Hotel","3630 North Clark Street, Chicago, Illinois",356
395,US,Chicago,DoubleTree by Hilton Hotel Libertyville - Mundelein,"510 East IL Route 83, Mundelein, Lake County, Illinois",808
396,US,Chicago,Ray's Bucktown Bed and Breakfast,"2144 N Leavitt St, Chicago, Illinois",404
397,US,Chicago,Fairfield Inn & Suites Chicago St. Charles,"2096 Bricher Rd, Saint Charles, Illinois",269
398,US,Chicago,"Extended Stay America - Chicago - Elgin - West Dundee, IL","2185 Marriott Dr, West Dundee, Illinois",82
399,US,Chicago,"Candlewood Suites Elgin NW-Chicago, an IHG Hotel","1780 Capital Street, Elgin, Illinois",68
400,US,Chicago,Chicago Marriott at Medical District/UIC,"625 South Ashland Avenue at Harrison Street, Chicago, Illinois",367
401,US,Chicago,Willows Hotel Chicago,"555 W Surf St, Chicago, Illinois",311
402,US,Chicago,WoodSpring Suites Chicago Darien,"951 N Frontage Rd, Darien, DuPage County, Illinois",43
403,US,Chicago,Wingate by Wyndham Schaumburg,"50 Remington Rd, Schaumburg, Illinois",819
404,US,Chicago,Hampton Inn & Suites Hoffman Estates,"2825 Greenspoint Parkway, Hoffman Estates, Illinois",785
405,US,Chicago,"Holiday Inn Express & Suites Chicago-Algonquin, an IHG Hotel","2595 Bunker Hill Dr, Algonquin, Illinois",136
406,US,Chicago,"Holiday Inn Chicago North - Gurnee, an IHG Hotel","6161 West Grand Avenue, Gurnee, Lake County, Illinois",325
407,US,Chicago,"Holiday Inn Express & Suites Chicago South Lansing, an IHG Hotel","2323 172nd St, Lansing, Illinois",104
408,US,Chicago,Wicker Park Inn,"1331 N Wicker Park Ave, Chicago, Illinois",363
409,US,Chicago,Baymont by Wyndham Glenview,"1625 Milwaukee Ave, Glenview, Illinois",324
410,US,Chicago,White Pines Inn,"6712 W Pines Rd, Mount Morris, Illinois",244
411,US,Chicago,"Holiday Inn Express Rolling Mdws-Schaumburg Area, an IHG Hotel","3477 Algonquin Road, Rolling Meadows, Illinois",213
412,US,Chicago,"Holiday Inn Express & Suites New Buffalo, MI, an IHG Hotel","11500 Holiday Drive, New Buffalo, Berrien County, Michigan",264
413,US,Chicago,Gateway Inn,"4657 W 95th St, Oak Lawn, Illinois",209
414,US,Chicago,Illinois Beach Hotel,"100 Lake Front Dr, Zion, Lake County, Illinois",240
415,US,Chicago,Claridge House Chicago,"1244 N Dearborn Pkwy, Chicago, Illinois",292
416,US,Chicago,DoubleTree by Hilton Hotel Chicago - Magnificent Mile,"300 E. Ohio Street, Chicago, Illinois",310
417,US,Chicago,Write Inn,"211 N Oak Park Ave, Oak Park, Illinois",206
418,US,Chicago,The Sono Chicago,"1428 N Cleveland Ave, Chicago, Illinois",280
419,US,Chicago,Super 8 by Wyndham Mundelein / Libertyville Area,"1950 S Lake St, Mundelein, Lake County, Illinois",319
420,US,Chicago,Hampton Inn Chicago McCormick Place,"123 East Cermak, Chicago, Illinois",280
421,US,Chicago,Extended Stay America - Chicago - O'Hare,"1201 E Touhy Ave, Des Plaines, Illinois",122
422,US,Chicago,Graduate Evanston,"1625 Hinman Ave, Evanston, Illinois",204
423,US,Chicago,Days Inn by Wyndham Great Lakes - N. Chicago,"3000 N Skokie Hwy, North Chicago, Lake County, Illinois",655
424,US,Chicago,City Suites Hotel Chicago,"933 West Belmont Ave, Northalsted, Chicago, Illinois",276
425,US,Chicago,Fairfield Inn & Suites New Buffalo,"11400 Holiday Dr, New Buffalo, Berrien County, Michigan",360
426,US,Chicago,"Crowne Plaza Lombard Downers Grove, an IHG Hotel","1250 Roosevelt Rd, Glen Ellyn, DuPage County, Illinois",308
427,US,Chicago,Quality Inn O'Hare Airport,"3801 North Mannheim Rd, Schiller Park, Illinois",450
428,US,Chicago,Victoria Inn Hotel & Convention Centre,"555 Arthur St W, Thunder Bay, Thunder Bay District, Ontario, Canada",338
429,US,Chicago,Extended Stay America - Chicago - Darien,"2345 Sokol, Darien, DuPage County, Illinois",72
430,US,Chicago,Hotel Saint Clair- Magnificent Mile,"162 E Ontario St, Chicago, Illinois",324
431,US,Chicago,"Holiday Inn Express & Suites Chicago-Midway Airport, an IHG Hotel","6500 South Cicero Avenue, Chicago, Illinois",233
432,US,Chicago,Navy Lodge Great Lakes,"2500 Meridian Drive, North Chicago, Lake County, Illinois",218
433,US,Chicago,Wrigley Hostel,"3514 N Sheffield Ave, Chicago, Illinois",244
434,US,Chicago,Aloft Chicago Mag Mile,"243 E Ontario St, Chicago, Illinois",249
435,US,Chicago,Residence Inn by Marriott Chicago Bolingbrook,"180 Remington Boulevard, Bolingbrook, DuPage County, Illinois",34
436,US,Chicago,Homewood Suites by Hilton Chicago Downtown South Loop,"59 E. 11th Street, Chicago, Illinois",235
437,US,Chicago,Home2 Suites by Hilton Chicago River North,"110 West Huron St, Chicago, Illinois",273
438,US,Chicago,Hyatt Place Chicago – Medical / University District,"1835 W Harrison St, Chicago, Illinois",215
439,US,Chicago,Magnuson Hotel Bourbonnais,"60 Ken Hayes Dr, Bourbonnais, Illinois",258
440,US,Chicago,Inn at Lincoln Park,"601 W Diversey Pkwy, Chicago, Illinois",261
441,US,Chicago,Chicago Guest House,"3715 N Lakewood Ave, Chicago, Illinois",288
442,US,Chicago,Motel 6 Naperville,"1585 Naperville Wheaton Rd, Naperville, DuPage County, Illinois",246
443,US,Chicago,Red Roof Inn Chicago - Alsip,"12340 S Cicero Ave, Alsip, Illinois",37
444,US,Chicago,"Sable at Navy Pier Chicago, Curio Collection by Hilton","900 E Grand Ave, Chicago, Illinois",242
445,US,Chicago,O'Hare Inn & Suites,"4101 Mannheim Rd, Schiller Park, Illinois",240
446,US,Chicago,Holiday Inn Chicago – Midway Airport S,"7353 South Cicero Avenue, Chicago, Illinois",252
447,US,Chicago,Baymont Inn & Suites by Wyndham Mundelein near Vernon Hills,"517 E Il Route 83, Mundelein, Lake County, Illinois",337
448,US,Chicago,"Margarita European Inn, an Ascend Hotel Collection Member","1566 Oak Avenue, Evanston, Illinois",199
449,US,Chicago,Red Carpet Inn N. Chicago,"3207 Buckley Rd, North Chicago, Lake County, Illinois",117
450,US,Chicago,Lake Country Inn,"18 W Merchant St, New Buffalo, Berrien County, Michigan",226
451,US,Chicago,Hampton Inn Litchfield,"11 Thunderbird Circle, Litchfield, Illinois",528
452,US,Chicago,Hilton Garden Inn Chicago McCormick Place,"123 East Cermak, Chicago, Illinois",224
453,US,Chicago,Sheraton Lisle Naperville Hotel,"3000 Warrenville Rd, Lisle, DuPage County, Illinois",215
454,US,Chicago,Four Points by Sheraton Chicago Westchester/Oak Brook,"2222 Enterprise Dr, Westchester, Illinois",27
455,US,Chicago,Moxy Chicago Downtown,"530 N La Salle Dr, Chicago, Illinois",198
456,US,Chicago,WoodSpring Suites Chicago Romeoville,"1093 Windham Pkwy, Romeoville, Illinois",32
457,US,Chicago,Comfort Inn Matteson - Chicago,"5210 Southwick Dr, Matteson, Illinois",33
458,US,Chicago,The Chicago Hotel Collection Millennium Park,"55 E Washington St, Chicago, Illinois",336
459,US,Chicago,"Holiday Inn & Suites Bolingbrook, an IHG Hotel","205 Remington Blvd., Bolingbrook, DuPage County, Illinois",199
460,US,Chicago,Rodeway Inn Chicago-Evanston,"6155 N Jersey Ave, Chicago, Illinois",24
461,US,Chicago,Extended Stay America - Chicago - Hanover Park,"1075 E Lake St, Hanover Park, Illinois",44
462,US,Chicago,Roscoe Village Guesthouse,"2104 W Roscoe St, Chicago, Illinois",183
463,US,Chicago,Days Inn & Suites by Wyndham Romeoville,"1280 W Normantown Rd, Romeoville, Illinois",201
464,US,Chicago,Lang House Chicago,"7421 N Sheridan Rd, Chicago, Illinois",256
465,US,Chicago,WoodSpring Suites Chicago Tinley Park,"18636 W Creek Dr, Tinley Park, Illinois",40
466,US,Chicago,Motel 6 Chicago Northwest- Rolling Meadows,"1800 Winnetka Cir, Rolling Meadows, Illinois",50
467,US,Chicago,The Chicago Hotel Collection Wrigleyville,"3475 N Clark St, Chicago, Illinois",105
468,US,Chicago,Found Hotel Chicago River North,"613 N Wells St, Chicago, Illinois",229
469,US,Chicago,Super 8 by Wyndham Monee,"5825 W Monee Manhattan Rd, Monee, Illinois",201
470,US,Chicago,Chinatown Hotel,"214 W 22nd Pl, Chicago, Illinois",225
471,US,Chicago,Comfort Inn O'Hare,"2175 E Touhy Ave, Des Plaines, Illinois",474
472,US,Chicago,"Holiday Inn Express & Suites Chicago O'Hare Airport, an IHG Hotel","3001 South Mannheim Road, Des Plaines, Illinois",26
473,US,Chicago,Hilton Garden Inn Chicago Central Loop,"245 S. Franklin St., Chicago, Illinois",38
474,US,Chicago,The Glen Club,"2901 W Lake Ave, Glenview, Illinois",171
475,US,Chicago,"Holiday Inn Express Chicago NW-Vernon Hills, an IHG Hotel","975 North Lakeview Parkway, Vernon Hills, Lake County, Illinois",34
476,US,Chicago,Home2 Suites by Hilton Chicago McCormick Place,"123 East Cermak, Chicago, Illinois",163
477,US,Chicago,Comfort Inn,"2075 Barrington Rd, Hoffman Estates, Illinois",186
478,US,Chicago,Hyatt Place Chicago/Wicker Park,"1551 W North Ave, Chicago, Illinois",195
479,US,Chicago,Sleep Inn at Great Lakes Naval Base,"3250 Bittersweet Ave, Lake Bluff, Lake County, Illinois",164
480,US,Chicago,SpringHill Suites by Marriott Chicago Chinatown,"2357 S Wentworth Ave, Chicago, Illinois",24
481,US,Chicago,Sleep Inn Midway Airport,"6650 S Cicero Ave, Bedford Park, Illinois",241
482,US,Chicago,Homewood Suites by Hilton Aurora Naperville,"4320 Meridian Pkwy, Aurora, Illinois",191
483,US,Chicago,Holiday Inn Express & Suites Chicago - Hoffman Estates,"5235 Prairie Stone Pkwy, Hoffman Estates, Illinois",15
484,US,Chicago,Comfort Inn & Suites,"1555 E Fabyan Pkwy, Geneva, Illinois",181
485,US,Chicago,Delta Hotels by Marriott Chicago Willowbrook,"7800 South Kingery Highway, Willowbrook, DuPage County, Illinois",23
486,US,Chicago,The Publishing House Bed and Breakfast,"108 N May St, Chicago, Illinois",195
487,US,Chicago,Chicago Old Colony,"37 W van Buren St, Chicago, Illinois",17
488,US,Chicago,Inn at Water's Edge,"425 Fawell Blvd, Glen Ellyn, DuPage County, Illinois",192
489,US,Chicago,Union League Club of Chicago,"65 W Jackson Blvd, Chicago, Illinois",201
490,US,Chicago,Selina Chicago,"100 E Chestnut St, Chicago, Illinois",26
491,US,Chicago,Lexington Inn & Suites NW Chicago Elgin,"1585 Dundee Ave, Elgin, Illinois",41
492,US,Chicago,Kasa Chicago River North Apartments,"One Superior Place, Chicago, Illinois",43
493,US,Chicago,Fairfield Inn & Suites by Marriott Chicago O'Hare,"2350 Mannheim Rd, Des Plaines, Illinois",13
494,US,Chicago,The Chicago Parthenon Hostel,"310 S Halsted St, Chicago, Illinois",224
495,US,Chicago,CitizenM Chicago Downtown Hotel,"80 E Wacker Pl, Chicago, Illinois",42
496,US,Chicago,"The LaSalle Chicago, Autograph Collection","208 South Lasalle Street, Chicago, Illinois",21
497,US,Chicago,Comfort Inn Arlington Heights-O'Hare Airport,"2120 S Arlington Heights Rd, Arlington Heights, Illinois",170
498,US,Chicago,Magnolia Studios,"5705 N Magnolia Ave, Chicago, Illinois",201
499,US,Chicago,Kasa South Loop Chicago,"900 S Clark St, Chicago, Illinois",23
500,US,Chicago,The Study at University of Chicago,"1227 E 60th St, Chicago, Illinois",42
501,US,Chicago,Sonder South Wabash,"1419 S Wabash Ave, Chicago, Illinois",83
502,US,Chicago,Wingate by Wyndham Tinley Park,"18421 N Creek Dr, Tinley Park, Illinois",1257
503,US,Chicago,DoubleTree by Hilton Hotel Collinsville - St. Louis,"1000 Eastport Plaza Drive, Collinsville, Illinois",1294
504,US,Chicago,Four Winds Casino Resort,"11111 Wilson Rd, New Buffalo, Berrien County, Michigan",650
505,US,Chicago,HI Chicago Hostel,"24 E Ida B Wells Dr, Chicago, Illinois",40
506,US,Chicago,Heart O' Chicago Motel,"5990 N Ridge Ave, Chicago, Illinois",179
507,US,Chicago,Island House Hotel,"6966 Main Street, Mackinac Island, Mackinac County, Upper Peninsula, Michigan",2342
508,US,Chicago,Canopy by Hilton Chicago Central Loop,"226 West Jackson Blvd, Chicago, Illinois",72
509,US,Chicago,Homewood Suites by Hilton Chicago Downtown West Loop,"118 N Jefferson, Chicago, Illinois",131
510,US,Chicago,Hampton Inn Joliet - I-55,"3555 Mall Loop Drive, Joliet, Illinois",650
511,US,Chicago,Champagne Lodge and Luxury Suites,"16W621 S Frontage Rd, Willowbrook, DuPage County, Illinois",269
512,US,Chicago,Hampton Inn Bourbonnais Kankakee,"64 Ken Hayes Drive, Bourbonnais, Illinois",117
513,US,Chicago,Hilton Grand Vacations Club Chicago Magnificent Mile,"300 E Ohio Street, Chicago, Illinois",61
514,US,Chicago,Hilton Garden Inn Lake Forest Mettawa,"26225 North Riverwoods Boulevard, Lake Forest, Lake County, Illinois",934
515,US,Chicago,TownePlace Suites by Marriott Joliet South,"1515 Riverboat Center Dr, Joliet, Illinois",363
516,US,Chicago,MDA Chicago City Apartments,"63 E Lake St, Chicago, Illinois",26
517,US,Chicago,Chestnut Street Inn,"301 E Chestnut St, Sheffield, Illinois",234
518,US,Chicago,La Banque Hotel,"2034 Ridge Rd, Homewood, Illinois",91
519,US,Chicago,Sonesta Select Arlington Heights,"3700 North Wilke Road, Arlington Heights, Illinois",162
520,US,Chicago,Hilton Garden Inn Addison,"551 North Swift Road, Addison, DuPage County, Illinois",484
521,US,Chicago,Motel 6 Chicago Northwest Palatine,"1450 E Dundee Rd, Palatine, Illinois",27
522,US,Chicago,Hampton Inn & Suites Effingham,"1305 N Keller Dr, Effingham, Illinois",865
523,US,Chicago,Holiday Inn Chicago Downtown - Wolf Point,"350 W Wolf Point Plaza, Chicago, Illinois",13
524,US,Chicago,Sonder The Plymouth,"417 S Dearborn St, Chicago, Illinois",61
525,US,Chicago,Comfort Suites Lombard - Addison,"530 W North Ave, Lombard, DuPage County, Illinois",120
526,US,Chicago,Motel 6 Elk Grove Village,"1100 E Devon Ave, Elk Grove Village, Illinois",250
527,US,Chicago,Best Western Plus South Holland/Chicago Southland,"17345 Halsted St., South Holland, Illinois",15
528,US,Chicago,University Club of Chicago,"76 E Monroe St, Chicago, Illinois",96
529,US,Chicago,Hampton Inn Marion,"2710 West Deyoung, Marion, Illinois",581
530,US,Chicago,Four Points by Sheraton Chicago Schaumburg,"1100 East Higgins Road, Schaumburg, Illinois",21
531,US,Chicago,Best Western Plus The Arden Park Hotel,"552 Ontario St, Stratford, Ontario, Canada",1064
532,US,Chicago,Celeste Celebrity Suites,"68 E Cedar St, Chicago, Illinois",31
533,US,Chicago,Bishops Hall Bed & Breakfast,"605 Iowa St, Oak Park, Illinois",82
534,US,Chicago,Sentral Michigan Avenue,"808 S Michigan Ave, Chicago, Illinois",32
535,US,Chicago,Quality Inn & Suites Near I-80 And I-294,"16920 Halsted St, Harvey, Illinois",126
536,US,Chicago,Old Chicago Inn featuring Room 13,"3222 N Sheffield Ave, Chicago, Illinois",131
537,US,Chicago,Motel 6 Prospect Heights IL,"540 N Milwaukee Ave, Prospect Heights, Illinois",124
538,US,Chicago,Q Center,"1405 N 5th Ave, Saint Charles, Illinois",134
539,US,Chicago,Red Roof Inn Gurnee - Waukegan,"3031 Belvidere Rd, Waukegan, Lake County, Illinois",190
540,US,Chicago,Quality Inn,"500 Tollgate Rd, Elgin, Illinois",126
541,US,Chicago,Comfort Inn & Suites Tinley Park IL,"18400 Spring Creek Dr, Tinley Park, Illinois",152
542,US,Chicago,Comfort Inn & Suites,"1359 Grand Pointe Ct, Grand Blanc, Michigan",963
543,US,Chicago,Sonder at Grant Park,"808 S Michigan Ave, Chicago, Illinois",142
544,US,Chicago,Nobu Hotel Chicago,"155 N. Peoria Street, Chicago, Illinois",71
545,US,Chicago,Sleep Inn Naperville,"1831 W Diehl Rd, Naperville, DuPage County, Illinois",100
546,US,Chicago,"Motel 6 Lansing, IL - Chicago South","2151 Bernice Rd, Lansing, Illinois",15
547,US,Chicago,"Holiday Inn Express Crestwood, an IHG Hotel","13330 Cicero Avenue, Crestwood, Illinois",132
548,US,Chicago,Comfort Inn Bourbonnais near I-57,"1500 Illinois Highway 50, Bourbonnais, Illinois",167
549,US,Chicago,Fairfield Inn Kankakee Bourbonnais,"1550 N State Route 50, Bourbonnais, Illinois",127
550,US,Chicago,New Buffalo Inn & Spa,"231 E Buffalo St, New Buffalo, Berrien County, Michigan",110
551,US,Chicago,21c Museum Hotel Chicago,"55 E Ontario St, Chicago, Illinois",173
552,US,Chicago,Sleep Inn Oakbrook Terrace - Chicago,"17W710 22nd St, Oakbrook Terrace, DuPage County, Illinois",41
553,US,Chicago,Soho House Chicago,"113 N Green St # 125, Chicago, Illinois",136
554,US,Chicago,Manilow Suites at 215 West,"215 W Washington St, Chicago, Illinois",23
555,US,Chicago,The Flats at Loyola Station,"1216 W Arthur Ave, Chicago, Illinois",130
556,US,Chicago,Hilton Garden Inn Chicago Downtown South Loop,"55 E 11th Street, Chicago, Illinois",160
557,US,Chicago,The Chicago Hotel Collection: Magnificent Mile Hotel & Suites,"166 E Superior St, Chicago, Illinois",47
558,US,Chicago,Chicago Lake Shore Hotel,"4900 S Lake Shore Dr, Chicago, Illinois",172
559,US,Chicago,Lincoln Park Oasis,"1219 W Draper St, Chicago, Illinois",44
560,US,Chicago,The Polo Inn Bridgeport U.S.A.,"3322 S Morgan St, Chicago, Illinois",87
561,US,Chicago,Comfort Suites Elgin,"2480 Bushwood Dr, Elgin, Illinois",124
562,US,Chicago,Longman & Eagle,"2657 N Kedzie Ave, Chicago, Illinois",92
563,US,Chicago,Lincoln Park Guest House,"2319 N Halsted St, Chicago, Illinois",26
564,US,Chicago,Howard Johnson by Wyndham Manteno,"157 Cypress Dr, Manteno, Illinois",149
565,US,Chicago,Sleep Inn Tinley Park I-80 Near Amphitheatre-Convention Center,"18420 Spring Creek Dr, Tinley Park, Illinois",122
566,US,Chicago,Hampton Inn & Suites Kalamazoo-Oshtemo,"5059 South 9th Street, Kalamazoo, Kalamazoo County, Michigan",532
567,US,Chicago,Pine Country RV & Camping Resort,"5710 Shattuck Rd, Belvidere, Illinois",174
568,US,Chicago,Jaslin Hotel,"261 W Cermak Rd, Chicago, Illinois",145
569,US,Chicago,Woodspring Suites Carol Stream - Chicago,"1160 N Gary Ave, Carol Stream, DuPage County, Illinois",21
570,US,Chicago,Manilow Suites At North Harbor Tower,"175 N Harbor Dr, Chicago, Illinois",72
571,US,Chicago,Ruby Room,"1743 W Division St # 45, Chicago, Illinois",137
572,US,Chicago,Copperstone Inn,"6702 Yale Bridge Rd, Rockton, Illinois",117
573,US,Chicago,Comfort Suites Near I-80 And I-94,"2235 West 173rd St, Lansing, Illinois",88
574,US,Chicago,Benedictine Bed and Breakfast,"3111 S Aberdeen St, Chicago, Illinois",32
575,US,Chicago,Econo Lodge,"820 W 79th St, Willowbrook, DuPage County, Illinois",82
576,US,Chicago,Rodeway Inn Lyons,"8640 Ogden Ave, Lyons, Illinois",90
577,US,Chicago,Fairfield Inn & Suites Joliet North/Plainfield,"3239 Norman Ave, Joliet, Illinois",85
578,US,Chicago,The Dunes Resort,"333 Blue Star Hwy, Douglas, Allegan County, Michigan",90
579,US,Chicago,The Hotel at Midtown,"2444 N Elston Ave, Chicago, Illinois",52
580,US,Chicago,Manilow Suites at One West Superior,"1 W Superior St, Chicago, Illinois",19
581,US,Chicago,Harrison House Bed & Breakfast,"26 North Eagle Street, Naperville, DuPage County, Illinois",96
582,US,Chicago,The Royal Sonesta Chicago Downtown,"71 E Wacker Drive, Chicago, Illinois",153
583,US,Chicago,The Forester a Hyatt Place Hotel,"200 N Field Drive, Lake Forest, Lake County, Illinois",56
584,US,Chicago,Wheeler Mansion,"2020 S Calumet Ave, Chicago, Illinois",135
585,US,Chicago,"voco Chicago Downtown, an IHG Hotel","350 W. Wolf Point Plaza, Chicago, Illinois",5
586,US,Chicago,Leisure Lake Resort,"21900 SW Frontage Rd, Joliet, Illinois",45
587,US,Chicago,Hampton Inn Macomb,"1639 E Jackson St, Macomb, Illinois",498
588,US,Chicago,"Country Inn & Suites by Radisson, Elgin, IL","2270 Point Blvd, Elgin, Illinois",444
589,US,Chicago,MainStay Suites South,"135 S Larkin Ave, Joliet, Illinois",63
590,US,Chicago,Fuller's Resort & Campground,"1622 E Clear Lake Rd, Buchanan, Berrien County, Michigan",67
591,US,Chicago,Baymont by Wyndham Effingham,"1811 W Fayette Ave, Effingham, Illinois",474
592,US,Chicago,Clarion Pointe,"206 McFall Rd, Mattoon, Illinois",486
593,US,Chicago,The Buckingham Hotel,"425 S Financial Pl, Chicago, Illinois",37
594,US,Chicago,Sonder Greektown,"314 S Halsted St, Chicago, Illinois",12
595,US,Chicago,Best Western Pontiac Inn,"1821 W Reynolds St, Pontiac, Illinois",280
596,US,Chicago,Comfort Inn North,"3235 Norman Ave, Joliet, Illinois",97
597,US,Chicago,Sonder Jewelers Row,"19 S Wabash Ave, Chicago, Illinois",43
598,US,Chicago,City Scene Bed and Breakfast,"2101 N Clifton Ave, Chicago, Illinois",16
599,US,Chicago,Walton Residences,"70 E Walton St, Chicago, Illinois",14
600,US,Chicago,Fairfield Inn by Marriott Port Huron,"1635 Yeager Street, Port Huron, Michigan",267
601,US,Chicago,Manilow Suites at The Grand Plaza,"545 N Dearborn St, Chicago, Illinois",28
602,US,Chicago,The Amber Inn,"3901 S Michigan Ave, Chicago, Illinois",82
603,US,Chicago,Bullfrog Lake Campground,"9600 Wolf Road, Willow Springs, Illinois",14
604,US,Chicago,Manilow Suites at Columbus Plaza,"233 E Wacker Dr, Chicago, Illinois",4
605,US,Chicago,The Leavitt Street Inn & Tavern,"2345 N Leavitt St, Chicago, Illinois",6
606,US,Chicago,Clarion Hotel & Convention Center Joliet,"411 S Larkin Ave, Joliet, Illinois",146
607,US,Chicago,Quality Inn Bolingbrook I-55,"175 Remington Blvd, Bolingbrook, DuPage County, Illinois",86
608,US,Chicago,WoodSpring Suites Chicago Addison,"991 W Lake St, Addison, DuPage County, Illinois",12
609,US,Chicago,Bella Vita Spa + Suites,"119 Butler St, Saugatuck, Allegan County, Michigan",151
610,US,Chicago,Ramada by Wyndham Glendale Heights/Lombard,"780 E North Ave, Glendale Heights, DuPage County, Illinois",143
611,US,Chicago,Comfort Inn & Suites,"1133 N 7th St, Rochelle, Illinois",122
612,US,Chicago,House 5863 Bed & Breakfast,"5863 N Glenwood Ave, Chicago, Illinois",68
613,US,Chicago,Manilow Suites at Presidential Towers,"605 W Madison St, Chicago, Illinois",12
614,US,Chicago,Home2 Suites by Hilton Joliet Plainfield,"4095 Hennepin Drive, Joliet, Illinois",237
615,US,Chicago,Baumhart Lodging at Loyola University Chicago,"26 E Pearson St, Chicago, Illinois",8
616,US,Chicago,Corporate Suites Network at Presidential Towers,"555 W Madison St, Chicago, Illinois",27
617,US,Chicago,Oakwood Apartments,"77 W Huron St, Chicago, Illinois",14
618,US,Chicago,The Penthouse at Grand Plaza,"540 N State St, Chicago, Illinois",24
619,US,Chicago,Travelodge by Wyndham Lansing IL,"17301 Oak Ave, Lansing, Illinois",85
620,US,Chicago,"Candlewood Suites Aurora-Naperville, an IHG Hotel","2625 W Sullivan Rd, Aurora, Illinois",133
621,US,Chicago,"Country Inn & Suites by Radisson, Crystal Lake, IL","600 Tracy Trl, Crystal Lake, Illinois",356
622,US,Chicago,Aloft Bolingbrook,"500 North Janes Avenue, Bolingbrook, DuPage County, Illinois",397
623,US,Chicago,Four Points by Sheraton Buffalo Grove,"900 West Lake Cook Road, Buffalo Grove, Lake County, Illinois",56
624,US,Chicago,Days Inn by Wyndham Calumet Park,"12800 S Ashland Ave, Calumet Park, Illinois",70
625,US,Chicago,Ravinia Guest House,"264 Oakland Dr, Highland Park, Lake County, Illinois",17
626,US,Chicago,The Hamlin House Bed & Breakfast,"5528 S Woodlawn Ave, Chicago, Illinois",3
627,US,Chicago,Victorian Rose Garden Bed & Breakfast,"314 Washington St, Algonquin, Illinois",61
628,US,Chicago,Motel 6 Libertyville,"1809 N Milwaukee Ave, Libertyville, Lake County, Illinois",242
629,US,Chicago,"The Drake Oak Brook, Autograph Collection","2301 York Rd, Oak Brook, DuPage County, Illinois",789
630,US,Chicago,"Country Inn & Suites by Radisson, Romeoville, IL","1265 Lakeview Dr, Romeoville, Illinois",492
631,US,Chicago,Ivy Terrace Apartments,"5140 S Kenwood Ave, Chicago, Illinois",28
632,US,Chicago,Warren Dunes State Park Campground,"12032 Red Arrow Hwy, Sawyer, Berrien County, Michigan",62
633,US,Chicago,Hotel Indigo Naperville Riverwalk,"120 Water St, Naperville, DuPage County, Illinois",269
634,US,Chicago,Howard Johnson by Wyndham Waukegan Great Lakes,"619 S Green Bay Rd, Waukegan, Lake County, Illinois",281
635,US,Chicago,Hotel Baker,"100 W Main St, Saint Charles, Illinois",222
636,US,Chicago,The Emily Hotel,"311 N Morgan St, Chicago, Illinois",35
637,US,Chicago,Hampton Inn Joliet - I-80,"1521 Riverboat Center Drive, Joliet, Illinois",737
638,US,Chicago,Sleep Inn Near I-80 And I-94,"2255 173rd St, Lansing, Illinois",65
639,US,Chicago,The Villa Toscana,"3447 N Halsted St, Chicago, Illinois",102
640,US,Chicago,"Country Inn & Suites by Radisson, Tinley Park, IL","18315 La Grange Rd, Tinley Park, Illinois",643
641,US,Chicago,Best Western Joliet Inn & Suites,"4380 Enterprise Dr, Joliet, Illinois",335
642,US,Chicago,Motel 6 Bridgeview,"9625 S 76th Ave, Bridgeview, Illinois",316
643,US,Chicago,Super 8 by Wyndham Rochelle 601 East Highway 38,"601 East Highway 38, Rochelle, Illinois",365
644,US,Chicago,Hansen House Mansion Guest House,"164 W Eugenie St, Chicago, Illinois",44
645,US,Chicago,Kankakee South KOA,"425 East 6000 South Road, Chebanse, Illinois",27
646,US,Chicago,Howard Johnson Hotel & Suites by Wyndham Elk Grove Village,"1925 E Higgins Rd, Elk Grove Village, Illinois",399
647,US,Chicago,Rodeway Inn,"5952 N Lincoln Ave, Chicago, Illinois",62
648,US,Chicago,Best Western Oswego Hotel,"2055 Wiesbrook Rd, Oswego, Illinois",183
649,US,Chicago,New Relax Inn,"7336 S Harlem Ave, Bridgeview, Illinois",21
650,US,Chicago,Skylark Motel,"5435 S Archer Ave, Chicago, Illinois",14
651,US,Chicago,The Westin O'Hare,"6100 North River Road, Rosemont, Illinois",34
652,US,Chicago,Clarion Inn,"610 Tollview Dr, South Holland, Illinois",39
653,US,Chicago,"Holiday Inn Express & Suites Bensenville - O'Hare, an IHG Hotel","811 E Grand Ave, Bensenville, DuPage County, Illinois",75
654,US,Chicago,The Neighborhood Hotel Lincoln Park,"2616 N Clark St, Chicago, Illinois",11
655,US,Chicago,Manilow Suites at 77 West,"77 W Huron St, Chicago, Illinois",3
656,US,Chicago,Hollywood Stadium Sports Bar,"777 Hollywood Blvd, Joliet, Illinois",209
657,US,Chicago,Four Points by Sheraton Mount Prospect O’Hare,"2200 South Elmhurst Road, Mount Prospect, Illinois",42
658,US,Chicago,MainStay Suites Chicago Schaumburg,"1200 Bank Dr, Schaumburg, Illinois",5
659,US,Chicago,Bundling Board Inn,"220 E South St, Woodstock, Illinois",13
660,US,Chicago,Manilow Suites at the Shoreham,"400 E South Water St, Chicago, Illinois",4
661,US,Chicago,The Inn at Smokey Row,"112 Stephen St, Lemont, Illinois",8
662,US,Chicago,Hampton Inn Pontiac,"2000 Grand Prix Drive, Pontiac, Illinois",193
663,US,Chicago,Bellwood Hotel,"1409 W Diversey Pkwy, Chicago, Illinois",16
664,US,Chicago,Loop Suites,"65 E Washington St, Chicago, Illinois",30
665,US,Chicago,Holiday Inn Rockford(I-90&Rt 20/State St),"7550 E State St, Rockford, Illinois",217
666,US,Chicago,The Inn at Wrigleyville,"3617 N Sheffield Ave # 19, Chicago, Illinois",18
667,US,Chicago,Quality Inn Monee I-57,"5815 W Monee Manhattan Rd, Monee, Illinois",39
668,US,Chicago,Comfort Inn Joliet West I-80,"1520 Commerce Ln, Joliet, Illinois",85
669,US,Chicago,Marina Grand Resort,"600 W Water St, New Buffalo, Berrien County, Michigan",350
670,US,Chicago,Home2 Suites by Hilton Lincolnshire Chicago,"350 Knightsbridge Pkwy, Lincolnshire, Lake County, Illinois",14
671,US,Chicago,Yelton Manor Boutique Hotel B&B,"140 N Shore Dr, South Haven, Van Buren County, Michigan",971
672,US,Chicago,"Country Inn & Suites by Radisson, Sycamore, IL","1450 South Peace Rd., Sycamore, Illinois",351
673,US,Chicago,Americas Best Value Inn & Suites Waukegan Gurnee,"411 S Green Bay Rd, Waukegan, Lake County, Illinois",103
674,US,Chicago,"Holiday Inn Express & Suites Morris, an IHG Hotel","222 Gore Rd, Morris, Illinois",149
675,US,Chicago,Lakeside Cabins Resort,"7650 Warren Woods Rd, Three Oaks, Berrien County, Michigan",239
676,US,Chicago,The Biddle House,"405 W Eugenie St, Chicago, Illinois",8
677,US,Chicago,Fairfield Inn & Suites Watervliet St. Joseph,"8258 Arnt Blvd, Watervliet, Berrien County, Michigan",213
678,US,Chicago,Quality Inn Aurora - Naperville Area,"4005 Gabrielle Ln, Aurora, Illinois",76
679,US,Chicago,TownePlace Suites Chicago Waukegan/Gurnee,"404 Lakehurst Rd, Waukegan, Lake County, Illinois",6
680,US,Chicago,"Country Inn & Suites by Radisson, Benton Harbor-St. Joseph, MI","2276 Pipestone Rd, Benton Harbor, Berrien County, Michigan",310
681,US,Chicago,Holiday Inn Aurora North- Naperville An IHG Hotel,"2424 W Sullivan Rd, Aurora, Illinois",176
682,US,Chicago,Baymont by Wyndham Paw Paw,"111 Ampey Rd, Paw Paw, Van Buren County, Michigan",452
683,US,Chicago,L.P. Motel,"4605 N Harlem Ave, Harwood Heights, Illinois",8
684,US,Chicago,Chateau Chantal Winery and Inn,"15900 Rue de Vin, Traverse City, Grand Traverse County, Michigan",451
685,US,Chicago,Lakeside Resort and Conference Center,"100 Clearview Dr, Houghton Lake, Michigan",286
686,US,Chicago,Days Inn by Wyndham Whitmore Lake,"9897 Main St, Whitmore Lake, Michigan",280
687,US,Chicago,Detroit Marriott Southfield,"27033 Northwestern Hwy, Southfield, Michigan",393
688,US,Chicago,West Loop Lofts,"1650 W Adams St, Chicago, Illinois",5
689,US,Chicago,Renaissance Schaumburg Convention Center Hotel,"1551 Thoreau Dr N, Schaumburg, Illinois",885
690,US,Chicago,La Quinta Inn & Suites by Wyndham Bannockburn - Deerfield,"2000 Lakeside Dr, Bannockburn, Lake County, Illinois",620
691,US,Chicago,Hilton Garden Inn Kankakee,"455 Riverstone Parkway, Kankakee, Illinois",642
692,US,Chicago,Super 8 by Wyndham Romeoville Bolingbrook,"1301 Marquette Dr, Romeoville, Illinois",298
693,US,Chicago,Super 8 by Wyndham DeKalb IL,"800 W Fairview Dr, DeKalb, Illinois",295
694,US,Chicago,TownePlace Suites by Marriott Detroit Warren,"7601 Chicago Road, Warren, Michigan",270
695,US,Chicago,Sleep Inn & Suites,"5597 S 9th St, Kalamazoo, Kalamazoo County, Michigan",1462
696,US,Chicago,Super 8 by Wyndham Hampshire IL,"115 Arrowhead Dr, Hampshire, Illinois",120
697,US,Chicago,Super 8 by Wyndham South Holland,"17225 Halsted St, South Holland, Illinois",35
698,US,Chicago,Starved Rock State Park Campground,"Route 178 & Route 71, Utica, Illinois",56
699,US,Chicago,Motel 6 Alsip,"5150 W 127th St, Alsip, Illinois",326
700,US,Chicago,Holiday Inn Express Detroit-warren (GM Tech Ctr),"11500 East 11 Mile Road, Warren, Michigan",116
701,US,Chicago,Fox River Bed and Breakfast,"3367 E 2072nd Rd, Ottawa, Illinois",35
702,US,Chicago,Level Chicago - Old Town,"1140 N Wells St, Chicago, Illinois",4
703,US,Chicago,Corporate Suites Network,"233 E Wacker Dr, Chicago, Illinois",5
704,US,Chicago,Fish Lake Beach Camping Resort,"32223 N US Highway 12, Volo, Lake County, Illinois",24
705,US,Chicago,Sonder at 820 South Michigan,"820 S Michigan Ave, Chicago, Illinois",6
706,US,Chicago,Quality Inn,"1823 W Reynolds St, Pontiac, Illinois",83
707,US,Chicago,Lakeside Inn,"15251 Lakeshore Rd, Lakeside, Berrien County, Michigan",149
708,US,Chicago,The Manor Motel,"23926 W Earnes St, Channahon, Illinois",26
709,US,Chicago,Best Western Chester Hotel,"2150 State St, Chester, Illinois",174
710,US,Chicago,Munro House Bed & Breakfast and Spa,"202 Maumee St, Jonesville, Michigan",94
711,US,Chicago,AJ's Walleye Lodge,"35131 State Highway M-28, Bergland, Upper Peninsula, Michigan",85
712,US,Chicago,The Kirby,"294 West Center, Douglas, Allegan County, Michigan",78
713,US,Chicago,Marcotte's Family Motel,"2156 East Route 20, Elizabeth, Illinois",73
714,US,Chicago,Rim Rock's Dogwood Cabins,"798 Karbers Ridge Rd, Elizabethtown, Illinois",147
715,US,Chicago,Super 8 by Wyndham Yorkville,"1510 N Bridge St, Yorkville, Illinois",196
716,US,Chicago,Super 8 by Wyndham Dwight,"14 E Northbrook Dr, Dwight, Illinois",191
717,US,Chicago,Lincoln Way: A Destination Inn,"409 N State St, Franklin Grove, Illinois",125
